"taskID","userID","objectType","rightCorner","collection","site","toSearch","Lat","Lon","gridRef","dateDiscoveryDay","dateDiscoveryMonth","dateDiscoveryYear","length","width","edge","weight","patina","surface","thickness","other","composition","associations","description","publications","remarks","inputBy","imageURL","flickrURL","Processing","lon","lat","project"
"30249",,,,,,,,,,,,,,,,,,,,,,,,,,,"https://farm8.staticflickr.com/7433/16263331920_e9e18a8cb9_b.jpg",,"merged",,,"bmswords"
"30250","580","Sword","prob. II d.","BM, unregistered.","? Britain, unknown provenance.","",,,"","None","None","None","","","","","","","","","","","4 rivets (2 + 2) in shoulder, 2 in grip. 2 ribs down web of grip.","","CI","Denis Antoine","https://farm8.staticflickr.com/7433/16263060728_59d748e80d_b.jpg","https://www.flickr.com/photos/MicroPasts/16263060728","superuser",,,"bmswords"
"30251","580","Leaf Shaped Sword","II d","British Museum. 66 6 27 114, Christy Collection (lot 132)","Locality unknown","",,,"","None","None","None","467","blade 32.5; 23; hilt 44; 19; 15; 27.5","","368.55","","rather rough, dull bronze","blade 7","","","","6 rivet holes, 1 rivet & part of 2 others in holes.","","Drawing somewhat inaccurate., CI","Denis Antoine","https://farm8.staticflickr.com/7408/16263060788_28a3aa7885_b.jpg","https://www.flickr.com/photos/MicroPasts/16263060788","superuser",,,"bmswords"
"30252","243","Leaf shaped sword","IVa","British Museum,Christy Colln.,66.6-27.113,Iol 73.","? Britain,Locality unknown","Great Britain, United Kingdom","53.7190281","-2.0727838999999904","","None","None","None","429","hilt 43 22 20 15 28","blade 24 32 27 35","361.46","slight patina dark brown","pitted & rather rusty","blade 7","2 cross section drawings of sword on reverse.,Blade in drawing does not appear particularly leaf shaped, tapers slightly from hilt about 1/4 way down blade, then widens slightly the next 2/4, then tapers again to tip.,2 rivet holes horizontally on hilt directly below blade, then two more in line vertically on grip portion.","","","4 rivet holes,Blade broken across & mended","","Drawing inaccurate (somewhat),CI","Jeff Okazaki","https://farm9.staticflickr.com/8661/16449801482_1714de8628_b.jpg","https://www.flickr.com/photos/MicroPasts/16449801482","superuser",-2.0728,53.719,"bmswords"
"30253",,,,,,,,,,,,,,,,,,,,,,,,,,,"https://farm9.staticflickr.com/8582/16264843797_dcafeb60b9_b.jpg",,"merged",,,"bmswords"
"30254","580","Leaf Shaped Sword","II a","British Museum, 56 7 1 1353 CRS. } ? ref.","England, R. Thames","Tamise","51.4917059","0.7321755000000394","","None","None","None","620","blade 43; 31.5; hilt 53","","601.35","slight patina greenish brown.","rough, with some whitish encrustations.","blade 7","","","","Hilt broken. 3 rivets. Blade is twisted.","","Inacc. drawing, CI","Denis Antoine","https://farm9.staticflickr.com/8676/15828226204_1f81202493_b.jpg","https://www.flickr.com/photos/MicroPasts/15828226204","superuser",0.7322,51.4917,"bmswords"
"30255","580","Leaf Shaped Sword","IV b","British Museum 64 9 3 5","England, R. Thames","Tamise","51.4917059","0.7321755000000394","","None","None","None","636","blade 42; 31, 45; hilt 56; 22; 25.5; 33","","741.1","black stains on dull bronze.","very finely mottled.","blade 7; hilt 7","","","","9 rivet holes","","Hilt section, Drawing not quite accurate., CI","Denis Antoine","https://farm8.staticflickr.com/7408/16264843847_95058d2097_b.jpg","https://www.flickr.com/photos/MicroPasts/16264843847","superuser",0.7322,51.4917,"bmswords"
"30256",,,,,,,,,,,,,,,,,,,,,,,,,,,"https://farm8.staticflickr.com/7415/15830673223_8bbc67a084_b.jpg",,"merged",,,"bmswords"
"30257",,,,,,,,,,,,,,,,,,,,,,,,,,,"https://farm8.staticflickr.com/7330/16424750356_539dd6ba59_b.jpg",,"merged",,,"bmswords"
"30258",,,,,,,,,,,,,,,,,,,,,,,,,,,"https://farm9.staticflickr.com/8647/16263061088_0a017c932f_b.jpg",,"merged",,,"bmswords"
"30259",,,,,,,,,,,,,,,,,,,,,,,,,,,"https://farm8.staticflickr.com/7359/16450750785_40a2fdea97_b.jpg",,"merged",,,"bmswords"
"30260","433","Hemigkofen, Leaf-Shaped Sword","IC","British Museum, Tr. 43","Britain,Probably from the Thames, see ref. below.","River Thames","51.4917059","0.7321755000000394","","None","None","None","572","blade 33, 43, 49, 33; hilt 54.5; 24; 43.5","","588.25","Traces of patina, black and rusty brown.","Smooth","7","","","","Blade bent backwards at lower end. Eleven rivet holes. Much worn.","J.D. Cowen, P.P.S., 1951, No. 9","CI","Joellen mcGann","https://farm8.staticflickr.com/7407/16424750506_335cf9d6b4_b.jpg","https://www.flickr.com/photos/MicroPasts/16424750506","superuser",0.7322,51.4917,"bmswords"
"30261","433","Leaf-Shaped Sword","IIC","British Museum, 56.8-13.1","England,R. Thames","River Thames","51.4917059","0.7321755000000394","","None","None","None","724","hilt 35, 55; blade 39.5, 43","","933.21","Slight patina.","Smooth. Slightly encrusted with coarse sand.","blade 8","","","","Hilt top damaged. 12 rivet holes. 5 rivets and part of 2 others. Those on the left side are covered with patches of sand.","Hor. Fer., pl. IX, fig. 2","Inacc. drawing.,CI","Joellen mcGann","https://farm9.staticflickr.com/8599/16264844147_588cca49eb_b.jpg","https://www.flickr.com/photos/MicroPasts/16264844147","superuser",0.7322,51.4917,"bmswords"
"30262","433","Sword (Ballintoben)","","British Museum, 1957.5-3.1","England,?R. Thames","River Thames","51.4917059","0.7321755000000394","","None","None","None","","","","","","","","","","","","","CI","Joellen mcGann","https://farm9.staticflickr.com/8567/16450750905_26fab99ca2_b.jpg","https://www.flickr.com/photos/MicroPasts/16450750905","superuser",0.7322,51.4917,"bmswords"
"30263","433","Leaf-Shaped Sword","VI","British Museum, W.G. 1237,""Given by Earl of Southesk to lord Rosehill and by him to me.""","Scotland,Tayside,Brechin,Leuchland,peat moss","Brechin, Brechin, Angus DD9, UK","56.73334200000001","-2.6552888999999595","NO 59 60","None","None","None","660","blade 24, 32, 26, 30, 39; hilt 51, 31","","833.98","Very slight patina, dark brown.","Much pitted showing lighter brown and corroded.","blade 9","","","","Hilt broken. 5 rivets and 3 broken rivet holes.","","Damage not drawn quite accurately.,CI","Joellen mcGann","https://farm8.staticflickr.com/7323/16448994861_ba2d25668c_b.jpg","https://www.flickr.com/photos/MicroPasts/16448994861","superuser",-2.6553,56.7333,"bmswords"
"30264","433","Leaf-Shaped Sword","VI","British Museum, WG 1238","Scotland,Tayside,Brechin","Brechin, Brechin, Angus DD9, UK","56.73334200000001","-2.6552888999999595","NO 59 60","None","None","None","667","blade 32, 40, 58; hilt 25, 30, 16, 38","","607.68","Dark brown. Bronze shows on part of blade. Some green.","Pitted","blade 6","","","","6 rivets.","","CI","Joellen mcGann","https://farm9.staticflickr.com/8676/16449801962_89972d220d_b.jpg","https://www.flickr.com/photos/MicroPasts/16449801962","superuser",-2.6553,56.7333,"bmswords"
"30265","433","Leaf-Shaped Sword","IIC","British Museum, L. g.,purchased from Laing (dealer) 1836,Reg. Mrs. Lang,36,9-1,1","England,Sussex East,Battle","Battle, East Sussex, UK","50.917405","0.48367899999993824","TQ 74 15","None","None","None","745","blade 45; hilt 59, 20, 74.5","","1047.86","Some patina, black patina.","Dull bronze. Smooth.","blade 9","","","","Hilt end is rough. Blade broken across and joined. 5 rivets. Edges chipped.","Keyrick, Ancient Armor, pl. XLVII, 14.","Inaccurate drawing of hilt.,CI","Joellen mcGann","https://farm8.staticflickr.com/7378/16264496959_12e05e2856_b.jpg","https://www.flickr.com/photos/MicroPasts/16264496959","superuser",0.4837,50.9174,"bmswords"
"30266","433","Leaf-Shaped Sword","IIC","British Museum, WG 1239","England,Suffolk,Barrow","Barrow, Bury Saint Edmunds, Suffolk IP29, UK","52.241117","0.5831900000000587","","None","None","None","693","blade 45, 33, 35,5, 55, 37","","851.75","","Mostly smooth. Dull golden bronze.","blade 10","","","1a. Hoard","10 rivet holes and a long slot in handle. Blade broken across and neatly mended. Edges a little notched.","Evans, Ancient Bronze Implements, 1881, p. 279, fig. 343.","Drawing not quite accurate.,AFI,CI","Joellen mcGann","https://farm8.staticflickr.com/7290/16264844207_1c0a06e867_b.jpg","https://www.flickr.com/photos/MicroPasts/16264844207","superuser",0.5832,52.2411,"bmswords"
"30267","433","Sword, Broken","II","London, British Museum, 72.3-29.10","England,Shropshire,Clungunford,Broadward Hall","Clungunford, Craven Arms, Shropshire SY7, UK","52.4036029","-2.884545000000003","","None","None","None","","","","","","","","","","","","","See new index.,CI","Joellen mcGann","https://farm8.staticflickr.com/7313/15828226634_4637bc502f_b.jpg","https://www.flickr.com/photos/MicroPasts/15828226634","superuser",-2.8845,52.4036,"bmswords"
"30268","433","Handle of Sword","","London, British Museum, WG 2232","England,Shropshire,Clungunford,Broadward Hall","Clungunford, Craven Arms, Shropshire SY7, UK","52.4036029","-2.884545000000003","","None","None","None","","","","","","","","","","","","","See new index.,CI","Joellen mcGann","https://farm9.staticflickr.com/8561/16264497239_06e3e5b239_b.jpg","https://www.flickr.com/photos/MicroPasts/16264497239","superuser",-2.8845,52.4036,"bmswords"
"30269","433","Fragment of Sword Blade","","London, British Museum, WG 2231","England,Shropshire,Clungunford,Broadward Hall","Clungunford, Craven Arms, Shropshire SY7, UK","52.4036029","-2.884545000000003","","None","None","None","","","","","","","","","","","","","See new index.,CI","Joellen mcGann","https://farm8.staticflickr.com/7334/16264844377_a5238a547f_b.jpg","https://www.flickr.com/photos/MicroPasts/16264844377","superuser",-2.8845,52.4036,"bmswords"
"30270","433","Fragment of Sword Blade","","London, British Museum, WG 2230","England,Shropshire,Clungunford,Broadward Hall","Clungunford, Craven Arms, Shropshire SY7, UK","52.4036029","-2.884545000000003","","None","None","None","","","","","","","","","","","","","See new index.,CI","Joellen mcGann","https://farm8.staticflickr.com/7336/15828226894_b0b95b2f26_b.jpg","https://www.flickr.com/photos/MicroPasts/15828226894","superuser",-2.8845,52.4036,"bmswords"
"30271","433","Fragment of Sword Blade","","London, British Museum, WG 2229","England,Shropshire,Clungunford,Broadward Hall","Clungunford, Craven Arms, Shropshire SY7, UK","52.4036029","-2.884545000000003","","None","None","None","","","","","","","","","","","","","See new index.,CI","Joellen mcGann","https://farm9.staticflickr.com/8575/16263332630_c4ba15e841_b.jpg","https://www.flickr.com/photos/MicroPasts/16263332630","superuser",-2.8845,52.4036,"bmswords"
"30272","433","Fragment of Sword Blade","","London, British Museum, WG 2228","England,Shropshire,Clungunford,Broadward Hall","Clungunford, Craven Arms, Shropshire SY7, UK","52.4036029","-2.884545000000003","","None","None","None","","","","","","","","","","","","","See new index.,CI","Joellen mcGann","https://farm8.staticflickr.com/7402/16450751355_77f3dd6ff8_b.jpg","https://www.flickr.com/photos/MicroPasts/16450751355","superuser",-2.8845,52.4036,"bmswords"
"30273","433","Sword Fragment","","London, British Museum, WG 2227","England,Shropshire,Clungunford,Broadward Hall","Clungunford, Craven Arms, Shropshire SY7, UK","52.4036029","-2.884545000000003","","None","None","None","","","","","","","","","","","","","See new index.,CI","Joellen mcGann","https://farm8.staticflickr.com/7287/15828226994_75256a3308_b.jpg","https://www.flickr.com/photos/MicroPasts/15828226994","superuser",-2.8845,52.4036,"bmswords"
"30274","433","Sword","IVA","British Museum, 1951.10-7.1","England,Northumberland,Kielder,Kielder Forest","Kielder Forest, United Kingdom","55.23683339999999","-2.605925299999967","NY 68 69","None","None","None","","","","","","","","","","","2 + 2 rivets in shoulder; grip broken off.","","CI","Joellen mcGann","https://farm9.staticflickr.com/8639/16449802402_ab1d25361d_b.jpg","https://www.flickr.com/photos/MicroPasts/16449802402","superuser",-2.6059,55.2368,"bmswords"
"30275","433","Fragment of Sword","IIIC","British Museum, WG 2433","England,Norfolk,Stanford","Stanford, Norfolk, UK","52.5136183","0.7287463000000116","TL 96 73","None","None","None","88","47 across shoulders","","101","Dark brown; partly cleaned off to show golden-bronze colour.","Smooth generally. The rust-like substance on the shoulders is rough.","6","","","","Small piece; base of hilt, shoulders and top of blade only. The two rivet holes are blocked with rust-like substance. One wing of the blade has been recently scraped on one side. The whole is very slightly bent.","","OK,CI","Joellen mcGann","https://farm8.staticflickr.com/7374/15830673983_b2f5caf96d_b.jpg","https://www.flickr.com/photos/MicroPasts/15830673983","superuser",0.7287,52.5136,"bmswords"
"30276","433","Sword","","British Museum, 1903.6-23.46 and 46a.,ex-Cecil Brent collection.","Unknown provenance.,(Label says ?Kent; most likely to be Scandinavian, cf. Brondsted, Nordische Vorzeit II (1962), 50 fig. b).","","52.5136183","0.7287463000000116","","None","None","None","","","","","","","","","","","4 large-capped rivets in crescentic open-work shoulder-plate. Blade in 5 fragments.","","CI","Joellen mcGann","https://farm9.staticflickr.com/8676/16263332900_2efc613bd5_b.jpg","https://www.flickr.com/photos/MicroPasts/16263332900","superuser",0.7287,52.5136,"bmswords"
"30277","433","Sword","Cast Bronze Hilt","British Museum,Purchased 1902,from Cecil Brent Collection","England,Kent,(possibly)??","Kent, UK","51.2787075","0.5217254000000366","","None","None","None","72, 82, 61, 97, 73, 80","blade 33; hilt 60","","","Bright green","","","","","","4 Rivets. Blade very much damaged and in pieces.","","CI","Joellen mcGann","https://farm8.staticflickr.com/7402/15828227124_17b60bf476_b.jpg","https://www.flickr.com/photos/MicroPasts/15828227124","superuser",0.5217,51.2787,"bmswords"
"30278","433","Fragment of Sword","","British Museum,Given by A. W. Franks, Esq.,1893.2-5.5","England,Kent,Stoke,Founder's hoard","Upper Stoke, Rochester, Medway ME3, UK","51.4461013","0.6213103999999703","TQ 82 75","None","None","None","115","38","","139","Brown and green patina.","Corroded","5","","","Hoard of 12 socketed celts and 9 fragments, 2 socketed gouges, fragment of mould, jet, 5 fragments of swords and 3 cakes of metal. Stoke Hoard","","","Almost OK,CI","Joellen mcGann","https://farm8.staticflickr.com/7316/16424751266_4a9e4cce52_b.jpg","https://www.flickr.com/photos/MicroPasts/16424751266","superuser",0.6213,51.4461,"bmswords"
"30279","433","Fragment of Sword","","British Museum,Given by A. W. Franks, Esq.,1893.2-5.4","England,Kent,Stoke,Founder's hoard","Upper Stoke, Rochester, Medway ME3, UK","51.4461013","0.6213103999999703","TQ 82 75","None","None","None","82","34","","68","Green and brown patina","Corroded","8","","","1-23: Hoard of 12 socketed celts and 9 fragments, 2 socketed gouges, fragment of mould, jet, 5 fragments of swords and 3 cakes of metal.","","","Almost OK.,CI","Joellen mcGann","https://farm9.staticflickr.com/8599/16450751665_d0eb4cddc3_b.jpg","https://www.flickr.com/photos/MicroPasts/16450751665","superuser",0.6213,51.4461,"bmswords"
"30280","433","Fragment of Sword","","British Museum,Given by A. W. Franks, Esq.,1893.2-5.3","England,Kent,Stoke,Founder's hoard","Upper Stoke, Rochester, Medway ME3, UK","51.4461013","0.6213103999999703","TQ 82 75","None","None","None","55","30","","51","Yellowish patina","Slightly corroded","7","","","1-23: Hoard of 12 socketed celts and 9 fragments, 2 socketed gouges, fragment of mould, jet, 5 fragments of swords and 3 cakes of metal.","","","OK,CI","Joellen mcGann","https://farm8.staticflickr.com/7288/16450751705_e0146eb125_b.jpg","https://www.flickr.com/photos/MicroPasts/16450751705","superuser",0.6213,51.4461,"bmswords"
"30281","433","Fragment of Sword","IVa","British Museum,Given by A. W. Franks, Esq.,1893.2-5.2","England,Kent,Stoke,Founder's hoard","Upper Stoke, Rochester, Medway ME3, UK","51.4461013","0.6213103999999703","TQ 82 75","None","None","None","100","46","","157","Yellow and green patina","Corroded","9","","","1-23: Hoard of 12 socketed celts and 9 fragments, 2 socketed gouges, fragment of mould, jet, 5 fragments of swords and 3 cakes of metal.","","","Not quite accurate.,CI","Joellen mcGann","https://farm8.staticflickr.com/7314/16449802692_4c0c111e55_b.jpg","https://www.flickr.com/photos/MicroPasts/16449802692","superuser",0.6213,51.4461,"bmswords"
"30282","433","Fragment of Sword","","British Museum,Given by A. W. Franks, Esq.,1893.2-5.1","England,Kent,Stoke,Founder's hoard","Upper Stoke, Rochester, Medway ME3, UK","51.4461013","0.6213103999999703","TQ 82 75","None","None","None","44","34","","63","Green and brown patina","Corroded","10","","","1-23: Hoard of 12 socketed celts and 9 fragments, 2 socketed gouges, fragment of mould, jet, 5 fragments of swords and 3 cakes of metal.","","","Almost OK (section),CI","Joellen mcGann","https://farm8.staticflickr.com/7449/16450751815_4d904945bb_b.jpg","https://www.flickr.com/photos/MicroPasts/16450751815","superuser",0.6213,51.4461,"bmswords"
"30283","433","Sword Fragment","","London, British Museum,1893.2-5.5","England,Kent,Stoke,Hoo","Upper Stoke, Rochester, Medway ME3, UK","51.4461013","0.6213103999999703","TQ 82 75","None","None","None","117","38","","","","","","","","Founder's hoard","","","ND75,CI","Joellen mcGann","https://farm8.staticflickr.com/7371/16263333140_ddd7119d66_b.jpg","https://www.flickr.com/photos/MicroPasts/16263333140","superuser",0.6213,51.4461,"bmswords"
"30284","433","Sword Fragment","","London, British Museum,1893.2-5.4","England,Kent,Stoke,Hoo","Hoo, Medway, UK","51.420212","0.5633119999999963","TQ 82 75","None","None","None","82","34","","","","","","","","Founder's hoard","","","ND 74,CI","Joellen mcGann","https://farm8.staticflickr.com/7373/16449802752_406838e8ec_b.jpg","https://www.flickr.com/photos/MicroPasts/16449802752","superuser",0.5633,51.4202,"bmswords"
"30285","433","Sword Fragment","","London, British Museum,1893.2-5.3","England,Kent,Stoke,Hoo","Hoo, Medway, UK","51.420212","0.5633119999999963","TQ 82 75","None","None","None","54","29","","","","","","","","Founder's hoard","","","ND 74,CI","Joellen mcGann","https://farm9.staticflickr.com/8615/16264844877_8feff211d1_b.jpg","https://www.flickr.com/photos/MicroPasts/16264844877","superuser",0.5633,51.4202,"bmswords"
"30286","433","Sword Fragment","","London, British Museum,1893.2-5.2","England,Kent,Stoke,Hoo","Hoo, Medway, UK","51.420212","0.5633119999999963","TQ 82 75","None","None","None","101","48","","","","","","","","Founder's hoard","","","ND74,CI","Joellen mcGann","https://farm8.staticflickr.com/7360/15830674293_9d82538a37_b.jpg","https://www.flickr.com/photos/MicroPasts/15830674293","superuser",0.5633,51.4202,"bmswords"
"30287","433","Sword Fragment","","London, British Museum, 1893.2-5.1","England,Kent,Stoke,Hoo","Hoo, Medway, UK","51.420212","0.5633119999999963","TQ 82 75","None","None","None","43","36","","","","","","","","Founder's hoard","","","ND74,CI","Joellen mcGann","https://farm8.staticflickr.com/7346/16264497889_fbf0c3b341_b.jpg","https://www.flickr.com/photos/MicroPasts/16264497889","superuser",0.5633,51.4202,"bmswords"
"30288","433","Sword Blade Fragment","","London, British Museum, 93.4-26.42,Presented by A. W. Franks, 26/4/93","England,Kent,Minster,Ebbsfleet,1893","Minster, Ramsgate, Kent CT12, UK","51.336651","1.3144360000000006","TR 30 64","None","None","1893","","31","","","","","","","","Founder's hoard","","Proc. Soc. Ant., 2nd ser., XIV, 309,Proc. Soc. Ant., 2nd ser. XV, 138,VCH Kent I, 322,R.F. Jessup, 'Kent', 110","ND75,CI","Joellen mcGann","https://farm8.staticflickr.com/7440/16263333310_e6c81af9aa_b.jpg","https://www.flickr.com/photos/MicroPasts/16263333310","superuser",1.3144,51.3367,"bmswords"
"30289","433","Sword Blade Fragment","","London, British Museum, 93.4-26.41,Presented by A. W. Franks,26/4/93","England,Kent,Minster,Ebbsfleet,1893","Minster, Ramsgate, Kent CT12, UK","51.336651","1.3144360000000006","TR 30 64","None","None","1893","","36","","","","","","","","Founder's hoard, 93.4-26.9-151","","Proc. Soc. Ant., 2nd ser. XIV, 309,Proc. Soc. Ant. 2nd ser., XV, 138,VCH, Kent I, 322,R.F. Jessup, 'Kent', 110","ND75,CI","Joellen mcGann","https://farm8.staticflickr.com/7419/16424751636_aa3eaabf6c_b.jpg","https://www.flickr.com/photos/MicroPasts/16424751636","superuser",1.3144,51.3367,"bmswords"
"30290","433","Sword Blade Fragment","","London, British Museum, 93.4-26.40,Presented by A. W. Franks,26/1/93","England,Kent,Minster,Ebbsfleet,1893","Minster, Ramsgate, Kent CT12, UK","51.336651","1.3144360000000006","TR 30 64","None","None","None","","30","","","","","","","","Founder's hoard, 93.4-26.9-151","","Proc. Soc. Ant., 2nd ser., XIV, 309,Proc. Soc. Ant., 2nd ser. XV, 138,V.C.H., Kent I, 322,R.F. Jessup, 'Kent', 110","ND75,CI","Joellen mcGann","https://farm8.staticflickr.com/7450/16449803042_b6d7f4723c_b.jpg","https://www.flickr.com/photos/MicroPasts/16449803042","superuser",1.3144,51.3367,"bmswords"
"30291","433","Sword Blade Fragment","","London, British Museum, 93.4-26.39,Presented by A. W. Franks,26/4/93","England,Kent,Minster,Ebbsfleet,1893","Minster, Ramsgate, Kent CT12, UK","51.336651","1.3144360000000006","","None","None","1893","","39","","","","","","","","Founder's hoard, 93.4-26.9-151","","Proc. Soc. Ant., 2nd ser., XIV, 309,Proc. Soc. Ant., 2nd ser. XV, 138,V.C.H., Kent I, 322,R.F. Jessup, 'Kent', 110","ND75,CI","Joellen mcGann","https://farm9.staticflickr.com/8625/16449803062_2f0cea47c0_b.jpg","https://www.flickr.com/photos/MicroPasts/16449803062","superuser",1.3144,51.3367,"bmswords"
"30292","433","Sword Blade Fragment","","London, British Museum, 93.4-26.58,Presented by A. W. Franks,26/4/93","England,Kent,Minster,Ebbsfleet,1893","Minster, Ramsgate, Kent CT12, UK","51.336651","1.3144360000000006","TR 30 64","None","None","1893","","39","","","","","","","","Founder's hoard, 93.4-26.9-151","","Proc. Soc. Ant., 2nd ser., XIV, 309,Proc. Soc. Ant., 2nd ser. XV, 138,V.C.H., Kent I, 322,R.F. Jessup, 'Kent', 110","ND75,CI","Joellen mcGann","https://farm9.staticflickr.com/8596/16448995781_5e09a7bbe4_b.jpg","https://www.flickr.com/photos/MicroPasts/16448995781","superuser",1.3144,51.3367,"bmswords"
"30293","433","Sword Blade Fragment","","London, British Museum, 93.4-26.37,Presented by A. W. Franks, 26/4/93","England,Kent,Minster,Ebbsfleet,1893","Minster, Ramsgate, Kent CT12, UK","51.336651","1.3144360000000006","TR 30 64","None","None","1893","","29","","","","","","","","Founder's hoard, 93.4-26.9-151","","Proc. Soc. Ant., 2nd ser., XIV, 309,Proc. Soc. Ant., 2nd ser. XV, 138,V.C.H., Kent I, 322,R.F. Jessup, 'Kent', 110","ND75,CI","Joellen mcGann","https://farm8.staticflickr.com/7357/16450752295_644071ab4c_b.jpg","https://www.flickr.com/photos/MicroPasts/16450752295","superuser",1.3144,51.3367,"bmswords"
"30294","433","Sword Blade Fragment","","London, British Museum, 93.4-26.36,Presented by A. W. Franks, 26/4/93","England,Kent,Minster,Ebbsfleet,1893","Minster, Ramsgate, Kent CT12, UK","51.336651","1.3144360000000006","TR 30 64","None","None","1893","","33","","","","","","","","Founder's hoard, 93.4-26.9-151","","Proc. Soc. Ant., 2nd ser., XIV, 309,Proc. Soc. Ant., 2nd ser. XV, 138,V.C.H., Kent I, 322,R.F. Jessup, 'Kent', 110","ND75,CI","Joellen mcGann","https://farm8.staticflickr.com/7370/16450752305_e90b6a1466_b.jpg","https://www.flickr.com/photos/MicroPasts/16450752305","superuser",1.3144,51.3367,"bmswords"
"30295","433","Sword Blade Fragment","","London, British Museum, 93.4-26.35,Presented by A. W. Franks, 26/4/93","England,Kent,Minster,Ebbsfleet,1893","Minster, Ramsgate, Kent CT12, UK","51.336651","1.3144360000000006","TR 30 64","None","None","1893","32","","","","","","","","","Founder's hoard, 93.4-26.9-151","","Proc. Soc. Ant., 2nd ser., XIV, 309,Proc. Soc. Ant., 2nd ser. XV, 138,V.C.H., Kent I, 322,R.F. Jessup, 'Kent', 110","ND75,CI","Joellen mcGann","https://farm8.staticflickr.com/7407/16450752325_daa7e17916_b.jpg","https://www.flickr.com/photos/MicroPasts/16450752325","superuser",1.3144,51.3367,"bmswords"
"30296","433","Sword Blade Fragment","","London, British Museum, 93.4-26.34,Presented by A. W. Franks, 26/4/93","England,Kent,Minster,Ebbsfleet,1893","Minster, Ramsgate, Kent CT12, UK","51.336651","1.3144360000000006","TR 30 64","None","None","1893","","36","","","","","","","","Founder's hoard, 93.4-26.9-151","","Proc. Soc. Ant., 2nd ser., XIV, 309,Proc. Soc. Ant., 2nd ser. XV, 138,V.C.H., Kent I, 322,R.F. Jessup, 'Kent', 110","ND75,CI","Joellen mcGann","https://farm8.staticflickr.com/7451/15828227744_526304b4f7_b.jpg","https://www.flickr.com/photos/MicroPasts/15828227744","superuser",1.3144,51.3367,"bmswords"
"30297","433","Sword Blade Fragment","","London, British Museum, 93.4-26.33,Presented by A. W. Franks, 26/4/93","England,Kent,Minster,Ebbsfleet,1893","Minster, Ramsgate, Kent CT12, UK","51.336651","1.3144360000000006","TR 30 64","None","None","1893","","35","","","","","","","","Founder's hoard, 93.4-26.9-151","","Proc. Soc. Ant., 2nd ser., XIV, 309,Proc. Soc. Ant., 2nd ser. XV, 138,V.C.H., Kent I, 322,R.F. Jessup, 'Kent', 110","ND75,CI","Joellen mcGann","https://farm9.staticflickr.com/8569/16449803292_8a380690c8_b.jpg","https://www.flickr.com/photos/MicroPasts/16449803292","superuser",1.3144,51.3367,"bmswords"
"30298","433","Sword Blade Fragment","","London, British Museum, 93.4-26.32,Presented by A. W. Franks, 26/4/93","England,Kent,Minster,Ebbsfleet,1893","Minster, Ramsgate, Kent CT12, UK","51.336651","1.3144360000000006","TR 30 64","None","None","1893","","40","","","","","","","","Founder's hoard, 93.4-26.9-151","","Proc. Soc. Ant., 2nd ser., XIV, 309,Proc. Soc. Ant., 2nd ser. XV, 138,V.C.H., Kent I, 322,R.F. Jessup, 'Kent', 110","ND75,CI","Joellen mcGann","https://farm8.staticflickr.com/7312/16424752186_40acde6fdd_b.jpg","https://www.flickr.com/photos/MicroPasts/16424752186","superuser",1.3144,51.3367,"bmswords"
"30299","433","Sword Blade Fragment","","London, British Museum, 93.4-26.31,Presented by A. W. Franks, 26/4/93","England,Kent,Minster,Ebbsfleet,1893","Minster, Ramsgate, Kent CT12, UK","51.336651","1.3144360000000006","TR 30 64","None","None","1893","","34","","","","","","","","Founder's hoard, 93.4-26.9-151","","Proc. Soc. Ant., 2nd ser., XIV, 309,Proc. Soc. Ant., 2nd ser. XV, 138,V.C.H., Kent I, 322,R.F. Jessup, 'Kent', 110","ND75,CI","Joellen mcGann","https://farm9.staticflickr.com/8572/16263333940_a92063d9a8_b.jpg","https://www.flickr.com/photos/MicroPasts/16263333940","superuser",1.3144,51.3367,"bmswords"
"30300","433","Sword Blade Fragment","","London, British Museum, 93.4-26,30,Presented by A. W. Franks, 26/4/93","England,Kent,Minster,Ebbsfleet,1893","Minster, Ramsgate, Kent CT12, UK","51.336651","1.3144360000000006","TR 30 64","None","None","1893","","30","","","","","","","","Founder's hoard, 93.4-26.9-151","","Proc. Soc. Ant., 2nd ser., XIV, 309,Proc. Soc. Ant., 2nd ser. XV, 138,V.C.H., Kent I, 322,R.F. Jessup, 'Kent', 110","ND75,CI","Joellen mcGann","https://farm9.staticflickr.com/8682/16424752246_977ce312f2_b.jpg","https://www.flickr.com/photos/MicroPasts/16424752246","superuser",1.3144,51.3367,"bmswords"
"30301","433","Sword Blade Fragment","","London, British Museum, 93.4-26.29,Presented by A. W. Franks, 26/4/93","England,Kent,Minster,Ebbsfleet,1893","Minster, Ramsgate, Kent CT12, UK","51.336651","1.3144360000000006","TR 30 64","None","None","1893","","32","","","","","","","","Founder's hoard, 93.4-26.9-151","","Proc. Soc. Ant., 2nd ser., XIV, 309,Proc. Soc. Ant., 2nd ser. XV, 138,V.C.H., Kent I, 322,R.F. Jessup, 'Kent', 110","ND75,CI","Joellen mcGann","https://farm9.staticflickr.com/8645/16263333990_aaba5ed53e_b.jpg","https://www.flickr.com/photos/MicroPasts/16263333990","superuser",1.3144,51.3367,"bmswords"
"30302","433","Sword Blade Fragment","","London, British Museum, 93.4-26.28,Presented by A. W. Franks, 26/4/93","England,Kent,Minster,Ebbsfleet,1893","Minster, Ramsgate, Kent CT12, UK","51.336651","1.3144360000000006","TR 30 64","None","None","1893","","32","","","","","","","","Founder's hoard, 93.4-26.9-151","","Proc. Soc. Ant., 2nd ser., XIV, 309,Proc. Soc. Ant., 2nd ser. XV, 138,V.C.H., Kent I, 322,R.F. Jessup, 'Kent', 110","ND75,CI","Joellen mcGann","https://farm8.staticflickr.com/7396/16450752705_732f30142c_b.jpg","https://www.flickr.com/photos/MicroPasts/16450752705","superuser",1.3144,51.3367,"bmswords"
"30303","433","Sword Blade Fragment","","London, British Museum, 93.4-26.27,Presented by A. W. Franks, 26/4/93","England,Kent,Minster,Ebbsfleet,1893","Minster, Ramsgate, Kent CT12, UK","51.336651","1.3144360000000006","TR 30 64","None","None","1893","","40","","","","","","","","Founder's hoard, 93.4-26.9-151","","Proc. Soc. Ant., 2nd ser., XIV, 309,Proc. Soc. Ant., 2nd ser. XV, 138,V.C.H., Kent I, 322,R.F. Jessup, 'Kent', 110","ND75,CI","Joellen mcGann","https://farm8.staticflickr.com/7282/16264498599_caefe134d3_b.jpg","https://www.flickr.com/photos/MicroPasts/16264498599","superuser",1.3144,51.3367,"bmswords"
"30304","433","Fragment of Sword","V","British Museum,93.4-26.28,Presented by A. W. Franks Esq., 26/4/1893","England,Kent,(Isle of Thanet),Minster,Ebbsfleet,1893,Founder's hoard","Minster, Ramsgate, Kent CT12, UK","51.336651","1.3144360000000006","TR 30 64","None","None","1893","","","","39","Greyish brown and green patina","Corroded","","","","9-151: Hoard consisting of 6 fragments of swords.","","Proc. S. A. 2nd S. Vol. XIV, p 309","?perhaps [?carpisbough],blade,Almost OK,See new index.,CI","Joellen mcGann","https://farm9.staticflickr.com/8657/16263062788_b495801002_b.jpg","https://www.flickr.com/photos/MicroPasts/16263062788","superuser",1.3144,51.3367,"bmswords"
"30305","433","Sword Blade Fragment","","London, British Museum, 93.4-26.26,Presented by A. W. Franks,26/4/93","England,Kent,Minster,Ebbsfleet,1893","Minster, Ramsgate, Kent CT12, UK","51.336651","1.3144360000000006","TR 30 64","None","None","1893","","38","","","","","","","","Founder's hoard, 93.4-26.9-151","","Proc. Soc. Ant., 2nd ser., XIV, p. 309,Proc. Soc. Ant., 2nd ser., XV, p. 138,V.C.H. Kent, I, p. 322,R.F. Jessup, 'Kent', p. 110","ND 75,CI","Joellen mcGann","https://farm9.staticflickr.com/8571/16424752416_91d4a8d52d_b.jpg","https://www.flickr.com/photos/MicroPasts/16424752416","superuser",1.3144,51.3367,"bmswords"
"30306","433","Sword Blade Fragment","","London, British Museum, 93.4-26.25,Presented by A. W. Franks,26/4/93","England,Kent,Minster,Ebbsfleet,1893","Minster, Ramsgate, Kent CT12, UK","51.336651","1.3144360000000006","TR 30 64","None","None","1893","","33","","","","","","","","Founder's hoard, 93.4-26.9-151","","Proc. Soc. Ant., 2nd ser., XIV, p. 309,Proc. Soc. Ant., 2nd ser., XV, p. 138,V.C.H. Kent, I, p. 322,R.F. Jessup, 'Kent', p. 110","ND75,CI","Joellen mcGann","https://farm9.staticflickr.com/8615/16263062828_ca0f812f6b_b.jpg","https://www.flickr.com/photos/MicroPasts/16263062828","superuser",1.3144,51.3367,"bmswords"
"30307","433","Sword Blade Fragment","","London, British Museum, 93.4-26.24,Presented by A. W. Franks, 26/4/93","England,Kent,Minster,Ebbsfleet,1893","Minster, Ramsgate, Kent CT12, UK","51.336651","1.3144360000000006","TR 30 64","None","None","1893","","","","","","","","","","Founder's hoard, 1893.4-26.9-151","","Proc. Soc. Ant., 2nd ser., XIV, p. 309,Proc. Soc. Ant., 2nd ser., XV, p. 138,V.C.H. Kent, I, p. 322,R.F. Jessup, 'Kent', p. 110","ND75,CI","Joellen mcGann","https://farm9.staticflickr.com/8605/16263334190_b6c1c8a6e0_b.jpg","https://www.flickr.com/photos/MicroPasts/16263334190","superuser",1.3144,51.3367,"bmswords"
"30308","433","Sword Blade Fragment","","London, British Museum, 93.4-26.23,Present by A. W. Franks,26/4/93","England,Kent,Minster,Ebbsfleet,1893","Minster, Ramsgate, Kent CT12, UK","51.336651","1.3144360000000006","TR 30 64","None","None","1893","","38","","","","","","","","Founder's hoard, 93.4-26.9-151","","Proc. Soc. Ant., 2nd ser., XIV, p. 309,Proc. Soc. Ant., 2nd ser., XV, p. 138,V.C.H. Kent, I, p. 322,R.F. Jessup, 'Kent', p. 110","ND75,CI","Joellen mcGann","https://farm9.staticflickr.com/8599/16263062908_c9d5790465_b.jpg","https://www.flickr.com/photos/MicroPasts/16263062908","superuser",1.3144,51.3367,"bmswords"
"30309","433","Sword Blade Fragment","","London, British Museum, 93.4-26.22,Presented by A. W. Franks,26/4/93","England,Kent,Minster,Ebbsfleet,1893","Minster, Ramsgate, Kent CT12, UK","51.336651","1.3144360000000006","TR 30 64","None","None","1893","","35","","","","","","","","Founder's hoard, 93.4-26.9-151","","Proc. Soc. Ant., 2nd ser., XIV, p. 309,Proc. Soc. Ant., 2nd ser., XV, p. 138,V.C.H. Kent, I, p. 322,R.F. Jessup, 'Kent', p. 110","ND75,CI","Joellen mcGann","https://farm9.staticflickr.com/8584/16424752616_9032812193_b.jpg","https://www.flickr.com/photos/MicroPasts/16424752616","superuser",1.3144,51.3367,"bmswords"
"30310","433","Fragment of Sword","V","British Museum, 93.4-26.21,Presented by A. W. Franks, Esq.,26/4/1893","England,Kent,(Isle of Thanet),Minster,Ebbsfleet,1893,Founder's hoard","Minster, Ramsgate, Kent CT12, UK","51.336651","1.3144360000000006","TR 30 64","None","None","1893","51","38","","72","Brown metallic patina","Partly corroded","10","","","9-151: Hoard consisting of 6 fragments of swords.","","Proc. Soc. Ant., 2nd ser., XIV, p. 309","Perhaps [carpis torque?],blade,Not quite acc.,See new index.,CI","Joellen mcGann","https://farm8.staticflickr.com/7379/16264498899_5a465c6e54_b.jpg","https://www.flickr.com/photos/MicroPasts/16264498899","superuser",1.3144,51.3367,"bmswords"
"30311","433","Sword Blade Fragment","","London, British Museum, 93.4-26.21,Presented by A. W. Franks,26/4/93","England,Kent,Minster,Ebbsfleet,1893","Minster, Ramsgate, Kent CT12, UK","51.336651","1.3144360000000006","TR 30 64","None","None","1893","","40","","","","","","","","Founder's hoard, 1893.4-26.9-151","","Proc. Soc. Ant., 2nd ser., XIV, p. 309,Proc. Soc. Ant., 2nd ser., XV, p. 138,V.C.H. Kent, I, p. 322,R.F. Jessup, 'Kent', p. 110","ND75,CI","Joellen mcGann","https://farm8.staticflickr.com/7433/16264498919_bcabd7fb8e_b.jpg","https://www.flickr.com/photos/MicroPasts/16264498919","superuser",1.3144,51.3367,"bmswords"
"30312","433","Sword Blade Fragment","","London, British Museum, 1893.4-26.20,Presented by A. W. Franks,26/4/1893","England,Kent,Minster,Ebbsfleet,1893","Minster, Ramsgate, Kent CT12, UK","51.336651","1.3144360000000006","TR 30 64","None","None","1893","","53","","","","","","","","Founder's hoard, 93.4-26.9-151","","Proc. Soc. Ant., 2nd ser., XIV, p. 309,Proc. Soc. Ant., 2nd ser., XV, p. 138,V.C.H. Kent, I, p. 322,R.F. Jessup, 'Kent', p. 110","ND75,CI","Joellen mcGann","https://farm8.staticflickr.com/7325/16424752676_5f4fc749ec_b.jpg","https://www.flickr.com/photos/MicroPasts/16424752676","superuser",1.3144,51.3367,"bmswords"
"30313","433","Sword Fragment","","London, British Museum, 1893.4-26.19","England,Kent,Minster,Ebbsfleet,1893","Minster, Ramsgate, Kent CT12, UK","51.336651","1.3144360000000006","TR 30 64","None","None","1893","","","","","","","","","","","","","CI","Joellen mcGann","https://farm9.staticflickr.com/8621/16449804042_9469aff1ac_b.jpg","https://www.flickr.com/photos/MicroPasts/16449804042","superuser",1.3144,51.3367,"bmswords"
"30314","433","Fragment Sword Handle (Grip)","IV","British Museum,93.4-26.18,Presented by A. W. Franks, Esq.,26/4/93","England,Kent,(Isle of Thanet),Minster,Ebbsfleet,1893,Founder's hoard","Minster, Ramsgate, Kent CT12, UK","51.336651","1.3144360000000006","TR 30 64","None","None","1893","","","","28","green","corroded","","","","9-151: Hoard consisting of 6 fragments of swords.","","Proc. S. A. 2nd  S., Vol. XIV, p. 309","Almost OK.,See new index.,CI","Joellen mcGann","https://farm8.staticflickr.com/7416/16263334580_acdeb91226_b.jpg","https://www.flickr.com/photos/MicroPasts/16263334580","superuser",1.3144,51.3367,"bmswords"
"30315","433","Sword Fragment","","London, British Museum, 1893.4-26.18,Presented by A. W. Franks,26/4/93","England,Kent,Minster,Ebbsfleet,1893","Minster, Ramsgate, Kent CT12, UK","51.336651","1.3144360000000006","TR 30 64","None","None","1893","","39","","","","","","","","Founder's hoard, 1893.4-26.9-151","","Proc. Soc. Ant., 2nd ser., XIV, p. 309,Proc. Soc. Ant., 2nd ser., XV, p. 138,V.C.H. Kent, I, p. 322,R.F. Jessup, 'Kent', p. 110","ND75,CI","Joellen mcGann","https://farm9.staticflickr.com/8654/16449804162_3e0cc2a10b_b.jpg","https://www.flickr.com/photos/MicroPasts/16449804162","superuser",1.3144,51.3367,"bmswords"
"30316","433","Sword Fragment","","London, British Museum, 1893.4-26.17","England,Kent,Minster,Ebbsfleet,1893","Minster, Ramsgate, Kent CT12, UK","51.336651","1.3144360000000006","TR 30 64","None","None","1893","","","","","","","","","","","","","CI","Joellen mcGann","https://farm8.staticflickr.com/7343/15828228474_6839611409_b.jpg","https://www.flickr.com/photos/MicroPasts/15828228474","superuser",1.3144,51.3367,"bmswords"
"30317","433","Fragment of Sword (Grip)","IV","British Museum,93.4-26.16,Presented by A. W. Franks, Esq.,26/4/1893","England,Kent,(Isle of Thanet),Minster,Ebbsfleet,1893,Founder's hoard","Minster, Ramsgate, Kent CT12, UK","51.336651","1.3144360000000006","TR 30 64","None","None","1893","97","25","","75","Green","Very corroded","10","","","9-151: Hoard consisting of 6 fragments of swords.","","Proc. S. A., 2d. s., Vol. XIV, p. 309","Almost OK.,See new index.,CI","Joellen mcGann","https://farm8.staticflickr.com/7314/16264499229_9a11d638cb_b.jpg","https://www.flickr.com/photos/MicroPasts/16264499229","superuser",1.3144,51.3367,"bmswords"
"30318","433","Sword Fragment","","London, British Museum, 1893.4-26.16,Presented by A. W. Franks,26/4/93","England,Kent,Minster,Ebbsfleet,1893","Minster, Ramsgate, Kent CT12, UK","51.336651","1.3144360000000006","TR 30 64","None","None","1893","98","26","","","","","","","","Founder's hoard, 1893.4-26.9-151","","Proc. Soc. Ant., 2nd ser., XIV, p. 309,Proc. Soc. Ant., 2nd ser., XV, p. 138,V.C.H. Kent, I, p. 322,R.F. Jessup, 'Kent', p. 110","ND75,CI","Joellen mcGann","https://farm8.staticflickr.com/7433/16450753435_6f1a72fc82_b.jpg","https://www.flickr.com/photos/MicroPasts/16450753435","superuser",1.3144,51.3367,"bmswords"
"30319","433","Sword (Fragment)","","London, British Museum, 1893.4-26.15,Presented by A. W. Franks,26/4/93","England,Kent,Minster,Ebbsfleet,1893","Minster, Ramsgate, Kent CT12, UK","51.336651","1.3144360000000006","TR 30 64","None","None","1893","","44","","","","","","","","Founder's hoard, 1893.4-26.9-151","","Proc. Soc. Ant., 2nd ser., XIV, p. 309,Proc. Soc. Ant., 2nd ser., XV, p. 138,V.C.H. Kent, I, p. 322,R.F. Jessup, 'Kent', p. 110","ND75,CI","Joellen mcGann","https://farm9.staticflickr.com/8612/15828228574_e9092ecdc9_b.jpg","https://www.flickr.com/photos/MicroPasts/15828228574","superuser",1.3144,51.3367,"bmswords"
"30320","433","Sword Fragment","","London, British Museum, 93.4-26.14,Presented by A. W. Franks,26/4/93","England,Kent,Minster,Ebbsfleet,1893","Minster, Ramsgate, Kent CT12, UK","51.336651","1.3144360000000006","TR 30 64","None","None","1893","","45 (shoulder)","","","","","","","","Founder's hoard, 93.4-26.9-151","","Proc. Soc. Ant., 2nd ser., XIV, p. 309,Proc. Soc. Ant., 2nd ser., XV, p. 138,V.C.H. Kent, I, p. 322,R.F. Jessup, 'Kent', p. 110","ND75,CI","Joellen mcGann","https://farm8.staticflickr.com/7372/16264499269_2494012538_b.jpg","https://www.flickr.com/photos/MicroPasts/16264499269","superuser",1.3144,51.3367,"bmswords"
"30321","433","Sword Fragment","","London, British Museum, 1893.4-26.13","England,Kent,Minster,Ebbsfleet,1893","Minster, Ramsgate, Kent CT12, UK","51.336651","1.3144360000000006","TR 30 64","None","None","1893","","42 (shoulder)","","","","","","","","Founder's hoard, 1893.4-26.9-151","","Proc. Soc. Ant., 2nd ser., XIV, p. 309,Proc. Soc. Ant., 2nd ser., XV, p. 138,V.C.H. Kent, I, p. 322,R.F. Jessup, 'Kent', p. 110","ND75,CI","Joellen mcGann","https://farm8.staticflickr.com/7400/16264846437_5bae5d0c6d_b.jpg","https://www.flickr.com/photos/MicroPasts/16264846437","superuser",1.3144,51.3367,"bmswords"
"30322","433","Sword Fragment","","London, British Museum, 1893.4-26.12,Presented by A. W. Franks,26/4/1893","England,Kent,Minster,Ebbsfleet,1893","Minster, Ramsgate, Kent CT12, UK","51.336651","1.3144360000000006","TR 30 64","None","None","1893","","152 (shoulder)","","","","","","Under associations, number erroneously given on card as 1896 instead of 1893.","","Founder's hoard, 1893.4-26.9-151","","Proc. Soc. Ant., 2nd ser., XIV, p. 309,Proc. Soc. Ant., 2nd ser., XV, p. 138,V.C.H. Kent, I, p. 322,R.F. Jessup, 'Kent', p. 110","ND75,Ci","Joellen mcGann","https://farm9.staticflickr.com/8661/15830675593_e877c31866_b.jpg","https://www.flickr.com/photos/MicroPasts/15830675593","superuser",1.3144,51.3367,"bmswords"
"30323","433","Fragment of Sword (Blade and Shoulder)","V","British Museum,93.4-26.11,Presented by A. W. Franks, Esq.,26/4/1893","England,Kent,(Isle of Thanet),Minster,Ebbsfleet,1893,Founder's hoard","Minster, Ramsgate, Kent CT12, UK","51.336651","1.3144360000000006","TR 30 64","None","None","1893","80","42","","124","Brown and green patina","Corroded","15","","","9-151: Hoard consisting of 6 fragments of swords.","","Proc. S. A. 2ns s., vol. XIV, p. 309.","Hilt section.,Rather inacc.,See new index.,CI","Joellen mcGann","https://farm8.staticflickr.com/7433/16264846527_ee34ef3858_b.jpg","https://www.flickr.com/photos/MicroPasts/16264846527","superuser",1.3144,51.3367,"bmswords"
"30324","433","Sword Fragment","","London, British Museum, 1893.4-26.11,Presented by A. W. Franks,26/4/93","England,Kent,Minster,Ebbsfleet,1893","Minster, Ramsgate, Kent CT12, UK","51.336651","1.3144360000000006","TR 30 64","None","None","1893","","54 (shoulder)","","","","","","","","Founder's hoard, 1893.4-26.9-151","","Proc. Soc. Ant., 2nd ser., XIV, p. 309,Proc. Soc. Ant., 2nd ser., XV, p. 138,V.C.H. Kent, I, p. 322,R.F. Jessup, 'Kent', p. 110","ND75,CI","Joellen mcGann","https://farm8.staticflickr.com/7351/16263334880_12d1742f96_b.jpg","https://www.flickr.com/photos/MicroPasts/16263334880","superuser",1.3144,51.3367,"bmswords"
"30325","433","Sword Fragment","","London, British Museum, 93.4-26.10","England,Kent,Minster,Ebbsfleet,1893","Minster, Ramsgate, Kent CT12, UK","51.336651","1.3144360000000006","TR 30 64","None","None","1893","63","50 (shoulder)","","","","","","","","Founder's hoard, 93.4-26.9-151","","Proc. Soc. Ant., 2nd ser., XIV, p. 309,Proc. Soc. Ant., 2nd ser., XV, p. 138,V.C.H. Kent, I, p. 322,R.F. Jessup, 'Kent', p. 110","ND75,CI","Joellen mcGann","https://farm8.staticflickr.com/7303/16263063608_2901848ba7_b.jpg","https://www.flickr.com/photos/MicroPasts/16263063608","superuser",1.3144,51.3367,"bmswords"
"30326","433","Fragment of Sword (Shoulder)","V","British Museum, 93.4-26.9,Presented by A. W. Franks Esq.,26/4/1893","England,Kent,(Isle of Thanet),Minster,Ebbsfleet,1893,Founder's Hoard","Minster, Ramsgate, Kent CT12, UK","51.336651","1.3144360000000006","TR 30 64","None","None","1893","118","33","","144","Green patina","Corroded","8","","","9-151: Hoard consisting of 6 fragments of swords.","","Proc. Soc. Ant., 2nd ser., XIV, p. 309,Proc. Soc. Ant., 2nd ser., XV, p. 138,V.C.H. Kent, I, p. 322,R.F. Jessup, 'Kent', p. 110","Hilt section.,Rather inacc.,See new index,CI","Joellen mcGann","https://farm8.staticflickr.com/7397/15828228794_59bfc20a6e_b.jpg","https://www.flickr.com/photos/MicroPasts/15828228794","superuser",1.3144,51.3367,"bmswords"
"30327","433","Sword Fragment","","London, British Museum, 93.4-26.9,Presented by A. W. Franks,26/4/1893","England,Kent,Minster,Ebbsfleet,1893","Minster, Ramsgate, Kent CT12, UK","51.336651","1.3144360000000006","TR 30 64","None","None","1893","118","45 (shoulder)","","","","","","","","Founder's hoard, 93.4-26.9-151","","Proc. Soc. Ant., 2nd ser., XIV, p. 309,Proc. Soc. Ant., 2nd ser., XV, p. 138,V.C.H. Kent, I, p. 322,R.F. Jessup, 'Kent', p. 110","ND75,CI","Joellen mcGann","https://farm8.staticflickr.com/7399/16424753256_7e4a36641a_b.jpg","https://www.flickr.com/photos/MicroPasts/16424753256","superuser",1.3144,51.3367,"bmswords"
"30328","433","Blade Fragment","","London, British Museum, 93.4-26.142,Presented by A. W. Franks,26/4/93","England,Kent,Minster,Ebbsfleet,1893","Minster, Ramsgate, Kent CT12, UK","51.336651","1.3144360000000006","","None","None","1893","52","","","","","","","","","Founder's hoard, 93.4-26.9-151","","Proc. Soc. Ant., 2nd ser., XIV, p. 309,Proc. Soc. Ant., 2nd ser., XV, p. 138,V.C.H. Kent, I, p. 322,R.F. Jessup, 'Kent', p. 110","ND75,CI","Joellen mcGann","https://farm8.staticflickr.com/7441/16424753396_4bf58ccb81_b.jpg","https://www.flickr.com/photos/MicroPasts/16424753396","superuser",1.3144,51.3367,"bmswords"
"30329","433","Sword Blade Fragment","","London, British Museum, 1903.7-23.7","England,Kent,Cliffe (Hoo)","Cliffe, Rochester, Medway ME3, UK","51.4621009","0.4975329999999758","TO 73 76","None","None","None","","","","","","","","","","","","","See new index.,CI","Joellen mcGann","https://farm8.staticflickr.com/7351/16264846807_e4b8b17bfc_b.jpg","https://www.flickr.com/photos/MicroPasts/16264846807","superuser",0.4975,51.4621,"bmswords"
"30330","433","Sword Fragment","","British Museum, 71.10-3.2","England,Kent,R. Medway at Chatham","Chatham, Medway, UK","51.380952","0.522130000000061","TQ 75 67","None","None","None","","","","","","","","","","","","","CI","Joellen mcGann","https://farm9.staticflickr.com/8672/16448997481_123f740b73_b.jpg","https://www.flickr.com/photos/MicroPasts/16448997481","superuser",0.5221,51.381,"bmswords"
"30331","433","Leaf Shaped Sword","IIC","British Museum, 71.10-2.7","England,Kent,Chatham Reach,R. Medway","Chatham, Medway, UK","51.380952","0.522130000000061","TQ 75 67","None","None","None","791","blade 46, 35, 42; hilt 61.5, 42","","1113.73","Brown and green. Worn.","Flaked and scratched.","8","","","","Blade cracked and slightly curved. 15 Rivet holes.","R.F. Jessup, 'Kent', 105, 253.","Inacc. drawing/,CI","Joellen mcGann","https://farm8.staticflickr.com/7385/15828228914_200a22f3d0_b.jpg","https://www.flickr.com/photos/MicroPasts/15828228914","superuser",0.5221,51.381,"bmswords"
"30332","433","Leaf Shaped Sword (Hallstadt tang cast on British blade)","IVG","British Museum, 71.10-3.1","England,Kent,Chatham Reach,R. Medway","Chatham, Medway, UK","51.380952","0.522130000000061","TQ 75 67","None","None","None","606","blade 21, 30, 37.75, 39, 32, 41; hilt 49, 20, 24, 17, 33.5","","608.18","Chestnut brown on hilt and dull bronze.","","blade 6","","","","5 rivet holes (2 are very small) and a small hole on right and a partially drilled one near it on reverse.  Edges and surface much eaten into. Hilt end damaged.","R.F. Jessup, 'Kent', 105, 253, Pl. V no. 5.","Determination of J.D. Cowen, July 1957.,Drawing not quite accurate.,CI","Joellen mcGann","https://farm8.staticflickr.com/7368/16263335110_dbaceacf34_b.jpg","https://www.flickr.com/photos/MicroPasts/16263335110","superuser",0.5221,51.381,"bmswords"
"30333","433","Leaf Shaped Sword","IVa","British Museum, WG 2233","England,Humberside,Lowthorpe","Lowthorpe, Driffield, East Riding of Yorkshire YO25, UK","54.02804399999999","-0.3477890000000343","TA 08 60","None","None","None","233.5, 249","blade 40, 27; hilt 51, 21, 39","","570.74","Slight patina dark brown on lower portion and some light green (slt) on hilt portion.","Fairly smooth.","blade 6","","","","6 rivet holes - a rivet in one.","","Inacc. drawing.,CI","Joellen mcGann","https://farm8.staticflickr.com/7318/16264499689_5871d5a139_b.jpg","https://www.flickr.com/photos/MicroPasts/16264499689","superuser",-0.3478,54.028,"bmswords"
"30334","433","Blade Fragment of Sword","","British Museum, 79.3-20.19,Presented by Frederich Thomas Fossey, Esq.,20/3/1879","England,Hertfordshire,Rushden,Cumberton Green","Rushden, Buntingford, Hertfordshire SG9, UK","51.968078","-0.10100299999999152","TL 30 30","None","None","None","93","35","","","","Slightly corroded, metallic brown and green.","","","","","","","1974 corrected drawing available.,CI","Joellen mcGann","https://farm8.staticflickr.com/7401/16263335150_ea1aeee6e4_b.jpg","https://www.flickr.com/photos/MicroPasts/16263335150","superuser",-0.101,51.9681,"bmswords"
"30335","433","Fragment Sword","IVa","British Museum,79.3-20.18,Presented by Frederick Thomas Fossey, Esq.,20/3/1879","England,Hertfordshire,Rushden,Cumberlow Green,Founder's Hoard","Cumberlow Green, Buntingford, Hertfordshire SG9, UK","51.958025","-0.10794199999998","TL 30 30","None","None","None","80","35","","99","Metallic blue and green patina, shiny bronze on 1 side.","Slightly corroded","9","","","1-20: For contents of hoard, see proceeding card.","Fragment of blade","","Inacc.,New drawing available.,CI","Joellen mcGann","https://farm8.staticflickr.com/7294/16263063878_ec78c9aaa7_b.jpg","https://www.flickr.com/photos/MicroPasts/16263063878","superuser",-0.1079,51.958,"bmswords"
"30336","433","Leaf Shaped Sword","IIIC","British Museum, WG 1241","England,Hereford and Worcester,Broadway","Broadway, Worcestershire, UK","52.035467","-1.8544919999999365","SP 09 37","None","None","None","615","blade 43, 33, 31, 41; hilt 51, 21, 16, 41","","732.51","Patches of very bright green patina and clean bronze with red and brown stains, especially on reverse.","Smooth","blade 7","","","","Point is broken. 5 rivet holes are pierced, 4 indicated. 2 rivets. Slight grooving round each group of rivet holes.","","Inaccurate drawing of hilt.,CI","Joellen mcGann","https://farm8.staticflickr.com/7385/16448997641_a31ec96618_b.jpg","https://www.flickr.com/photos/MicroPasts/16448997641","superuser",-1.8545,52.0355,"bmswords"
"30337","433","Two pieces Leaf Shaped Sword","IIIC","British Museum WG, 1296","England,Hampshire,Selborne,Blackmoor,(Nr. Woolmer Forest","Woolmer Forest, South Downs National Park, Hampshire, UK","51.0857837","-0.8658609000000297","","None","None","None","604","blade 41; hilt 52, 36","","666.22","Slight patina brown with black stains.","Part of centre cleaned","blade 6.5","","","","Blade broken and bent near point. 7 rivet holes, a groove round the lower 3.","","Not certainly from hoard.,Hilt section.,Somewhat inacc., drawing.,CI","Joellen mcGann","https://farm8.staticflickr.com/7432/16424753606_4ffaf127f1_b.jpg","https://www.flickr.com/photos/MicroPasts/16424753606","superuser",-0.8659,51.0858,"bmswords"
"30338","433","Sword","IIIb","British Museum, 1960.11-7.1 (bought),(Found 1915)","England,Greater London,R. Thames,Wandsworth","London Borough of Wandsworth, Greater London, UK","51.4570716","-0.1817823999999746","TQ 25 74","None","None","1915","","","","","","","","","","","2 + 2 rivets in shoulder, slot with 2 surviving rivets in grip.","","CI","Joellen mcGann","https://farm8.staticflickr.com/7424/16264499869_1ef3c6340c_b.jpg","https://www.flickr.com/photos/MicroPasts/16264499869","superuser",-0.1818,51.4571,"bmswords"
"30339","433","Sword","?VI","British Museum, Unregistered. The label number 581. From Royal United Services Institution, Whitehall.","England,Greater London,R. Thames,Wandsworth Point","Wandsworth, London SW15, UK","51.45755","-0.20600100000001476","TQ 25 74","None","None","None","","","","","","","","","","","2+2 rivets in shoulder, 2 in grip. End of grip broken off.","","CI","Joellen mcGann","https://farm8.staticflickr.com/7314/16264847317_e75c67409f_b.jpg","https://www.flickr.com/photos/MicroPasts/16264847317","superuser",-0.206,51.4575,"bmswords"
"30340","433","Leaf Shaped Sword","IVG","British Museum, WG 1246","England,Greater London,Wandsworth,In River Thames at mouth of Wandle,Aug. 6, 1894","Wandsworth, London SW15, UK","51.45755","-0.20600100000001476","TQ 25 74","6","8","1894","632","blade 48, 43, 38, 45; hilt 52.5, 24, 18, 35","","744.18","Dark brown and rather rusty, remains of black patina.","","blade 6","","","","7 rivet holes","","Hilt section.,CI","Joellen mcGann","https://farm8.staticflickr.com/7357/16448997831_c6de32ff37_b.jpg","https://www.flickr.com/photos/MicroPasts/16448997831","superuser",-0.206,51.4575,"bmswords"
"30341","433","Sword, broken","","British Museum, 50.7-25.1","England,Greater London,in Thames at Wandsworth, near mouth of Wandle","Wandsworth, London SW15, UK","51.45755","-0.20600100000001476","TQ 25 74","None","None","None","","","","","","","","","","","Hilt broken off.","","CI","Joellen mcGann","https://farm8.staticflickr.com/7449/16424753766_3edf3e16e9_b.jpg","https://www.flickr.com/photos/MicroPasts/16424753766","superuser",-0.206,51.4575,"bmswords"
"30342","433","Leaf Shaped Sword","IIC","British Museum, WG 1226","England,Greater London,Wandsworth,In Thames,R. Thames,1854","Wandsworth, London SW15, UK","51.45755","-0.20600100000001476","","None","None","1854","297, 349","blade 41; hilt 57, 45","","896.77","Dark brown. Bronze shows in worn parts.","Small patches of sand on reverse.","blade 9","","","","Rivets: A. 21; B. 21; C. 20; The remaining rivets are 20 to 21mm long. Below hilt are 2 lines of dots.","","Hilt repaired by casting on new piece after damage (D. Britton).,Inacc. drawing.,CI","Joellen mcGann","https://farm9.staticflickr.com/8645/15830676253_0d8826b452_b.jpg","https://www.flickr.com/photos/MicroPasts/15830676253","superuser",-0.206,51.4575,"bmswords"
"30343","433","Leaf shaped sword blade","","British Museum,56.7-1.1362,CRS","England,Greater London,In Thames at Wandsworth,1849","Wandsworth, London SW15, UK","51.45755","-0.20600100000001476","TQ 25 74","None","None","1849","357","blade 15, 32, 43, 39","","304.76","Slight patina, dark brown.","Flaky in parts - rust coloured encrustations.","blade 8","","","","","","OK,CI","Joellen mcGann","https://farm9.staticflickr.com/8683/16448997891_816da9fd3a_b.jpg","https://www.flickr.com/photos/MicroPasts/16448997891","superuser",-0.206,51.4575,"bmswords"
"30344","433","Sword Fragment","","British Museum, 1908.2-14.4","England,Greater London,Waltham Forest,Walthamstow","Walthamstow, Greater London, UK","51.5901769","-0.01734369999996943","","None","None","None","","","","","","","","","","","","","CI","Joellen mcGann","https://farm9.staticflickr.com/8639/16263335470_51f2171745_b.jpg","https://www.flickr.com/photos/MicroPasts/16263335470","superuser",-0.0173,51.5902,"bmswords"
"30345","433","Leaf shaped sword","C","British Museum, WG 1250","England,Thames,Greater London,Twickenham,in Thames","Twickenham, Greater London, UK","51.44458100000001","-0.3352459999999837","TQ 16 73","None","None","None","547","blade 47.75, 43.5, 38; hilt 44, 30, 25.5","","710.74","Patches of black on rusty brown.","","blade 6.5","","","","Hilt is broken. 4 rivet holes. 3 rivets.","Not in Trump 1962.","Inacc. drawing.,CI","Joellen mcGann","https://farm8.staticflickr.com/7288/16424753946_f5df84d687_b.jpg","https://www.flickr.com/photos/MicroPasts/16424753946","superuser",-0.3352,51.4446,"bmswords"
"30346","433","Leaf shaped sword","IIIG","British Museum, OA 124","England,Greater London,Thames,Twickenham,1858","Twickenham, Greater London, UK","51.44458100000001","-0.3352459999999837","TQ 16 73","None","None","1858","594","blade 39, 35, 30, 34; hilt 63, 20","","784.62","No patina.","Rather rough. Dull bronze.","","","","","2 rivet holes and 1 broken through. Blade is bent. Hilt broken.","","Inacc. drawing.,CI","Joellen mcGann","https://farm9.staticflickr.com/8601/15828229574_3722f7d00d_b.jpg","https://www.flickr.com/photos/MicroPasts/15828229574","superuser",-0.3352,51.4446,"bmswords"
"30347","433","Fragment of Sword","IIIa","British Museum, WG 1708.","England,Greater London,Thames,Twickenham","Twickenham, Greater London, UK","51.44458100000001","-0.3352459999999837","TQ 16 73","None","None","None","193","at shoulders 64","","267","Pale brown and green patina.","Has patches of encrustment.","7-8","","","","Shoulders and upper part of blade. Slotted hilt; four rivet holes, three with rivets. Hilt with side-flanges: the midrib extends straight up past the shoulders to the base of the slot; edges considerably broken, and the blade, especially at the upper point, badly bent.","","Drawing inaccuate.,CI","Joellen mcGann","https://farm8.staticflickr.com/7316/16264847577_e3f96d3ed2_b.jpg","https://www.flickr.com/photos/MicroPasts/16264847577","superuser",-0.3352,51.4446,"bmswords"
"30348","433","Leaf Shaped Sword","VI","British Museum, 61.6-4.9","England,Greater London (Middlesex),in Thames,at Teddington","Teddington, Greater London, UK","51.426799","-0.3313419999999496","TQ 16 71","None","None","None","353","blade 31, 47; hilt plate 47, 62, 28","","","Slight patina, dark  brown","Smooth","blade 7","","","","4 rivets with cup shaped heads. Blade end and hilt are missing.","","Drawing not quite accurate.,CI","Joellen mcGann","https://farm9.staticflickr.com/8567/15830676503_e45b43de8a_b.jpg","https://www.flickr.com/photos/MicroPasts/15830676503","superuser",-0.3313,51.4268,"bmswords"
"30349","433","Leaf shaped Sword","IC","British Museum, 62.9-12.2","England,Greater London,Thames,1862","London, UK","51.5073509","-0.12775829999998223","","None","None","1862","584","blade 53; hilt 53.3, 35; rivet 15","","586.16","Very slight remains of patina, black.","Dull bronze. A few greyish white patches, otherwise fairly smooth.","blade 7","","","","12 rivet holes. 1 rivet 15mm long. Blade is bent.","J.D. Cowen, P.P.S., 1951, No. 9","[Hem.y leofer?],Drawing not quite accurate.,Ci","Joellen mcGann","https://farm9.staticflickr.com/8672/16450754465_61a3ca819b_b.jpg","https://www.flickr.com/photos/MicroPasts/16450754465","superuser",-0.1278,51.5074,"bmswords"
"30350","433","Leaf Shaped Sword","IIIa","British Museum, WG 1242","England,Greater London,River Thames","Greater London, UK","51.4309209","-0.09364959999993516","","None","None","None","696","blade 26, 48, 38, 66, 22, 23, 14, 28","","792.46","Rusty brown.","","blade 8","","","","7 rivet holes. Edges finely chipped.","","Inacc. drawing.,CI","Joellen mcGann","https://farm9.staticflickr.com/8678/15830676573_5376a9308c_b.jpg","https://www.flickr.com/photos/MicroPasts/15830676573","superuser",-0.0936,51.4309,"bmswords"
"30351","433","Leaf Shaped Sword","Ia","British Museum, 62.2-12.1","England,Greater London,River Lea","Greater London, UK","51.4309209","-0.09364959999993516","","None","None","None","701","blade 38, 28; hilt 55, 27, 36","","800.82","Remains of patina, black, showing golden bronze.","Rough. Broken awar in parts.","blade 10","","","","9 rivet holes","J.D. Cowen, P.P.S., 1951, No. 9","On display.,CI","Joellen mcGann","https://farm8.staticflickr.com/7401/15828229714_5523778090_b.jpg","https://www.flickr.com/photos/MicroPasts/15828229714","superuser",-0.0936,51.4309,"bmswords"
"30352","433","Leaf Shaped Sword","IIIa","British Museum, 54.6-10.1","England,Greater London,In Thames,at Brentford","Brentford, Greater London, UK","51.486073","-0.31011690000002545","TQ 17 77","None","None","None","620","blade 59, 50, 47, 48; hilt 74, 23, 25, 20, 33","","","","","blade 8","","","","","","Inacc. drawing.,CI","Joellen mcGann","https://farm9.staticflickr.com/8621/15828229734_1ed5415531_b.jpg","https://www.flickr.com/photos/MicroPasts/15828229734","superuser",-0.3101,51.4861,"bmswords"
"30353","433","Leaf Shaped Sword","IIIb? IIIc","British Museum, WG 1268","England,Greater London,Thames,Isleworth","Isleworth, Greater London, UK","51.467121","-0.329003000000057","TQ 16 75","None","None","None","592","blade 43, 37.5, 32, 29, 28; hilt 52, 20, 21, 17, 30","","661.12","Partly patinated, dark brown.","White encrustment on centre and hilt.","blade 6","","","","Blade broken across. 2 rivet holes and slot in hilt. Tip is turned and end of blade bent.","","Inacc. drawing.,CI","Joellen mcGann","https://farm8.staticflickr.com/7456/16449805502_b0bb9efd60_b.jpg","https://www.flickr.com/photos/MicroPasts/16449805502","superuser",-0.329,51.4671,"bmswords"
"30354","433","Leaf Shaped Sword","IVb","British Museum, WG 1707","England,Greater London,Isleworth,Oct. 19, 1887","Isleworth, Greater London, UK","51.467121","-0.329003000000057","","19","10","1887","302","blade 36, 33, 43; hilt 52, 23, 26.5, 24, 18, 38","","413.3","Dark green-grey, much worn showing and showing dull bronze.","","blade 8","","","","6 rivets in their holes. A larger hole at end of hilt and 2 notches. Blade is bent.","","Hilt section.,Drawing not quite accurate.,CI","Joellen mcGann","https://farm8.staticflickr.com/7313/15830676803_bacaaf2559_b.jpg","https://www.flickr.com/photos/MicroPasts/15830676803","superuser",-0.329,51.4671,"bmswords"
"30355","433","Fragment of Sword","","British Museum, WG 1710","England,Greater London,Isleworth,Thames","Isleworth, Greater London, UK","51.467121","-0.329003000000057","TQ 16 75","None","None","None","157","30","","124","Dark brown patina.","Fairly smooth.","6","","","","Point and lower part of blade only. Edges badly chipped and turned over in places.","","OK,CI","Joellen mcGann","https://farm8.staticflickr.com/7414/15830676863_a10e3b07a0_b.jpg","https://www.flickr.com/photos/MicroPasts/15830676863","superuser",-0.329,51.4671,"bmswords"
"30356","433","Leaf Shaped Sword","IVb","British Museum, WG 1248","England,Greater London,Richmond New Lock,in Thames,R. Thames,1893","Richmond, Richmond, Greater London, UK","51.46131099999999","-0.3037420000000566","TQ 17 74","None","None","1893","571","blade 34, 41, 31, 35.5; hilt 49, 24, 35","","585.66","Some patches of patina, light greenish, on light brown.","Rough and rusty in parts.","blade 7","","","","7 rivet holes, with 3 rivets. Very faint grooving along edges.","","Hilt section,Drawing not quite accurate.,CI","Joellen mcGann","https://farm9.staticflickr.com/8579/16264500859_966e1649ec_b.jpg","https://www.flickr.com/photos/MicroPasts/16264500859","superuser",-0.3037,51.4613,"bmswords"
"30357","433","Fragment of Sword","","British Museum, WG 1711","England,Greater London,Thames,Richmond","Richmond, Richmond, Greater London, UK","51.46131099999999","-0.3037420000000566","TQ 17 74","None","None","None","176","41","","229","Dark brown patina.","Smooth","8","","","","Fragment of blade only. Edges rough otherwise condition good. Very slightly bent at wider end.","","OK,CI","Joellen mcGann","https://farm8.staticflickr.com/7350/16264847977_4a711e623f_b.jpg","https://www.flickr.com/photos/MicroPasts/16264847977","superuser",-0.3037,51.4613,"bmswords"
"30358","433","Leaf Shaped Sword","IIIa","British Museum, WG 1709","England,Greater London,Thames,Mortlake Reach","Mortlake, London SW14, UK","51.467749","-0.2667939000000388","TQ 20 75","None","None","None","320","blade 40, 38, 44; hilt 71.5, 22, 20, 32","","365.21","Dull bronze with some remains patina of dark blue green. Very rough.","Encrusted with fine sand on hilt.","blade 9","","","","7 rivet holes. Blade end broken and very much damaged and twisted.","","Inacc. drawing.,CI","Joellen mcGann","https://farm8.staticflickr.com/7338/16263064978_aa733f8cf7_b.jpg","https://www.flickr.com/photos/MicroPasts/16263064978","superuser",-0.2668,51.4677,"bmswords"
"30359","433","Leaf Shaped Sword","IVb","British Museum, 77.1-16.1","England,Greater London,Lambeth,in Thames","Lambeth, London, UK","51.4935082","-0.11784239999997226","","None","None","None","151; 313","blade 43, 39; hilt 54, 27, 32, 17, 32","","172.85; 446.51","Slight patina, dull greenish brown.","Heavily corroded in parts and somewhat pitted. Small pits in hilt.","blade 6","","","","Hilt sharply bent.","","Hilt section/Inacc. drawing.,CI","Joellen mcGann","https://farm8.staticflickr.com/7375/16264848047_d70b884d50_b.jpg","https://www.flickr.com/photos/MicroPasts/16264848047","superuser",-0.1178,51.4935,"bmswords"
"30360","433","Leaf Shaped Sword","C","British Museum, 63.1-22.120,From Mus. Pract. Geol.","England,Greater London,Thames,at Kingston Bridge","Kingston Bridge, Kingston upon Thames, Greater London KT1, UK","51.4111552","-0.3090641000000005","TQ 17 69","None","None","None","492","blade 43, 40, 36; hilt 42","","575.32","Some brown stains on dull bronze.","Smooth","blade 8","","","","4 notches in hilt plate","?Not in Trump 1962.","Drawing inaccurate.,CI","Joellen mcGann","https://farm8.staticflickr.com/7352/16449805732_7e95d4ecc6_b.jpg","https://www.flickr.com/photos/MicroPasts/16449805732","superuser",-0.3091,51.4112,"bmswords"
"30361","433","Leaf Shaped Sword","IV","British Museum, 63.1-22.119,Mus.  Pract. Geol.","England,Kingston according to R. Savage.,R. Thames (said to have been found in)","Kingston upon Thames, Greater London, UK","51.41233","-0.30068900000003396","","None","None","None","616","blade 32.5, 29, 27, 41; hilt 56, 31, 16, 23","","529.47","Dark brown on centre and dull bronze elsewhere.","","blade 6.5","","","","9 rivets and 2 other holes (without rivets). Blade mended across centre.","","Hilt section.,Inacc. drawing.,CI","Joellen mcGann","https://farm8.staticflickr.com/7293/16264501249_a40fbb9ccf_b.jpg","https://www.flickr.com/photos/MicroPasts/16264501249","superuser",-0.3007,51.4123,"bmswords"
"30362","433","Leaf Shaped Sword","","British Museum, 63.1-22.115,From Mus. of Pract. Geol.","England,Greater London,Kingston (alleged),Locality unknown","Kingston upon Thames, Greater London, UK","51.41233","-0.30068900000003396","","None","None","None","518","blade 28, 30, 27; hilt 44, 15, 36","","463.18","Very dark brown.","Powdery.","","","","","3+3 rivets in shoulder, 3 in grip. Blade broken and mended, across middle. 2 of the rivet holes are imperfectly pierced.","","Inaccurate drawing.,CI","Joellen mcGann","https://farm8.staticflickr.com/7391/16264501279_3855b45c01_b.jpg","https://www.flickr.com/photos/MicroPasts/16264501279","superuser",-0.3007,51.4123,"bmswords"
"30363","433","Sword-blade Fragment","Reused","British Museum, 63.1-22.121,From Mus. Prac. Geol.","England,Greater London,Thames at Kingston Bridge","Kingston Bridge, Kingston upon Thames, Greater London KT1, UK","51.4111552","-0.3090641000000005","TQ 17 69","None","None","None","293","blade 25, 34, 31; hilt 14, 20","","170.6","","Speckled and patches of green corrosion on dark bronze.","7 (approx)","","","","","","OK,CI","Joellen mcGann","https://farm9.staticflickr.com/8562/16450755305_c7256463f0_b.jpg","https://www.flickr.com/photos/MicroPasts/16450755305","superuser",-0.3091,51.4112,"bmswords"
"30364","433","Leaf Shaped Sword","IC","British Museum, WG 1247","England,Greater London,In Thames at Hammersmith Bridge,February 16th, 1894","Hammersmith Bridge, London SW13 9EA, UK","51.4883496","-0.23030249999999342","TQ 22 78","16","2","1894","596","blade 43, 35; hilt 50, 20, 37","","715.82","Black. Golden bronze shows especially on reverse.","","blade 8","","","","Hilt is bent - point very slightly bent in opposite direction. Edges of blade milled below hilt. 3 of the rivet holes are worn or broken.","J.D. Cowen, P.P.S., 1951, No. 9.","Inacc. drawing.,CI","Joellen mcGann","https://farm8.staticflickr.com/7404/16264848297_e51951766b_b.jpg","https://www.flickr.com/photos/MicroPasts/16264848297","superuser",-0.2303,51.4883,"bmswords"
"30365","433","Sword (other)","C - other","British Museum, W.G. 1251","England,Greater London,The City,Thames Street,near Customs House Quay,73 ft. below present surface level (J.E.P.)","Custom House, Victoria Dock Road, London E16 3BX, UK","51.5098658","0.02624449999996159","TQ 32 81","None","None","None","522","blade 36, 41.5, 38; hilt 44, 23, 18, 29","","603.68","Slight patina black.","Rather rough","blade 7","","","","","","Check,CI","Joellen mcGann","https://farm8.staticflickr.com/7309/16263336560_859aca2643_b.jpg","https://www.flickr.com/photos/MicroPasts/16263336560","superuser",0.0262,51.5099,"bmswords"
"30366","433","Leaf Shaped Sword","IVa","British Museum, WG 1244","England,Greater London,Chiswick,in Thames","Chiswick, Greater London, UK","51.4876272","-0.267173200000002","TQ 20 78","None","None","None","647","blade 42, 36, 33, 31, 44; hilt 47, 21, 15.5, 33","","714.49","Light brown. Black patches on hilt end.","Smooth, with rough black patches.","blade 7","","","","4 rivets.","","Hallstadt influence.,Inacc. drawing.,CI","Joellen mcGann","https://farm8.staticflickr.com/7437/16264501399_447a53e816_b.jpg","https://www.flickr.com/photos/MicroPasts/16264501399","superuser",-0.2672,51.4876,"bmswords"
"30367","433","Sword","IVa","British mUseum,1931.3-14.9","England,Greater London,Bexley Heath,Founder's hoard.,Discovered in 1930 in a sand pit belonging to Mr. Buxley at depth of 15-20 ft from the surface.","Bexleyheath, Greater London, UK","51.45334099999999","0.13822000000004664","TQ 48 75","None","None","1930","214","47","","269","Blue and green patina","Corroded","10","","","1-29: 21 socketed celts; 16 fragments socketed celts; 1 chisel?; 1 knife; 1 gouge; 1 spearhead; 1 sword; 1 copper cake; Fragments copper cake","About half preserved in two pieces.","Antiquaries Journal, Vol. XI, p. 170","Almost OK,CI,ND 1974","Joellen mcGann","https://farm8.staticflickr.com/7302/16263336690_b92eb36c38_b.jpg","https://www.flickr.com/photos/MicroPasts/16263336690","superuser",0.1382,51.4533,"bmswords"
"30368","433","Leaf Shaped Sword","B","British Museum, 54.10-28.1","England,Greater London,In Thames,near Battersea","Battersea, London SW11, UK","51.46390239999999","-0.16774150000003374","TQ 28 76","None","None","None","531","blade 40, 36, 44; hilt 13, 20","","589","Patches of black on rusty bronze.","Very rough","blade 6","","","","2 rivet holes. Right point of hilt is worn.","","Drawing not quite accurate.,CI","Joellen mcGann","https://farm8.staticflickr.com/7355/16424754946_f724966438_b.jpg","https://www.flickr.com/photos/MicroPasts/16424754946","superuser",-0.1677,51.4639,"bmswords"
"30369","433","Leaf Shaped Sword","VI","British Museum, 57.9-20.1","England,Greater London,Thames at Battersea","Battersea, London SW11, UK","51.46390239999999","-0.16774150000003374","TQ 28 76","None","None","None","724","blade 34, 30, 41; hilt 57, 26, 31, 27","","802.34","Black, part of central portion is cleaned golden bronze.","Rough where black.","blade 8","","","","Rivet hole on left broken and metal turned back. 5 Rivets and one is broken in hilt at end.","","Hilt section.,CI","Joellen mcGann","https://farm8.staticflickr.com/7312/16263065648_790e4b8fc8_b.jpg","https://www.flickr.com/photos/MicroPasts/16263065648","superuser",-0.1677,51.4639,"bmswords"
"30370","433","Leaf Shaped Sword","IV G","British Museum, 50.12-26.1","England,Greater London,In Thames,near Battersea Bridge","Battersea Bridge, London SW11, UK","51.4805412","-0.17201829999999063","TQ 28 76","None","None","None","629","blade 41, 48, 36, 46; hilt 59, 22, 29, 17, 36","","758.36","Dark brown showing dull bronze, some green.","","blade 7","","","","7 rivet holes. 5 very small rivets. Right of hilt is twisted, left side is broken.","","Hilt section.,Drawing, not quite acc.,CI","Joellen mcGann","https://farm8.staticflickr.com/7324/15830677693_15e098da06_b.jpg","https://www.flickr.com/photos/MicroPasts/15830677693","superuser",-0.172,51.4805,"bmswords"
"30371","433","Leaf Shaped Sword","VI","British Museum, WG 2272","England,Greater London,Thames,Battersea,R. Thames","Battersea, London SW11, UK","51.46390239999999","-0.16774150000003374","TQ 28 76","None","None","None","700","blade 31, 26; hilt 57, 27, 30, 16, 28","","729.13","Dark brown on face of reverse.","Dull bronze this side, much pitted.","blade 6.5","","","","Hilt slightly bent towards back - also point of blade. 11 rivet holes. - 9 rivets remains.","","Hilt section.,Drawing not quite accurate.,CI","Joellen mcGann","https://farm8.staticflickr.com/7369/16263065688_b76d4cfff7_b.jpg","https://www.flickr.com/photos/MicroPasts/16263065688","superuser",-0.1677,51.4639,"bmswords"
"30372","433","Leaf Shaped Sword","IIa","British Museum, WG 1243","England,Greater London,Battersea,in Thames,R. Thames","Battersea, London SW11, UK","51.46390239999999","-0.16774150000003374","","None","None","None","669","blade 49, 33; hilt 72, 23.5, 19, 29","","634.03","Slight patina dark to light brown, with light green patches.","","blade 9","","","","4 rivet holes. Hilt is slotted. Edges chipped.","","On display.,CI","Joellen mcGann","https://farm8.staticflickr.com/7291/16450755775_7eafcdc8c7_b.jpg","https://www.flickr.com/photos/MicroPasts/16450755775","superuser",-0.1677,51.4639,"bmswords"
"30373","433","Leaf Shaped Sword","IIIc","British Museum, WG 1249","England,Greater London,Battersea,In River Thames.","Battersea, London SW11, UK","51.46390239999999","-0.16774150000003374","TQ 28 76","None","None","None","547","blade 40.5, 29; hilt 49.5, 25.5, 26.5, 23, 42","","644.95","Greenish black.","Fairly smooth. White encrusted on face.","blade 9","","","","Blade has incised lines down it, with dots near the hilt. 3 rivets. No [?ricasso].","","Inacc. drawing.,CI","Joellen mcGann","https://farm8.staticflickr.com/7449/15828230694_91704dce58_b.jpg","https://www.flickr.com/photos/MicroPasts/15828230694","superuser",-0.1677,51.4639,"bmswords"
"30374","433","Leaf Shaped Sword","","British Museum, WG 1245","England,Greater London,Battersea,in Thames at.,January 1858","Battersea, London SW11, UK","51.46390239999999","-0.16774150000003374","TQ 28 76","None","1","1858","642","blade 41.5, 28; hilt 64, 23, 34","","588.26","Slight patina black, showing some bronze.","Rather rough.","blade 8","","","","One rivet. 2 of the rivet holes are much worn. The hilt is slotted.","","Drawing somewhat inacc.,CI","Joellen mcGann","https://farm8.staticflickr.com/7290/16450755825_58d6da1293_b.jpg","https://www.flickr.com/photos/MicroPasts/16450755825","superuser",-0.1677,51.4639,"bmswords"
"30375","433","Leaf Shaped Sword","IVa","British Museum, 92.9-1.305","England,Dorsetshire,Cranborne,1855","Cranborne, Wimborne, Dorset BH21, UK","50.91880399999999","-1.9214019999999437","SU 05 13","None","None","1855","582","blade 41, 38, 32, 40; hilt 39, 49, 25, 27, 21, 36","","710.98","Bright green patina showing a good deal of golden bronze.","Rough","blade 7","","","","6 rivet holes. Edges damaged. Point broken off.","Payne, 1892, cat. no. 72.","Drawing not quite accurate.,CI","Joellen mcGann","https://farm8.staticflickr.com/7445/16263065848_4dcccec008_b.jpg","https://www.flickr.com/photos/MicroPasts/16263065848","superuser",-1.9214,50.9188,"bmswords"
"30376","433","Leaf Shaped Sword","IIIb","British Museum, 92.9-1.304","England,Dorsetshire,Cranborne (near),Woodland and Gussage,(Found in altering the water-course, the boundary line between ----),1856,Brendan O'Connor deduces that location would be about SU 017 104","Woodlands, Wimborne, Dorset BH21, UK","50.880639","-1.9285449999999855","prob. c. SU 017 104","None","None","1856","606","blade 35, 33, 27, 31, 34; hilt 35, 47, 20, 14, 22","","555.32","Dull green (light green on reverse).","A good deal rusted: rough.","blade 7","","","","2 rivet holes (are broken). Long opening in hilt. Tail of hilt slightly cracked across and crooked.","Payne, 1892, cat. no. 76,Cuming 1859, 229 (JBAA): ""3 miles SW of Cranborne"",Oliver 1936, 28 pl. I.3","Drawing not quite accurate.,CI","Joellen mcGann","https://farm9.staticflickr.com/8562/16263337290_28842733ef_b.jpg","https://www.flickr.com/photos/MicroPasts/16263337290","superuser",-1.9285,50.8806,"bmswords"
"30377","433","Hilted Short Sword","","British Museum, 70.10-13.1","England,Cumbria","Cumbria, UK","54.5772323","-2.7974834999999985","","None","None","None","","","","","","","","","","","Rhomboidal blade-section. Hilt unornamented, cast in with blade, simple joint.","","CI","Joellen mcGann","https://farm9.staticflickr.com/8586/16263337310_6fc174848f_b.jpg","https://www.flickr.com/photos/MicroPasts/16263337310","superuser",-2.7975,54.5772,"bmswords"
"30378","433","Leaf Shaped Sword","B","British Museum,Tr. 47 (Tower Armoury),Presented to Tower 1841 by Mr. E. Church.","England,Cambridgeshire,Ely (near),R. Ouse","Ely, Ely, Cambridgeshire, UK","52.399539","0.2623630000000503","TL 53 80","None","None","None","453","blade 26, 34, 30; hilt 40.5, 29, 27, 22, 24","","433.08","Brown, mottled with black; reverse olive green. Slight patina.","","blade 6.25","","","","4 rivets","","Drawing not quite acc.,CI","Joellen mcGann","https://farm8.staticflickr.com/7372/16450755935_4dcff28fe9_b.jpg","https://www.flickr.com/photos/MicroPasts/16450755935","superuser",0.2624,52.3995,"bmswords"
"30379","433","Sword","","British Museum, 1898.7-12.20","England,Buckinghamshire,Taplow","Taplow, Buckinghamshire, UK","51.532169","-0.6879599999999755","SU 91 82","None","None","None","","","","","","","","","","","Slot in each shoulder, and in grip. Milled flanges.","","CI","Joellen mcGann","https://farm8.staticflickr.com/7426/16263337390_b16990a7fa_b.jpg","https://www.flickr.com/photos/MicroPasts/16263337390","superuser",-0.688,51.5322,"bmswords"
"30380","433","Sword","IIIab","British Museum, 98.7-12.19","England,Buckinghamshire,Taplow","Taplow, Buckinghamshire, UK","51.532169","-0.6879599999999755","SU 91 82","None","None","None","","","","","","","","","","","2 + 2 rivets in shoulder, slot in broken grip.","","CI","Joellen mcGann","https://farm8.staticflickr.com/7283/16263065978_0e248ba599_b.jpg","https://www.flickr.com/photos/MicroPasts/16263065978","superuser",-0.688,51.5322,"bmswords"
"30381","433","Leaf Shaped Sword Fragment","","British Museum, 94.12-10.50","England,Buckinghamshire and Berkshire,Taplow and Maidenhead,R. Thames Bottom","Taplow, Buckinghamshire, UK","51.532169","-0.6879599999999755","","None","None","None","465","blade 43, 37, 33","","550.98","Rusty brown.","Speckled.","blade 9","","","","Hilt end of blade turned up.","","OK,CI","Joellen mcGann","https://farm8.staticflickr.com/7414/16263066018_cdcb6522e4_b.jpg","https://www.flickr.com/photos/MicroPasts/16263066018","superuser",-0.688,51.5322,"bmswords"
"30382","433","Leaf Shaped Sword Fragment","","British Museum, 94.12-10.51","England,Berkshire and Buckinghamshire,Maidenhead and Taplow (between),Amerden,R. Thames","Amerden Close, Taplow, Maidenhead, Buckinghamshire SL6 0EF, UK","51.5217235","-0.690348599999993","","None","None","None","221","blade 43","","183.18","Dark brown with black stains, showing coppery metal.","Rather rusty.","7","","","","Bent at point.","","OK,CI","Joellen mcGann","https://farm8.staticflickr.com/7376/16449806812_91ee2852f5_b.jpg","https://www.flickr.com/photos/MicroPasts/16449806812","superuser",-0.6903,51.5217,"bmswords"
"30383","433","Leaf Shaped Sword","IVa","British Museum, WG 1182","England,Greater London (Berkshire),Bray,R. Thames","Bray, London NW3, UK","51.5435192","-0.16637259999993148","SU 90 79","None","None","None","474","blade 31.5, 42, 34, 28, 33; hilt 53, 22, 19","","562.41","Rusty brown.","Patches of light green corrosion (dark green on reverse).","blade 8","","","","3 rivet holes. Hilt broken and slightly bent. Remains of raised bar ornament on hilt.","","Inacc. drawing.,CI","Joellen mcGann","https://farm8.staticflickr.com/7296/16424755536_6d101cb8a6_b.jpg","https://www.flickr.com/photos/MicroPasts/16424755536","superuser",-0.1664,51.5435,"bmswords"
"30384","433","Leaf Shaped Sword","IVa","British Museum, WG 1181","England,Cleveland/Yorkshire,Middlesborough Ferry Landing Stage,R. Tees","Middlesbrough Council Transporter Bridge, Ferry Road, Middlesbrough, Middlesbrough TS2 1PL, UK","54.5836994","-1.2289858000000322","","18","6","1887","547","blade 37; hilt 51, 32","","486.7","Dark brown and green. Some metal showing.","Much worn and edges also.","blade 5","","","","4 rivet holes and slot in hilt.","","Drawing not quite accurate.,CI","Joellen mcGann","https://farm8.staticflickr.com/7365/16448999741_d8478b7bcb_b.jpg","https://www.flickr.com/photos/MicroPasts/16448999741","superuser",-1.229,54.5837,"bmswords"
"30385","433","Leaf Shaped Sword","","British Museum, 77.1-16.2,Presented by A. W. Franks","Locality unknown","","54.5836994","-1.2289858000000322","","None","None","None","265, 354","blade 34.5; hilt 55, 26, 25","","510.3","Bright green*","Roughened and worn* away in patches.","8","","","","Hilt is broken and damaged. 9 rivet holes. Blade broken in middle.","Wrong ref. Arch XIX p. 60","CI","Joellen mcGann","https://farm8.staticflickr.com/7318/16263337560_7d95062e17_b.jpg","https://www.flickr.com/photos/MicroPasts/16263337560","superuser",-1.229,54.5837,"bmswords"
"30386","433","Socketed Sword","","British Museum, O.A. 222,""Salvaged 1941 from War Exhibition""","?Britain,No provenance.","","54.5836994","-1.2289858000000322","","None","None","None","","","","","","","","","","","","P.P.S. XIII (1947), 175 ff, fig. 4 (J.W.B.)","CI","Joellen mcGann","https://farm9.staticflickr.com/8674/15830678263_a9345f04db_b.jpg","https://www.flickr.com/photos/MicroPasts/15830678263","superuser",-1.229,54.5837,"bmswords"
"30387","433","Sword","","British Museum, unregistered,Ex Wellcome Collection, no 24673 and R 508/1938 C. Ro.","No provenance.","","54.5836994","-1.2289858000000322","","None","None","None","","","","","","","","","","","Modern metal hilt added.","","CI","Joellen mcGann","https://farm9.staticflickr.com/8608/16450756185_06a2307493_b.jpg","https://www.flickr.com/photos/MicroPasts/16450756185","superuser",-1.229,54.5837,"bmswords"
"30388","433","Sword","IV","British Museum, unregistered,Ex Wellcome Collection, Acc. no. 41474. Bought Stevens, 21.x.24, Lot no. 392.","?Britain,No provenance.","","54.5836994","-1.2289858000000322","","None","None","None","","","","","","","","","","","3+3 rivets in shoulder, 1 in grip, 1 in pommel tang.","","CI","Joellen mcGann","https://farm8.staticflickr.com/7372/15828231494_3074cbc700_b.jpg","https://www.flickr.com/photos/MicroPasts/15828231494","superuser",-1.229,54.5837,"bmswords"
"30389","433","Sword","","British Museum, unregistered.","No provenance","","54.5836994","-1.2289858000000322","","None","None","None","","","","","","","","","","","1 + 1 rivet in shoulder, 2 in grip. Short.","","CI","Joellen mcGann","https://farm8.staticflickr.com/7435/16264502809_eaf8c905b2_b.jpg","https://www.flickr.com/photos/MicroPasts/16264502809","superuser",-1.229,54.5837,"bmswords"
"30390","433","Sword","IVa","British Museum,Unregistered. Painted number on top of blade C+2/357","?Britain. No provenance.","","54.5836994","-1.2289858000000322","","None","None","None","","","","","","","","","","","4 rivet holes in shoulder, 1 in grip.","","CI","Joellen mcGann","https://farm9.staticflickr.com/8622/15828231534_4611a25441_b.jpg","https://www.flickr.com/photos/MicroPasts/15828231534","superuser",-1.229,54.5837,"bmswords"
