"taskID","userID","objectType","rightCorner","collection","site","toSearch","Lat","Lon","gridRef","dateDiscoveryDay","dateDiscoveryMonth","dateDiscoveryYear","length","width","edge","weight","patina","surface","thickness","other","composition","associations","description","publications","remarks","inputBy","imageURL","flickrURL","Processing","lon","lat","project"
"28788","64","Flat Knife,Rivetted Dagger","I,red dot","Hull Museum,No. 83","England,Yorkshire,From a barrow on the Yorkshire Wolds opened by Sir Tatton Syker (Grave No. 1)","",,,"","None","None","None","72","(blade) 30","","15","","heavily corroded","","","","Found in Grave No. 1 with unburnt body; in the same grave a small bronze awl was found with cremated remains.","","","","Hugh Fiske","https://farm8.staticflickr.com/7567/15644380704_ce817299ea_b.jpg","https://www.flickr.com/photos/MicroPasts/15644380704","superuser",,,"dirkspart2"
"28789","64","Dirk Frag.","B","Sheffield City Museum,Bateman Collection,J.93.462","England,Yorkshire,York","York, York, York, UK","53.95996510000001","-1.0872979000000669","","None","None","None","","","","25","Green/Brown","","","","","","","Catalogue of Bateman Antiquities (S.C.M.1899) p.77.","Broken in antiquity","Hugh Fiske","https://farm8.staticflickr.com/7571/16240885646_18941a9292_b.jpg","https://www.flickr.com/photos/MicroPasts/16240885646","superuser",-1.0873,53.96,"dirkspart2"
"28790","64","DIRK","D1","Sheffield City Museum,Bateman Collection,J.93.459","England,Yorkshire,York","York, York, York, UK","53.95996510000001","-1.0872979000000669","","None","None","None","125","","","35","Thin green","","","","","","","Catalogue of Bateman Antiquities (S.C.M.1899) p.77","","Hugh Fiske","https://farm9.staticflickr.com/8568/16080937637_431fe5ccd2_b.jpg","https://www.flickr.com/photos/MicroPasts/16080937637","superuser",-1.0873,53.96,"dirkspart2"
"28791","64","Rivetted Small Dirk","D","Sheffield Museum,Bateman Collection,G241. T93459.","England,Yorkshire,York","York, York, York, UK","53.95996510000001","-1.0872979000000669","","None","None","None","126","25, 18.5, 9","","50","green","","4 blade","","","","Very rudely made. It has been attached to haft by tying. Butt end is much thinner than blade, & edges are jagged, probably by use.","","","Hugh Fiske","https://farm8.staticflickr.com/7478/15644382154_09feeaf073_b.jpg","https://www.flickr.com/photos/MicroPasts/15644382154","superuser",-1.0873,53.96,"dirkspart2"
"28792","64","Dagger, of Cypriote type, with hooked tang.","","Whitby Museum Acc. No. 3B,(Given by F. Elgee Esq.) [Dr Frank Elgee],1936,(Curator, Dorman Memorial Museum, Middlesbrough)","Yorkshire, NR,Whitby,Egton Moor","Egton, Whitby, North Yorkshire YO21, UK","54.44888899999999","-0.7534080000000358","","None","None","None","368","51 at widest point","","","","","","Length 14 1/2 in., , Width 2in. at widest point","","None","","Frank Elgee, Ph.D., in the Whitby Gazette, 27 November 1936, p.12, with photograph; the article states that the dagger 'has recently been given' to Dr Elgee by Mr. H.A. Innes, of Croft, to whom, about 1928 (about 8 years ago), it had been given by one of his farm employees, named Morton, who died about 1933 or 4 (= ""2 or 3 years ago"") aged 69, and who had been a farm lad at or near Egton when 'a pal' of his, another farm lad, found the dagger when herding up sheep on the moor. (Approx. date of the claimed discovery therefore within the 1880's. C.F.C.H.),Brought by Dr Elgee to the British Museum, Nov. 1936, when this card was filled in and its drawing made, and the dagger was submitted to Dr. H.J. Plenderleith, B.M. Research Laboratory, who reported on 5.Dec.1936 that 'there is nothing distinctive about the surface corrosive or surrosive deposits' on it.","These names written here +/- 1957 by Margaret Smith; reason not recorded,C.C. Fowler,D.M. Walker,Study of this and other Cypriot type dagger finds in Ctral Europe being carried out 1965 - by Warwick Bray, Dept. of Ancient History, The University, Sheffield 10.","Hugh Fiske","https://farm8.staticflickr.com/7498/16080687669_04b020170b_b.jpg","https://www.flickr.com/photos/MicroPasts/16080687669","superuser",-0.7534,54.4489,"dirkspart2"
"28793",,,,,,,,,,,,,,,,,,,,,,,,,,,"https://farm8.staticflickr.com/7545/16080938967_7f006b422e_b.jpg",,"merged",,,"dirkspart2"
"28794",,,,,,,,,,,,,,,,,,,,,,,,,,,"https://farm9.staticflickr.com/8648/15644383574_39ca90fdfe_b.jpg",,"merged",,,"dirkspart2"
"28795",,,,,,,,,,,,,,,,,,,,,,,,,,,"https://farm9.staticflickr.com/8577/16079438540_f3d37edff7_b.jpg",,"merged",,,"dirkspart2"
"28796",,,,,,,,,,,,,,,,,,,,,,,,,,,"https://farm8.staticflickr.com/7531/15646907203_fc4c8d0be8_b.jpg",,"merged",,,"dirkspart2"
"28797",,,,,,,,,,,,,,,,,,,,,,,,,,,"https://farm8.staticflickr.com/7538/16080941087_bc9a041210_b.jpg",,"merged",,,"dirkspart2"
"28798",,,,,,,,,,,,,,,,,,,,,,,,,,,"https://farm8.staticflickr.com/7466/16080941567_d9f6b03c7c_b.jpg",,"merged",,,"dirkspart2"
"28799","658","Short Dirk,with trapezoidal plate,Trump's III Lisburn","D","Scarborough Museum","England,Yorkshire,Flotmanby","Flotmanby Lane, Muston, Filey, North Yorkshire YO14 0HX, UK","54.2016979","-0.35174749999998767","","None","None","None","267","34","","","bronze with black patina marks.","fairly smooth","5","","","","","B.A.V. Trump, P.P.S. 1962, No. 5, p. 99, 267","","Susan Magyarody","https://farm8.staticflickr.com/7496/15644386114_ded64d2035_b.jpg","https://www.flickr.com/photos/MicroPasts/15644386114","only good record",-0.3517,54.2017,"dirkspart2"
"28800",,,,,,,,,,,,,,,,,,,,,,,,,,,"https://farm8.staticflickr.com/7475/16264991281_d8976ae1b0_b.jpg",,"merged",,,"dirkspart2"
"28801",,,,,,,,,,,,,,,,,,,,,,,,,,,"https://farm9.staticflickr.com/8563/16264991761_45e983daf8_b.jpg",,"merged",,,"dirkspart2"
"28802",,,,,,,,,,,,,,,,,,,,,,,,,,,"https://farm9.staticflickr.com/8587/16079442060_70bfc6eae8_b.jpg",,"merged",,,"dirkspart2"
"28803",,,,,,,,,,,,,,,,,,,,,,,,,,,"https://farm8.staticflickr.com/7468/15644388434_057b04919f_b.jpg",,"merged",,,"dirkspart2"
"28804",,,,,,,,,,,,,,,,,,,,,,,,,,,"https://farm8.staticflickr.com/7463/16080697129_72db3a262f_b.jpg",,"merged",,,"dirkspart2"
"28805",,,,,,,,,,,,,,,,,,,,,,,,,,,"https://farm9.staticflickr.com/8642/16079443560_a49007a085_b.jpg",,"merged",,,"dirkspart2"
"28806",,,,,,,,,,,,,,,,,,,,,,,,,,,"https://farm8.staticflickr.com/7574/16080694499_9ed32a1e9e_b.jpg",,"merged",,,"dirkspart2"
"28807",,,,,,,,,,,,,,,,,,,,,,,,,,,"https://farm8.staticflickr.com/7573/15646912543_330276eff6_b.jpg",,"merged",,,"dirkspart2"
"28808",,,,,,,,,,,,,,,,,,,,,,,,,,,"https://farm8.staticflickr.com/7469/16080946647_96c499804e_b.jpg",,"merged",,,"dirkspart2"
"28809",,,,,,,,,,,,,,,,,,,,,,,,,,,"https://farm8.staticflickr.com/7548/16079282168_f62ccd3181_b.jpg",,"merged",,,"dirkspart2"
"28810",,,,,,,,,,,,,,,,,,,,,,,,,,,"https://farm8.staticflickr.com/7520/16265982942_9be808d37a_b.jpg",,"merged",,,"dirkspart2"
"28811",,,,,,,,,,,,,,,,,,,,,,,,,,,"https://farm8.staticflickr.com/7542/16080948077_71a868021e_b.jpg",,"merged",,,"dirkspart2"
"28812",,,,,,,,,,,,,,,,,,,,,,,,,,,"https://farm8.staticflickr.com/7542/16264997681_bec09d0660_b.jpg",,"merged",,,"dirkspart2"
"28813","610","E. . A. Riveted Dagger","III","Salisbury Museum.","Wilts. From Barrow at Amesbury (85) . R.S. Newall.","",,,"","None","None","1985","blade 145","At shoulde 57","","","Dark green.","Slightly corroded.","","Date of discovery : judging from the handwriting have stayed year of discovery as 1985 af the number 85 is stated in brackets under site info on original card.","Bronze","","","W. A. M. XLV (1931), , 446, Pl.II, 18a.","","Heidi Lund","https://farm8.staticflickr.com/7508/15646915883_9dc440d340_b.jpg","https://www.flickr.com/photos/MicroPasts/15646915883","only good record",,,"dirkspart2"
"28814","658","Flat Knife-Dagger, Rivetted (sic)","III","Private,, , R.S. Newall, Esq., R.S.A.,, , Fisherton Delamere House, Wylye, Wilts.,(1930)","England,Wilts.,Amesbury,,on boundary of Idmiston.,Barrow, Round (Goddard's No. 85, W.A.M. XXXVIII, p. 170).","Amesbury, Salisbury, Wiltshire SP4, UK","51.1679201","-1.7629782999999861","","None","None","None","149","butt 59","","","Varied green patina.","mirror-like in places.","1","","","Fond with skeleton in cist, 8' x 4' x 4': small flint and scraper carefully,placed with dagger; in the same barrow were 2 other rivetted (sic) daggers.","Semi-lunar marking on hilt. 3 rivet holes: uppermost oval; rivets preserved.,3 rivets in wooden handle, traceable as wood-dust on discovery.,Position of pommel, probably of bone, measured before removal of dagger","R.S. Newall, Wilts. Arych. Mag. - await. publication.","","Susan Magyarody","https://farm9.staticflickr.com/8655/16265985042_d2a0d2f521_b.jpg","https://www.flickr.com/photos/MicroPasts/16265985042","only good record",-1.763,51.1679,"dirkspart2"
"28815",,,,,,,,,,,,,,,,,,,,,,,,,,,"https://farm8.staticflickr.com/7579/16080950497_c440c7e8d0_b.jpg",,"merged",,,"dirkspart2"
"28816",,,,,,,,,,,,,,,,,,,,,,,,,,,"https://farm8.staticflickr.com/7547/16079449600_ef28964587_b.jpg",,"merged",,,"dirkspart2"
"28817","243","Part of a small DAGGER","I,{Red Dot}","Warwick County Museum,Bloxam Collection No. 54,Previously in collection of late M. H. Bloxam of Rugby and then Rugby School Museum.","Couny: Warwickshire,Town or parish: Oldbury, nr. Atherstone,Barrow MR 132/317944,The find comes from the excavation of the barrow by M. H. Bloxam and Mr. Hawkes ""of the Eagle Foundry Birmingham"" in 1835. The centre of the barrow, to within 18 ins. of surface at apex, was a cairn of stones. The barrow is still visible.","Oldbury, Nuneaton, Warwickshire CV10, UK","52.5478669","-1.5402569999999969","","None","None","None","86.36","31.75","","","","","Rather less than 2mm.","First remark appears to be in relation to ""Mr. Hawkes"",L & W in inches, originally length ""3.4 in"" and width ""1.25 in"",3 cross section drawings of dagger on reverse.,Appears likely a leaf-bladed dagger or otherwise wider and rounded at base with rivet hole and partway up blade.","","At depth of 6-7 ft. 2 sepulchral urns deposited mouth downwards in cist of rough stones with 2 smaller 'vases' (perhaps a fragment survives in W.C. Mus.) and the dagger lay near them. Also flint chippings and mouth down over burnt bones with a 'drinking cup' (presumably food vessel in W.C. Mus.)","Knife or dagger with point missing and probably much of left-hand side (on drawing) gone. One rivet (rectangular in section) corroded in place, projecting equally each side and both heads bent slightly towards heel. Rivet heads flat; do not appear to have been hammered out.","M. H. Bloxam Fragmenta Sepulchralia.. privately printed c. 1857, 22-4 + fig.,V.C.H. Warwickshire I, 220 (mentions only the pottery).","? Great Grandfather of CFCG? He was a Birmingham manufacturer,;Jocelyn M. Monus","Jeff Okazaki","https://farm8.staticflickr.com/7505/15644395424_40ef4b827e_b.jpg","https://www.flickr.com/photos/MicroPasts/15644395424","superuser",-1.5403,52.5479,"dirkspart2"
"28818",,,,,,,,,,,,,,,,,,,,,,,,,,,"https://farm8.staticflickr.com/7472/16080700679_538eb7ab4b_b.jpg",,"merged",,,"dirkspart2"
"28819",,,,,,,,,,,,,,,,,,,,,,,,,,,"https://farm8.staticflickr.com/7528/16265001181_c61b4aba6a_b.jpg",,"merged",,,"dirkspart2"
"28820",,,,,,,,,,,,,,,,,,,,,,,,,,,"https://farm8.staticflickr.com/7545/16265988072_4784e3cc20_b.jpg",,"merged",,,"dirkspart2"
"28821",,,,,,,,,,,,,,,,,,,,,,,,,,,"https://farm9.staticflickr.com/8663/16265002431_2a1e0c1b13_b.jpg",,"merged",,,"dirkspart2"
"28822",,,,,,,,,,,,,,,,,,,,,,,,,,,"https://farm8.staticflickr.com/7461/16265002971_44fb8cb58c_b.jpg",,"merged",,,"dirkspart2"
"28823",,,,,,,,,,,,,,,,,,,,,,,,,,,"https://farm9.staticflickr.com/8660/16240903256_776d98c1cb_b.jpg",,"merged",,,"dirkspart2"
"28824","658","Dagger","","Sotheby's Sale, 19/11/24    652,, , Coll'n of W.J. Knowles, M.R>I.A.,, , of Flixton Place, Ballymena.","locality unknown","",,,"","None","None","None","148","blade 21; hilt plate 38","","","","rather pocked, cleaned, dark golden bronze.","blade 4","","","","","","","Susan Magyarody","https://farm8.staticflickr.com/7468/16080704259_7bd793fdae_b.jpg","https://www.flickr.com/photos/MicroPasts/16080704259","only good record",,,"dirkspart2"
"28825","658","Dagger","","Private Collection,1923[;;], , A. Henderson Bishop,, , Thornton Hall, Lanarkshire.","locality unknown.","",,,"","None","None","None","167","blade 48,   30","","109.85","brown patina, nearly all worn off, showing metal.","much pitted & perforated.","blade 7","","","","Rivet holes broken, edge dented.","","","Susan Magyarody","https://farm8.staticflickr.com/7522/16079291078_28b8b3d333_b.jpg","https://www.flickr.com/photos/MicroPasts/16079291078","only good record",,,"dirkspart2"
"28826","658","RAPIER","","MR. HASLAM,,, , 9, Meynelll Walk,,Peterborough PE 6RR","NOR PROVENANCE (believed possibly Chester,area).","",,,"","None","None","None","557","","","","Small areas of variegated patination.","Good condition, no green patina.","","","","","","","","Susan Magyarody","https://farm8.staticflickr.com/7533/16079291398_f78f245880_b.jpg","https://www.flickr.com/photos/MicroPasts/16079291398","only good record",,,"dirkspart2"
"28827","658","Dagger","","Private Collection,, , S.G. Fenton, Esq., 33 Cranbourne St. W.,, , 6/7/20.","purchased in London.","",,,"","None","None","None","121","29   23","","28.35","dark green patina","smooth","3","","","","","","","Susan Magyarody","https://farm8.staticflickr.com/7473/16079292308_db71b06dc6_b.jpg","https://www.flickr.com/photos/MicroPasts/16079292308","only good record",,,"dirkspart2"
"28828",,,,,,,,,,,,,,,,,,,,,,,,,,,"https://farm8.staticflickr.com/7519/15644402004_e8359130c6_b.jpg",,"merged",,,"dirkspart2"
"28829",,,,,,,,,,,,,,,,,,,,,,,,,,,"https://farm8.staticflickr.com/7555/16079456860_401e10c90c_b.jpg",,"merged",,,"dirkspart2"
"28830",,,,,,,,,,,,,,,,,,,,,,,,,,,"https://farm8.staticflickr.com/7488/16080958847_2ae1b53283_b.jpg",,"merged",,,"dirkspart2"
"28831",,,,,,,,,,,,,,,,,,,,,,,,,,,"https://farm9.staticflickr.com/8617/16240907646_1a94338e88_b.jpg",,"merged",,,"dirkspart2"
"28832",,,,,,,,,,,,,,,,,,,,,,,,,,,"https://farm9.staticflickr.com/8582/16079458480_2122ed929f_b.jpg",,"merged",,,"dirkspart2"
"28833",,,,,,,,,,,,,,,,,,,,,,,,,,,"https://farm8.staticflickr.com/7581/16265996012_b1f582a1d2_b.jpg",,"merged",,,"dirkspart2"
"28834",,,,,,,,,,,,,,,,,,,,,,,,,,,"https://farm9.staticflickr.com/8578/15644405634_96f9cf76ca_b.jpg",,"merged",,,"dirkspart2"
"28835",,,,,,,,,,,,,,,,,,,,,,,,,,,"https://farm9.staticflickr.com/8646/16240909906_28f99808b3_b.jpg",,"merged",,,"dirkspart2"
"28836",,,,,,,,,,,,,,,,,,,,,,,,,,,"https://farm8.staticflickr.com/7571/16080711389_9283e0a4c7_b.jpg",,"merged",,,"dirkspart2"
"28837",,,,,,,,,,,,,,,,,,,,,,,,,,,"https://farm9.staticflickr.com/8601/16079298518_ac0aac29f3_b.jpg",,"merged",,,"dirkspart2"
"28838",,,,,,,,,,,,,,,,,,,,,,,,,,,"https://farm8.staticflickr.com/7512/16265999582_d434671924_b.jpg",,"merged",,,"dirkspart2"
"28839",,,,,,,,,,,,,,,,,,,,,,,,,,,"https://farm8.staticflickr.com/7513/16240912556_73402c6790_b.jpg",,"merged",,,"dirkspart2"
"28840",,,,,,,,,,,,,,,,,,,,,,,,,,,"https://farm8.staticflickr.com/7566/16079463230_57e96f9ae5_b.jpg",,"merged",,,"dirkspart2"
"28841",,,,,,,,,,,,,,,,,,,,,,,,,,,"https://farm8.staticflickr.com/7533/15644409464_dff02ae811_b.jpg",,"merged",,,"dirkspart2"
"28842",,,,,,,,,,,,,,,,,,,,,,,,,,,"https://farm8.staticflickr.com/7510/15644410034_59624c3066_b.jpg",,"merged",,,"dirkspart2"
"28843",,,,,,,,,,,,,,,,,,,,,,,,,,,"https://farm8.staticflickr.com/7525/16080715289_e7898fa81a_b.jpg",,"merged",,,"dirkspart2"
"28844",,,,,,,,,,,,,,,,,,,,,,,,,,,"https://farm9.staticflickr.com/8638/16079302958_5afcb3bc2c_b.jpg",,"merged",,,"dirkspart2"
"28845",,,,,,,,,,,,,,,,,,,,,,,,,,,"https://farm8.staticflickr.com/7574/16080716289_6a920bb282_b.jpg",,"merged",,,"dirkspart2"
"28846",,,,,,,,,,,,,,,,,,,,,,,,,,,"https://farm8.staticflickr.com/7532/15646936193_5b0862c7fc_b.jpg",,"merged",,,"dirkspart2"
"28847",,,,,,,,,,,,,,,,,,,,,,,,,,,"https://farm9.staticflickr.com/8637/16265017781_1c47e4345d_b.jpg",,"merged",,,"dirkspart2"
"28848",,,,,,,,,,,,,,,,,,,,,,,,,,,"https://farm8.staticflickr.com/7470/16240917596_c5ebe04037_b.jpg",,"merged",,,"dirkspart2"
"28849",,,,,,,,,,,,,,,,,,,,,,,,,,,"https://farm8.staticflickr.com/7494/15646938043_8cb11e0c4b_b.jpg",,"merged",,,"dirkspart2"
"28850",,,,,,,,,,,,,,,,,,,,,,,,,,,"https://farm8.staticflickr.com/7463/16266006212_48b46a53aa_b.jpg",,"merged",,,"dirkspart2"
"28851",,,,,,,,,,,,,,,,,,,,,,,,,,,"https://farm8.staticflickr.com/7566/16265019421_48fe7668b5_b.jpg",,"merged",,,"dirkspart2"
"28852",,,,,,,,,,,,,,,,,,,,,,,,,,,"https://farm8.staticflickr.com/7566/16080971947_e6bbb542ff_b.jpg",,"merged",,,"dirkspart2"
"28853",,,,,,,,,,,,,,,,,,,,,,,,,,,"https://farm8.staticflickr.com/7525/16080720679_41df5fb35c_b.jpg",,"merged",,,"dirkspart2"
"28854",,,,,,,,,,,,,,,,,,,,,,,,,,,"https://farm8.staticflickr.com/7539/16080973207_3e4a342037_b.jpg",,"merged",,,"dirkspart2"
"28855",,,,,,,,,,,,,,,,,,,,,,,,,,,"https://farm8.staticflickr.com/7482/16266845045_1b4ea5c2fe_b.jpg",,"merged",,,"dirkspart2"
"28856",,,,,,,,,,,,,,,,,,,,,,,,,,,"https://farm8.staticflickr.com/7465/16080722259_350d0d4ee0_b.jpg",,"merged",,,"dirkspart2"
"28857",,,,,,,,,,,,,,,,,,,,,,,,,,,"https://farm8.staticflickr.com/7582/16079472780_8abf639288_b.jpg",,"merged",,,"dirkspart2"
"28858",,,,,,,,,,,,,,,,,,,,,,,,,,,"https://farm8.staticflickr.com/7479/16240922766_d04e5918d9_b.jpg",,"merged",,,"dirkspart2"
"28859",,,,,,,,,,,,,,,,,,,,,,,,,,,"https://farm8.staticflickr.com/7479/15646943023_d3e87519ec_b.jpg",,"merged",,,"dirkspart2"
"28860",,,,,,,,,,,,,,,,,,,,,,,,,,,"https://farm8.staticflickr.com/7465/16079311158_16cd9d7beb_b.jpg",,"merged",,,"dirkspart2"
"28861",,,,,,,,,,,,,,,,,,,,,,,,,,,"https://farm9.staticflickr.com/8670/15646943783_7803c1de55_b.jpg",,"merged",,,"dirkspart2"
"28862",,,,,,,,,,,,,,,,,,,,,,,,,,,"https://farm8.staticflickr.com/7546/16266847955_ba1af8aed9_b.jpg",,"merged",,,"dirkspart2"
"28863",,,,,,,,,,,,,,,,,,,,,,,,,,,"https://farm8.staticflickr.com/7504/16080725509_91329ee95b_b.jpg",,"merged",,,"dirkspart2"
"28864","433","Dagger","","Museum of London,Brentford Public Library,Layton Collection,01299,Now in the London Museum","Locality unknown","",,,"","None","None","None","72","16","","","Patina on face side is olive green - slightly chipped. On reverse the patina is corroded.","Smooth","4","","","","","","","Joellen mcGann","https://farm8.staticflickr.com/7555/16080726159_01908bb06b_b.jpg","https://www.flickr.com/photos/MicroPasts/16080726159","superuser",,,"dirkspart2"
"28865","433","Dirk","B","Brentford Public Library,Layton Collection 01324,London Museum","Locality unknown (believed Thames)","",,,"","None","None","None","337","41","","","Blackish patina mottled golden bronze.","","5","Width: blade 16.5mm;  hilt plate 41mm","","","Good condition. Hilt slightly chipped. 2 rivets.","B.A.V. Trump P.P.S. 1962, No. 5., p. 97, No. 152","Trump's III Barnes,OK","Joellen mcGann","https://farm9.staticflickr.com/8620/16266849515_69652e8e26_b.jpg","https://www.flickr.com/photos/MicroPasts/16266849515","superuser",,,"dirkspart2"
"28866",,,,,,,,,,,,,,,,,,,,,,,,,,,"https://farm8.staticflickr.com/7536/15646946193_2865f2305d_b.jpg",,"merged",,,"dirkspart2"
"28867",,,,,,,,,,,,,,,,,,,,,,,,,,,"https://farm9.staticflickr.com/8638/16079314558_64ef9ddfc4_b.jpg",,"merged",,,"dirkspart2"
"28868",,,,,,,,,,,,,,,,,,,,,,,,,,,"https://farm8.staticflickr.com/7562/16080728359_bfbc702fff_b.jpg",,"merged",,,"dirkspart2"
"28869",,,,,,,,,,,,,,,,,,,,,,,,,,,"https://farm9.staticflickr.com/8620/16265029451_04132991ca_b.jpg",,"merged",,,"dirkspart2"
"28870",,,,,,,,,,,,,,,,,,,,,,,,,,,"https://farm8.staticflickr.com/7544/16080729659_45d7fd8a58_b.jpg",,"merged",,,"dirkspart2"
"28871","433","Dagger","","Liverpool Museum,7401M","Locality unknown","",,,"","None","None","None","153","35.6","","53.15","Dark brown to black.","","4","","","","Blade chipped. Broken and repaired.","","","Joellen mcGann","https://farm9.staticflickr.com/8649/16240930026_2b242a09f9_b.jpg","https://www.flickr.com/photos/MicroPasts/16240930026","superuser",,,"dirkspart2"
"28872","433","Dirk","","Liverpool Museum, 7393M","Locality unknown","",,,"","None","None","None","295","39","","120.47","","Yellow metal.","5","","","","Good preservation.","","","Joellen mcGann","https://farm8.staticflickr.com/7576/16079317728_bc569d6339_b.jpg","https://www.flickr.com/photos/MicroPasts/16079317728","superuser",,,"dirkspart2"
"28873","433","Dirk","","Liverpool Museum, 7398M","Locality unknown","",,,"","None","None","None","123","41.5","","77.96","Dull greenish brown, bright yellow metal shows on tip of rib.","","5","","","","Part of blade is missing.","","","Joellen mcGann","https://farm8.staticflickr.com/7547/16080983547_f166048815_b.jpg","https://www.flickr.com/photos/MicroPasts/16080983547","superuser",,,"dirkspart2"
"28874","433","Halberd","","Liverpool Museum, 7389M","Locality unknown","",,,"","None","None","None","346","67.5","","361.46","Brown patina.","","9","","","","Tip of blade and edges slightly broken.","","","Joellen mcGann","https://farm8.staticflickr.com/7520/16080983987_20f6159143_b.jpg","https://www.flickr.com/photos/MicroPasts/16080983987","superuser",,,"dirkspart2"
"28875","433","Dagger","","Liverpool Museum, 7419M","Locality unknown","",,,"","None","None","None","119","19.5","","","Dark blue green.","","3.5","","","","Blade bent and broken, mended with small piece of copper plate.","","","Joellen mcGann","https://farm9.staticflickr.com/8673/15644428064_b9469d7529_b.jpg","https://www.flickr.com/photos/MicroPasts/15644428064","superuser",,,"dirkspart2"
"28876","433","Dagger","","Liverpool Museum, 7397M","Locality unknown","",,,"","None","None","None","129","22.5","","42.52","Lower half black, dull. Upper half is yellow metal.","","5","","","","Lower portion of blade is missing.","","","Joellen mcGann","https://farm8.staticflickr.com/7504/16080985337_a13bcac668_b.jpg","https://www.flickr.com/photos/MicroPasts/16080985337","superuser",,,"dirkspart2"
"28877","433","Dagger","","Liverpool Museum, 7265","Locality unknown","",,,"","None","None","None","123.3","21","","","Light green patina.","Edges chipped, tip of blade lost, hilt plate broken.","4","","","","Rivets are well preserved.","","","Joellen mcGann","https://farm8.staticflickr.com/7570/16240933796_c76a3523b0_b.jpg","https://www.flickr.com/photos/MicroPasts/16240933796","superuser",,,"dirkspart2"
"28878","433","Dagger","","Liverpool Museum, 7394M","Locality unknown","",,,"","None","None","None","225","33.5","","134.65","Very dark greenish grey patina","","8","Thickness: 8 to 7 at broken tip.","","","Ornamented with parallel incised lines (about 4), traces show here and there on blade. Hilt plate damaged and tip of blade broken. The blade has been mended in the middle.","","","Joellen mcGann","https://farm9.staticflickr.com/8609/16080986687_7585081292_b.jpg","https://www.flickr.com/photos/MicroPasts/16080986687","superuser",,,"dirkspart2"
"28879",,,,,,,,,,,,,,,,,,,,,,,,,,,"https://farm8.staticflickr.com/7547/16266022602_c8cc4af5b3_b.jpg",,"merged",,,"dirkspart2"
"28880",,,,,,,,,,,,,,,,,,,,,,,,,,,"https://farm9.staticflickr.com/8627/16265036641_a30545718b_b.jpg",,"merged",,,"dirkspart2"
"28881",,,,,,,,,,,,,,,,,,,,,,,,,,,"https://farm8.staticflickr.com/7548/16266859235_c8739eb6f7_b.jpg",,"merged",,,"dirkspart2"
"28882","580","Dirk","","Hunterian Museum, B101, The University, Glasgow","locality unknown","",,,"","None","None","None","459","blade 24, hilt plate 33","","169","","","","","","","","","","Denis Antoine","https://farm8.staticflickr.com/7565/16080989157_3fcf2e37a7_b.jpg","https://www.flickr.com/photos/MicroPasts/16080989157","superuser",,,"dirkspart2"
"28883","580","Halberd","","Bishop Collection. B89, The University, Glasgow, (bought in Glasgow)","locality unknown","",,,"","None","None","None","237","blade 74","","266.5","","","","","","","Pronounced midrib. 2 rivet holes.","","","Denis Antoine","https://farm9.staticflickr.com/8583/16079487360_acf8257fc8_b.jpg","https://www.flickr.com/photos/MicroPasts/16079487360","superuser",,,"dirkspart2"
"28884","580","Dirk","","Bishop Collection. B100, The University, Glasgow.","locality unknown","",,,"","None","None","None","342","blade 30; hilt plate 54","","218.4","","","","","","","","","","Denis Antoine","https://farm8.staticflickr.com/7577/16079487890_53993eb95e_b.jpg","https://www.flickr.com/photos/MicroPasts/16079487890","superuser",,,"dirkspart2"
"28885","580","Dagger","","Pitt Rivers Museum, Farnham, from Root's Collection.","locality unknown","",,,"","None","None","None","250; hilt end 42","blade 56","","226.8","","rough green","hilt 28","","","","edge slightly indented","","","Denis Antoine","https://farm8.staticflickr.com/7494/15646957853_013bde683e_b.jpg","https://www.flickr.com/photos/MicroPasts/15646957853","superuser",,,"dirkspart2"
"28886","580","Dagger","","Pitt Rivers Museum, Farnham, purchased at Sotheby's. 29th June 1886.","locality unknown","",,,"","None","None","None","142","blade 17; hilt plate 21","","28.35","green","smooth","blade 6","","","","edges damaged.","","","Denis Antoine","https://farm8.staticflickr.com/7554/16265040111_4e40ac6d07_b.jpg","https://www.flickr.com/photos/MicroPasts/16265040111","superuser",,,"dirkspart2"
"28887","580","Dirk","","Exeter Museum. (No. 315)","Locality unknown","",,,"","None","None","None","324","(tang) 50","","172.25","green","Original surface showing in patches; the remainder is somewhat corroded and coated with a green patina","7","","","","","","","Denis Antoine","https://farm8.staticflickr.com/7543/15646959063_9baaf04ef8_b.jpg","https://www.flickr.com/photos/MicroPasts/15646959063","superuser",,,"dirkspart2"
"28888","580","Dirk","","Exeter Museum (No. 314)","Locality unknown","",,,"","None","None","None","421","(tang) 29","","109.92","green","The original surface shows in a few patches, the remainder is corroded and with a green patina","5","","","","","","","Denis Antoine","https://farm9.staticflickr.com/8648/16080740629_3fee7761d2_b.jpg","https://www.flickr.com/photos/MicroPasts/16080740629","superuser",,,"dirkspart2"
"28889","580","Rapier","B","Royal Scottish Museum, Edinburgh, Reg. No. 1905.944, (NoÃ«l Paton Collection)","Britain","Grande-Bretagne, Royaume-Uni","53.7190281","-2.0727838999999904","","None","None","None","403","18","","196","Original bronze colour","","5","","Bronze","","Sword blade, bronze, two-edged, spatulate at grip end; with median ridge & two rivet holes.","","","Denis Antoine","https://farm8.staticflickr.com/7486/16080993317_4dda0e1699_b.jpg","https://www.flickr.com/photos/MicroPasts/16080993317","superuser",-2.0728,53.719,"dirkspart2"
"28890","580","Dagger","","Colchester Museum. No. 3353.15.","","","53.7190281","-2.0727838999999904","","None","None","None","99","blade 8 to 28.5 near hilt plate","","slightly more than 2657","sea green patina & on one side golden bronze shows, where patina is cleaned off.","smooth but slightly pocked.","3","","","","Edge is much damaged & the dagger is bent.","","","Denis Antoine","https://farm8.staticflickr.com/7569/16265042171_e59f01b02f_b.jpg","https://www.flickr.com/photos/MicroPasts/16265042171","superuser",-2.0728,53.719,"dirkspart2"
"28891","580","Dagger","","Peabody Museum, Harvard University. E2349, Cambridge, Mass., Bequest of Prof. H.W. Haynes. 1912","locality unknown","","53.7190281","-2.0727838999999904","","None","None","None","62","blade 18","","","","corroded","blade 2","","","","","","","Denis Antoine","https://farm9.staticflickr.com/8673/16080742139_df3d3d0856_b.jpg","https://www.flickr.com/photos/MicroPasts/16080742139","superuser",-2.0728,53.719,"dirkspart2"
"28892","580","Dagger","","Peabody Museum, Harvard University. E2228, Cambridge, Mass., bequest of Prof. H.W. Haynes. 1912","locality unknown","","53.7190281","-2.0727838999999904","","None","None","None","72","blade 21; hilt 34","","","heavy","one side considerably corroded.","blade 4","","","","3 rivets","","","Denis Antoine","https://farm8.staticflickr.com/7548/16266865685_28e71a20ab_b.jpg","https://www.flickr.com/photos/MicroPasts/16266865685","superuser",-2.0728,53.719,"dirkspart2"
"28893","580","Dagger","(Deck)","Museum of Archaeology & Technology. Cambridge., Bronzes 12. (Numbers to be found in a volume entitled Museum of Archaeology.), Prehistoric Bronzes 122 (Catalogue is lost)., Cambridge Antiquarian Society Cat. 83. 167A","","","53.7190281","-2.0727838999999904","","None","None","None","226.5","hilt plate 56.5; blade 39","","168","dark brown & dark green & metal showing through. corroded spots - whitish green.","corroded in pits & edge very much eaten away. the spaces between are smooth.","blade 4","","","","Bevelled round cutting edge. one rivet hole. the other broken into. point broken.","","","Denis Antoine","https://farm8.staticflickr.com/7480/16266030942_da92c59b36_b.jpg","https://www.flickr.com/photos/MicroPasts/16266030942","superuser",-2.0728,53.719,"dirkspart2"
"28894","580","","","","","","53.7190281","-2.0727838999999904","","None","None","None","","","","","","","","","","","","","","Denis Antoine","https://farm8.staticflickr.com/7536/16240943976_d2ee3188c0_b.jpg","https://www.flickr.com/photos/MicroPasts/16240943976","superuser",-2.0728,53.719,"dirkspart2"
"28895","580","Dagger","","Museum of Archaeology, Cambridge","Locality unknown","",,,"","None","None","None","146.5","Blade 29","","44","green patina. some brown on hilt plate","fairly smooth","Blade 3","","","","No midrib. roughly notched","Prehistoric Bronzes 127. No catalogue., Bonzes 18. The numbers to be found in a catalogue called ""Museum of Archaeology"", Cambridge Antiquarian Society Catalogue 165. 1884.","","Denis Antoine","https://farm9.staticflickr.com/8606/16265045071_21691dd937_b.jpg","https://www.flickr.com/photos/MicroPasts/16265045071","superuser",,,"dirkspart2"
"28896","580","Dagger or Knife","","Museum of Archaeology, Cambridge.","Locality unknown","",,,"","None","None","None","115","blade 26.5","","30","dull brown & green patina","smooth & dull","3.5 blade","","","","No midrib, roughly notched. Damaged","","","Denis Antoine","https://farm8.staticflickr.com/7554/16079332318_496524ac7d_b.jpg","https://www.flickr.com/photos/MicroPasts/16079332318","superuser",,,"dirkspart2"
"28897","580","Blade fragment","D","Museum of Archaeology, Cambridge.","N. Walton N","",,,"","None","None","None","179","blade 19","","44","dark brown patina of several shades.","corroded in shallow pits","blade 3.5","","","","roughly notched hilt plate same width as blade. Low midrib.","Cambridge Antiquarian Society Catalogue 1911","","Denis Antoine","https://farm8.staticflickr.com/7576/16266868855_a48f6cfbe1_b.jpg","https://www.flickr.com/photos/MicroPasts/16266868855","superuser",,,"dirkspart2"
"28898",,,,,,,,,,,,,,,,,,,,,,,,,,,"https://farm8.staticflickr.com/7564/16266869705_21c3811b74_b.jpg",,"merged",,,"dirkspart2"
"28899",,,,,,,,,,,,,,,,,,,,,,,,,,,"https://farm8.staticflickr.com/7556/16079334598_d5449a6595_b.jpg",,"merged",,,"dirkspart2"
"28900",,,,,,,,,,,,,,,,,,,,,,,,,,,"https://farm8.staticflickr.com/7488/16081000787_1f5d321c38_b.jpg",,"merged",,,"dirkspart2"
"28901",,,,,,,,,,,,,,,,,,,,,,,,,,,"https://farm8.staticflickr.com/7526/16081001087_5e9171284d_b.jpg",,"merged",,,"dirkspart2"
"28902",,,,,,,,,,,,,,,,,,,,,,,,,,,"https://farm8.staticflickr.com/7558/16081001477_8c3ed76030_b.jpg",,"merged",,,"dirkspart2"
"28903",,,,,,,,,,,,,,,,,,,,,,,,,,,"https://farm8.staticflickr.com/7569/15646967933_4656c4f8c0_b.jpg",,"merged",,,"dirkspart2"
"28904",,,,,,,,,,,,,,,,,,,,,,,,,,,"https://farm8.staticflickr.com/7461/15644445114_c611f8c573_b.jpg",,"merged",,,"dirkspart2"
"28905",,,,,,,,,,,,,,,,,,,,,,,,,,,"https://farm9.staticflickr.com/8629/16079337278_f6e4052d77_b.jpg",,"merged",,,"dirkspart2"
"28906",,,,,,,,,,,,,,,,,,,,,,,,,,,"https://farm8.staticflickr.com/7509/16080750719_ede7d73a1a_b.jpg",,"merged",,,"dirkspart2"
"28907",,,,,,,,,,,,,,,,,,,,,,,,,,,"https://farm8.staticflickr.com/7578/16266038622_487e667a29_b.jpg",,"merged",,,"dirkspart2"
"28908",,,,,,,,,,,,,,,,,,,,,,,,,,,"https://farm8.staticflickr.com/7527/15646969633_5a8c49f32b_b.jpg",,"merged",,,"dirkspart2"
"28909",,,,,,,,,,,,,,,,,,,,,,,,,,,"https://farm8.staticflickr.com/7515/16079339098_30a0de9e41_b.jpg",,"merged",,,"dirkspart2"
"28910",,,,,,,,,,,,,,,,,,,,,,,,,,,"https://farm9.staticflickr.com/8619/16079339588_2ec46e5907_b.jpg",,"merged",,,"dirkspart2"
"28911",,,,,,,,,,,,,,,,,,,,,,,,,,,"https://farm8.staticflickr.com/7563/16079502340_de50ffbfa0_b.jpg",,"merged",,,"dirkspart2"
"28912",,,,,,,,,,,,,,,,,,,,,,,,,,,"https://farm8.staticflickr.com/7543/16079340698_6d5c0a06c8_b.jpg",,"merged",,,"dirkspart2"
"28913",,,,,,,,,,,,,,,,,,,,,,,,,,,"https://farm9.staticflickr.com/8564/16079503240_c60948a142_b.jpg",,"merged",,,"dirkspart2"
"28914",,,,,,,,,,,,,,,,,,,,,,,,,,,"https://farm8.staticflickr.com/7575/16079341948_506ed7945a_b.jpg",,"merged",,,"dirkspart2"
"28915",,,,,,,,,,,,,,,,,,,,,,,,,,,"https://farm9.staticflickr.com/8575/16266877825_53bd48c5e5_b.jpg",,"merged",,,"dirkspart2"
"28916",,,,,,,,,,,,,,,,,,,,,,,,,,,"https://farm8.staticflickr.com/7495/16081008347_fdd11b8315_b.jpg",,"merged",,,"dirkspart2"
"28917",,,,,,,,,,,,,,,,,,,,,,,,,,,"https://farm8.staticflickr.com/7463/16079505520_3d5c6f1950_b.jpg",,"merged",,,"dirkspart2"
"28918",,,,,,,,,,,,,,,,,,,,,,,,,,,"https://farm9.staticflickr.com/8622/15646975483_79b84d0059_b.jpg",,"merged",,,"dirkspart2"
"28919",,,,,,,,,,,,,,,,,,,,,,,,,,,"https://farm8.staticflickr.com/7533/16240958316_3bf09ec8b5_b.jpg",,"merged",,,"dirkspart2"
"28920",,,,,,,,,,,,,,,,,,,,,,,,,,,"https://farm9.staticflickr.com/8588/16079345128_df9cfa1e18_b.jpg",,"merged",,,"dirkspart2"
"28921",,,,,,,,,,,,,,,,,,,,,,,,,,,"https://farm8.staticflickr.com/7529/16266046382_4bb38dbb43_b.jpg",,"merged",,,"dirkspart2"
"28922",,,,,,,,,,,,,,,,,,,,,,,,,,,"https://farm8.staticflickr.com/7570/16265060151_b54476180d_b.jpg",,"merged",,,"dirkspart2"
"28923",,,,,,,,,,,,,,,,,,,,,,,,,,,"https://farm8.staticflickr.com/7468/16079346728_e97d1a6bfa_b.jpg",,"merged",,,"dirkspart2"
"28924",,,,,,,,,,,,,,,,,,,,,,,,,,,"https://farm8.staticflickr.com/7576/15646978583_3ddf7b5dd2_b.jpg",,"merged",,,"dirkspart2"
"28925",,,,,,,,,,,,,,,,,,,,,,,,,,,"https://farm8.staticflickr.com/7534/16266883125_6446e12ab3_b.jpg",,"merged",,,"dirkspart2"
"28926",,,,,,,,,,,,,,,,,,,,,,,,,,,"https://farm8.staticflickr.com/7504/16265062881_fe8051102a_b.jpg",,"merged",,,"dirkspart2"
"28927",,,,,,,,,,,,,,,,,,,,,,,,,,,"https://farm9.staticflickr.com/8675/16080761949_65b0523613_b.jpg",,"merged",,,"dirkspart2"
"28928",,,,,,,,,,,,,,,,,,,,,,,,,,,"https://farm8.staticflickr.com/7583/16079350178_209acf3772_b.jpg",,"merged",,,"dirkspart2"
"28929",,,,,,,,,,,,,,,,,,,,,,,,,,,"https://farm8.staticflickr.com/7565/16240963816_f29fbcb315_b.jpg",,"merged",,,"dirkspart2"
"28930",,,,,,,,,,,,,,,,,,,,,,,,,,,"https://farm9.staticflickr.com/8604/16265065101_23c443bd24_b.jpg",,"merged",,,"dirkspart2"
"28931",,,,,,,,,,,,,,,,,,,,,,,,,,,"https://farm8.staticflickr.com/7466/15644460384_4763a354ee_b.jpg",,"merged",,,"dirkspart2"
"28932","580","Rapier","D","Museum of Archaeology, Cambridge","England, Surrey, Egham, Runnymeade Island (R. Thames)","Egham, Surrey, Royaume-Uni","51.428825","-0.5478759999999738","","None","None","None","401","blade 20; hilt plate 45","","182","dark brown patina encrusted in places with chalky white & buff","rough especially about the hilt.","5.5","","","","Broken where there was a bubble in casting. Broad plattened midrib. 2 notches for rivets.","Prehistoric Bronzes 137, Foster Bequest 233","","Denis Antoine","https://farm9.staticflickr.com/8645/16081018137_3fc943598f_b.jpg","https://www.flickr.com/photos/MicroPasts/16081018137","superuser",-0.5479,51.4288,"dirkspart2"
"28933","580","Dirk","","Chertsey Museum, from S.A. Oliver Esq.","Surrey, Egham, Mixnams Farm","Egham, Surrey, Royaume-Uni","51.428825","-0.5478759999999738","","None","None","None","289","66","","","","","","","","","C.B. Burgess's Group IV blade, Trans. A. & A. Soc. of Durham & Norhumberland I (1968) 3 H., Probably late 10th-8th C. B.C.","","","Denis Antoine","https://farm9.staticflickr.com/8611/16080765779_ff28146838_b.jpg","https://www.flickr.com/photos/MicroPasts/16080765779","superuser",-0.5479,51.4288,"dirkspart2"
"28934","580","Dirk","","Dawes, Mr. Michael - private (1992), 19 Hexham Road, Morden, Surrey SM4 6NH","Surrey?, Chertsey area?, ""... apparently come from the same site somewhere near Chertsey in Surrey some years ago..."" (letter from Dawes 28 April 92 - DF), Context: unknown","Chertsey, Surrey, Royaume-Uni","51.386491","-0.5094560000000001","","None","None","None","EL 251","Wbt 20.6","","82.5","","mainly dull golden colour","max. 5","","","","Typology: flattened midrib with broad hollowed edge bevels; double notches at butt are neat and deliberate; can't tell whether reworked after breakage, Condition: extant piece in two joining fragments; extremely mutilated making edges jagged and wavy; much denting of faces; bottom-most break is totally crished flat from both faces.","","Rec. SN July 92, DF: S, Source Sb. A.","Denis Antoine","https://farm8.staticflickr.com/7497/16240966316_dc07b69e8f_b.jpg","https://www.flickr.com/photos/MicroPasts/16240966316","superuser",-0.5095,51.3865,"dirkspart2"
"28935","580","Rapier","B","Trump's III Barnes, Colchester Museum, Price Cat. No. 1873. Acton Collection No. 630.","England, ? Suffolk","Angleterre, Royaume-Uni","52.3555177","-1.1743197000000691","","None","None","None","357.5","hilt plate 32.5, 35, blade 18","","169.19","Traces of blackish patina all over","smooth. Chiefly a black colour with golden bronze showing through.","blade 5.5","","","","Well preserved. The heads of the 2 rivets are golden bronze colour.","same type as Evan's figs. 313.314., B.A.V. Trump. P.P.S. 1962 No. 5. p. 98., 243","","Denis Antoine","https://farm8.staticflickr.com/7477/15646985493_e9b6f7d85f_b.jpg","https://www.flickr.com/photos/MicroPasts/15646985493","superuser",-1.1743,52.3555,"dirkspart2"
"28936","580","Dagger Fragment","D","Private collection, S.G. Fenton Esq. 33 Cranbourn St. W., 6. 7. 20","England, Suffolk, Undley","Undley, Lakenheath, Brandon, Suffolk IP27, Royaume-Uni","52.405323","0.49425399999995534","","None","None","None","149","18","","38.98","light brownish green","fairly smooth, but rather pitted all over.","5","","","","","","","Denis Antoine","https://farm8.staticflickr.com/7560/16266889435_353c065703_b.jpg","https://www.flickr.com/photos/MicroPasts/16266889435","superuser",0.4943,52.4053,"dirkspart2"
"28937","580","Dirk","D","Trump III Lisburn, Museum of Archaeology, Cambridge, FB 30","England, Suffolk, Undley","Undley, Lakenheath, Brandon, Suffolk IP27, Royaume-Uni","52.405323","0.49425399999995534","","None","None","None","141.5","blade 12.5; hilt end 35","","45","Brown patina with metal showing through evenly.","evenly corroded all over. smooth","blade 3","","","","Edges are broadly bevelled. the inner lines of the bevels joining one another in a point about half way down the middle of the blade & forming a well marked ridge thence to the top of blade. Hilt plate notched & slightly damaged.","Prehistoric Bronzes. 129. No catalogue., Foster Bequest 230. The numbers do not correspond in the catalogue., B.A.V. Trump. P.P.S. 1962 No. 5. p. 98., No. 250","","Denis Antoine","https://farm8.staticflickr.com/7510/16080767849_a86a063ef0_b.jpg","https://www.flickr.com/photos/MicroPasts/16080767849","superuser",0.4943,52.4053,"dirkspart2"
"28938","580","Ogival Dagger","","Ashmolean Museum, Oxford, Evans Collection. 1927-2347. (Prigs Collection)","England, Suffolk, Undley","Undley, Lakenheath, Brandon, Suffolk IP27, Royaume-Uni","52.405323","0.49425399999995534","","None","None","None","121","54","","38.6","greenish-brown","very smooth","3","","","","Very faint midrib; edges bevelled off. 2 rivet-holes, torn out. Hilt-end ornamented on both faces with very fine geometric engraving.","","","Denis Antoine","https://farm9.staticflickr.com/8652/16266056702_aa18b5a68d_b.jpg","https://www.flickr.com/photos/MicroPasts/16266056702","superuser",0.4943,52.4053,"dirkspart2"
"28939","580","Dirk, Short Bronze Rapier","D","Moyses Hall Museum, Bury St. Edmunds, F91","West Row Fen, Mildenhall, Suffolk, 1947, Exact site not recorded","Mildenhall, Bury Saint Edmunds, Suffolk IP28, Royaume-Uni","52.3444209","0.5109469999999874","","None","None","1947","290","middle blade 17","","99.223","Cleaned off","Good","5","Weight 3.1/2 oz","","","No rivets","","Edwardson, Curator","Denis Antoine","https://farm8.staticflickr.com/7564/16240968886_50bd38dd42_b.jpg","https://www.flickr.com/photos/MicroPasts/16240968886","superuser",0.5109,52.3444,"dirkspart2"
"28940","580","Short Bronze Dirk","A","Moyses Hall Museum, Bury St Edmunds, accs. No. F103, On loan from Mr. A. Payne","Haylands Drove, West Row, Mildenhall, Suffolk, Map ref. 655774, Jan. 1958","Mildenhall, Bury Saint Edmunds, Suffolk IP28, Royaume-Uni","52.3444209","0.5109469999999874","","None","1","1958","141","butt plate 32; blade 14","","42.524","green pitting","pitted","3.175","Thickness: 1/8th of an inch, Weight 1.1/2 oz","Bronze","","Short dagger. Three rivet holes","","Edwardson, Curator","Denis Antoine","https://farm9.staticflickr.com/8650/16265070711_d2087b84fd_b.jpg","https://www.flickr.com/photos/MicroPasts/16265070711","superuser",0.5109,52.3444,"dirkspart2"
"28941","580","Bronze Dirk","B","Moyses Hall Museum, Bury St Edmunds, On loan from owner. J.C. Norman of West Row, Acuss No. 4","Suffolk (West), West Row Mildenhall, near Judes Ferry, found in cleaning drainage ditch, Jan. 1956","Judes Ferry, Ferry Lane, West Row, Bury Saint Edmunds, Suffolk IP28 8PT, Royaume-Uni","52.3477785","0.4609633000000031","","None","1","1956","266.7","35.56","","191.36","Slightly brown","Excellent","10.16","Length 10.5 ins, Width 1.4 ins, Thickness 4/10ths, Weight 6.3/4 Oz","Bronze","","Perfect condition. very sharp. Two rivets in place","","Edwardson, Curator","Denis Antoine","https://farm8.staticflickr.com/7567/15646988783_35e1e87c65_b.jpg","https://www.flickr.com/photos/MicroPasts/15646988783","superuser",0.461,52.3478,"dirkspart2"
"28942",,,,,,,,,,,,,,,,,,,,,,,,,,,"https://farm8.staticflickr.com/7517/15646989443_72fbf34ac9_b.jpg",,"merged",,,"dirkspart2"
"28943",,,,,,,,,,,,,,,,,,,,,,,,,,,"https://farm8.staticflickr.com/7563/16079520500_408f589f67_b.jpg",,"merged",,,"dirkspart2"
"28944",,,,,,,,,,,,,,,,,,,,,,,,,,,"https://farm8.staticflickr.com/7494/16080771389_024907de96_b.jpg",,"merged",,,"dirkspart2"
"28945",,,,,,,,,,,,,,,,,,,,,,,,,,,"https://farm8.staticflickr.com/7507/16265073171_97164a79ae_b.jpg",,"merged",,,"dirkspart2"
"28946",,,,,,,,,,,,,,,,,,,,,,,,,,,"https://farm8.staticflickr.com/7475/16080772619_fcf4b3ac51_b.jpg",,"merged",,,"dirkspart2"
"28947",,,,,,,,,,,,,,,,,,,,,,,,,,,"https://farm8.staticflickr.com/7507/16240972886_ec8b50970b_b.jpg",,"merged",,,"dirkspart2"
"28948",,,,,,,,,,,,,,,,,,,,,,,,,,,"https://farm9.staticflickr.com/8650/16266061862_1e0f667d03_b.jpg",,"merged",,,"dirkspart2"
"28949",,,,,,,,,,,,,,,,,,,,,,,,,,,"https://farm8.staticflickr.com/7465/16079523700_caff71a2c6_b.jpg",,"merged",,,"dirkspart2"
"28950",,,,,,,,,,,,,,,,,,,,,,,,,,,"https://farm9.staticflickr.com/8622/16079361738_052d8e9418_b.jpg",,"merged",,,"dirkspart2"
"28951",,,,,,,,,,,,,,,,,,,,,,,,,,,"https://farm8.staticflickr.com/7514/16080775409_79006efb2d_b.jpg",,"merged",,,"dirkspart2"
"28952",,,,,,,,,,,,,,,,,,,,,,,,,,,"https://farm8.staticflickr.com/7470/16266898195_179c762a16_b.jpg",,"merged",,,"dirkspart2"
"28953","433","Midrib Dagger","III","Sheffield Museum,J.93.442,Bateman Collection","England,Staffordshire,Calton,Musdin Hill,In one of a group of barrows.,16 June 1849","Calton, Stoke-on-Trent, Staffordshire ST10, UK","53.04812399999999","-1.847707000000014","","16","6","1849","129","66","","","Light green patina","Malachite finish.","4","Width:butt 66mm; blade 56mm","","There were 12 skeletons in this barrow, but it was uncertain to which the dagger belonged.","3 rivets, rib down centre","Bateman, T.,Ten Years Digging, 148,Evans, J., Ancient Bronze Implements, 240, Fig. 300,Arch. xliii, 461,Fig. 162","","Joellen mcGann","https://farm9.staticflickr.com/8606/16079364548_866e88f8e7_b.jpg","https://www.flickr.com/photos/MicroPasts/16079364548","superuser",-1.8477,53.0481,"dirkspart2"
"28954","433","Ogival Dagger Blade (With Midrib)","Ogival?","N. Staffs. F. C. Museum, Hanley (1927),Rev. J. S. Caddick-Adams, donor,Brampton Lodge,Newcastle underLyme, Staffs.,acquired Sept. 1924","England,Staffordshire,Audley,Bignall Hill Farm,Farmer -Saml. Hickson,""Found of the top of a hill a mile N. of Chesterton,Staffs."" (Rev. J.S. C. A.),About 1921","Audley, Stoke-on-Trent, Staffordshire ST7, UK","53.05489499999999","-2.3064070000000356","","None","None","1921","124","44","","57","Bright brown, dull golden bronze shows.","Partly encrusted with corroded green.","3","Blade 44mm; 33mm; 29mm; 18.5mm,Thickness: blade 3mm; 3.5mm; 2.5mm","","","Hilt mark shows - a silvery purple stain and in patches on the patina edges.","","""The farmer was ploughing and struck a hollow and put his hand in and found this among small bones he judged to be human. He does not seem to have investigated much and ploughed over the place."" Rev. J.S.C.A., 10.10.24","Joellen mcGann","https://farm8.staticflickr.com/7535/16080778119_fd8132ae49_b.jpg","https://www.flickr.com/photos/MicroPasts/16080778119","superuser",-2.3064,53.0549,"dirkspart2"
"28955","433","Dagger","","Stoke-on-Trent Museum and Art Gallery,K31-1977","England,Staffordshire,Audley,Bignall Hill,Found prior to 1977","Audley, Stoke-on-Trent, Staffordshire ST7, UK","53.05489499999999","-2.3064070000000356","","None","None","None","123","","","","","","","","","Single find","Typology: Dagger with remains of one rivet hole, and grooves parallel to blade edge.","","Rec: AEW 1999","Joellen mcGann","https://farm9.staticflickr.com/8643/16080778349_603ceb252f_b.jpg","https://www.flickr.com/photos/MicroPasts/16080778349","superuser",-2.3064,53.0549,"dirkspart2"
"28956","433","Rivetted Flat-Knife Dagger","II","Sheffield Museum,J.93.449,Bateman Collection","England,Staffordshire,Alstonfield,Stanshope,In a barrow in the Ram's Croft Field,2 December 1849","Alstonefield, Ashbourne, Staffordshire DE6, UK","53.097204","-1.8065679999999702","","2","12","1849","117","43","31","28","Light green patina","Much corroded","2","Width: butt 43mm; blade 31mm","","Near the right shoulder of the contracted skeleton of a tall youn man, lying on his left-side. There were flints in the grave, which had been dug in a barrow created for two burials with beakers.","4 rivets-holes; 2 rivets.","Bateman, T., Ten years Digging, 158-160.,Abercrombie, J., Prehistoric British Pottery, i., 57","","Joellen mcGann","https://farm9.staticflickr.com/8569/16080778959_1bacb6d9c0_b.jpg","https://www.flickr.com/photos/MicroPasts/16080778959","superuser",-1.8066,53.0972,"dirkspart2"
"28957","433","2 Dagger Fragments Ogival, Incised (?), 2 Rivets","Ogival","Society of Antiquaries,Burlington House W.,Presented by J. W. Flower, Esq., 1870","England,Somerset,West Cranmore,From a bell barrow,1869","Cranmore, Shepton Mallet, Somerset BA4, UK","51.187011","-2.472941999999989","","None","None","1869","174","42","","103.9","Thin light green patina stained black with golden bronze showing.","Rather rough on one side surface is a good deal smoother. Encrusted bright green mixed with gravel.","4.5","Length: 174mm; 52mm point; 17mm point,Width: 42mm; 30.5mm; 20.5mm,Weight: dagger 103.9 gms; Rivet 7 gms; Point 9.4 gms","","Found in a bell barrow with a burnt internment, a smaller dagger-blade and some slint scrapers.","2 Rivets one of which is shown. Point of dagger (separate) is smooth but a little encrusted. Some very thin light green patina with golden bronze showing on one side.","Arch. XLIII, 289, 453 f-n., PL. XXXV, 2","","Joellen mcGann","https://farm8.staticflickr.com/7476/16079529180_f8bd21e580_b.jpg","https://www.flickr.com/photos/MicroPasts/16079529180","superuser",-2.4729,51.187,"dirkspart2"
"28958","433","Dagger","","London, Society of Antiquaries Collection, B 36 (i),Presented by J. W. Flower, Esq., 1870","England,Somerset,Cranmore,(West Cranmore)","Cranmore, Shepton Mallet, Somerset BA4, UK","51.187011","-2.472941999999989","c. ST 658 427","None","None","None","173.5","","","","","Translucent black-green-gold patina; much overlaid by coarse-grained structures of mottled greens, browns - from context? Clear broad omega hilt-line in differential surface.","7.2","","Metallurgy: Bibliog: Britton 1961, Table 1, no. 26.; Composition: Cu 85.7; Sn 13.2; Pb 0.12; As 0.37; Sb 0.23; Bi nd.; Ag 0.29; Fe 0.014","2a. Grave","Dimensions: L 173.5mm; max T (including cor.)7.2; Th. centre of butt 3.0,Typology: tapering midrib with slightly rounded central ridges, defined either side by 4 close-set grooves with shallow furrow and edge bevel outside; grooves continue to butt, furrows less distinctly so; grooves very slightly concave, almost straight; central notch in butt original, also intact fragment distinctly so; grooves of rivet holes/notches on either side of butt.,Manufacture: butt neatly finished - although small facets possibly recent interference, some striations almost certainly orig. grmks.,Condition: much of butt corners lost - mostly light green, little chocolate brown, probably ancient damage; parts of edges badly chipped - possibly just corrosion damage - intact edges very sharp; main fracture possibly more recent - in two halves.,Attached Material: ochre-brown staining - soil traces embedded?; possible fragment of attached organic material - linen?","a) Thurnham 1871, 289 no. 15, pl. XXXV.2","Label/Markings: white ink inscr. ""B 36"",PIF; SHI; DF(C); SI; CI; SN Feb. 79; Source: MV; Old Cards 1","Joellen mcGann","https://farm9.staticflickr.com/8654/16081032397_66c7d26b8b_b.jpg","https://www.flickr.com/photos/MicroPasts/16081032397","superuser",-2.4729,51.187,"dirkspart2"
"28959","433","Tanged Dagger","","Via Seabys Coins and Medals","England,""Somerset,Holcombe"",From a collection, history not recorded","Holcombe, Radstock, Somerset BA3, UK","51.245847","-2.4720159999999396","","None","None","None","325","41","","","","Mainly coppery coloured","","","","","Dimensions: L 325mm; Wsh. 41mm,Typology: vestigal signs of edge bevel only,Condition: complete break across hilt tang.","","Labels/Markings: mounted in shallow wall case, glass and wood surround with printed caption:""Bronze Age dagger c. 1200 B.C. found at Holcombe, Somerset"" - old style (early 1900's?),SI; Rec: Sn Aug. 84; Source: Sb. A.; Sub. Inf. P. Clayton 20/8/84","Joellen mcGann","https://farm8.staticflickr.com/7555/16079529680_1734f1174d_b.jpg","https://www.flickr.com/photos/MicroPasts/16079529680","superuser",-2.472,51.2458,"dirkspart2"
"28960","433","Dirk With Trapezoidal Plate","B","Somerset Taunton Castle Museum,Formerly in the W. Greenwell Collection,Obtained 1918 on his death aged 97 3/4 years","England,Somerset,Williton,St [?Decamans],Lake's Meadow near Battle Gore,1863","Williton, Taunton, Somerset TA4, UK","51.16219400000001","-3.3207049000000097","","None","None","1863","144","58","25","81","","","4","","","","","Proc. Som. A. + N.H.S., LXIV, page lvii,B. Trump, P.P.S., 1962, No. 5, p. 98, No. 234","Trump's II Chatteris","Joellen mcGann","https://farm8.staticflickr.com/7563/15644475534_a45aef1095_b.jpg","https://www.flickr.com/photos/MicroPasts/15644475534","superuser",-3.3207,51.1622,"dirkspart2"
"28961","433","Rivetted Dagger Flat-Knife","I","Somerset Antiq. Museum, Taunton Castle","England,Somerset,Rowberrow,Near the boundary of Shipham Parish; Found in pipe-laying on South Side and very close to Roman Road mid-way between Tyning's Farm and the Water Works Tanks, about 18"" down.,1935,Found by a labourer named A. E. Reason.","Rowberrow, Winscombe, Somerset BS25, UK","51.318973","-2.791105000000016","","None","None","1935","103","32","","30.26","","","","","","","Two rivets, one of which is loose.","","Particulars sent by H. St. G.Gray. August 9, 1935.","Joellen mcGann","https://farm8.staticflickr.com/7557/16266903035_b38df2bd08_b.jpg","https://www.flickr.com/photos/MicroPasts/16266903035","superuser",-2.7911,51.319,"dirkspart2"
"28962","433","Dagger","II","Somerset County Museum,Taunton Castle, No. 30D","England,Somerset,Rowberrow, Near Axbridge,Found while digging trenches for water pipes, between Tynings Farm and Long Bottom Farm, 1935","Rowberrow, Winscombe, Somerset BS25, UK","51.318973","-2.791105000000016","O.S. 6"" Sheet XVIII SW","None","None","1935","102","32","","50.26","","","2.5","Weight: 50.26 gms (with rivets).","","","One rivet loose, blade slightly bent. The tapering towards edges seen in section is apparently due to sharpening caused by hone can be seen.","","","Joellen mcGann","https://farm9.staticflickr.com/8625/16240981626_a2792f5af6_b.jpg","https://www.flickr.com/photos/MicroPasts/16240981626","superuser",-2.7911,51.319,"dirkspart2"
"28963","433","Rivetted Flat-Knife Dagger","I","Bristol Museum,E. 1782,Given by Rev. J. Skinner","England,Somerset,Priddy,Barrow","Priddy, Wells, Somerset BA5, UK","51.2555364","-2.678807900000038","","None","None","None","90","35","27","39","Green patina","Much worn","","Width: hilt 35mm; blade 27mm","","Cremation","","Arch. Journal XVI, pp. 148-53","","Joellen mcGann","https://farm8.staticflickr.com/7487/16079369098_b1d54a748a_b.jpg","https://www.flickr.com/photos/MicroPasts/16079369098","superuser",-2.6788,51.2555,"dirkspart2"
"28964","433","Rapier","D","Salisbury, S. Wilts, and Blackmoor Museum","England,Somerset,Pensel Wood,Penpits","Penselwood, Wincanton, Somerset BA9, UK","51.082002","-2.3512379999999666","","None","None","None","446","44","21","183.95","","Of one side is pockmarked - polished bronze.","6","Width: hilt 44mm; blade 21mm","","","","B.A.V. Trump, P.P.S., 1962, No. 5, p. 98, 235","Trump's II Thetford","Joellen mcGann","https://farm8.staticflickr.com/7534/16080782779_5324370b96_b.jpg","https://www.flickr.com/photos/MicroPasts/16080782779","superuser",-2.3512,51.082,"dirkspart2"
"28965","433","Dirk (with midrib)","A","Museum of Archaeology, Cambridge,1911.217","England,Somerset,Norton Fitzwarren","Norton Fitzwarren, Taunton, Somerset, UK","51.027515","-3.1449230000000625","","None","None","None","270","80","34","230","Dark brown patina and some bright green.","Fairly smooth, some corroded pits and lumps.","5","Width: blade at section 34mm; hilt plate 80mm","","","Broad midrib and bevel round cutting edge. 6 Rivet holes and notches; only one of these is not actually broken into. Hilt plate is damaged. The blade has been broken, possibly intentionally with a to and fro movement and been soldered in modern times.","Annual Records Catalogue, 1911,Cambridge Antiquarian Society Catalogue,B.A.V. Trump, P.P.S., 1962, No. 5, p. 98, no. 233,Rowlands, 1976, no. 1884, pl. 43,Dobson, 1931, 83, 247 (cat.)","Trump's I","Joellen mcGann","https://farm8.staticflickr.com/7555/16266071352_b6e6a316b0_b.jpg","https://www.flickr.com/photos/MicroPasts/16266071352","superuser",-3.1449,51.0275,"dirkspart2"
"28966","433","Ogival Incised (?) Dagger","Ogival","Bristol Museum,W.1779,Given by Dr. Thurnam","England,(Somerset) Avon,Camerton,Timsbury,Wall Mead, BarrowG.1,Found in a Round barrow at Wall's Mead","Timsbury, Bath and North East Somerset, UK","51.325321","-2.477119000000016","","None","None","None","157","51","35","109","","","","Width: hilt 51mm; blade 35mm","","2a. Grave","Two rivets; broken near the point. Good condition.","Archaeologia, XLIII, 53, fig. 157,Evans, Ancient Bronze Implements, 243, fig. 303,Gerloff, 1975, 104, no. 175","CI; SI","Joellen mcGann","https://farm8.staticflickr.com/7477/16081035897_a77a8ebb72_b.jpg","https://www.flickr.com/photos/MicroPasts/16081035897","superuser",-2.4771,51.3253,"dirkspart2"
"28967","433","Dirk","","National Museum of Wales,53.471,Loaned by Mr. T.A.Griffiths, Pontway, Painscastle (Radn.)","Wales,Powys,Radnorshire,Newchurch,Castle Trump, Dolbedwyn Farm","Newchurch, Kington, Powys HR5, UK","52.14942","-3.1476430000000164","","None","None","None","253","56","","124","Gone","Completely cleaned; butt bent over at edge","4","","","""Found at the foot of Castle Trump"" (a [mottes?])","","AC, 1875, pp. 19 f.","","Joellen mcGann","https://farm9.staticflickr.com/8602/16079533270_406111ba16_b.jpg","https://www.flickr.com/photos/MicroPasts/16079533270","superuser",-3.1476,52.1494,"dirkspart2"
"28968","433","Rivetted Flat-Knife Dagger","II","Cardiff, National Museum of Wales, 25/59 A.","Wales,Powys,Llandrindod (Golf Links),Found in 1910, on golf links during the clearance of mould.","Llandrindod, Llandrindod Wells, Llandrindod Wells, Powys LD1, UK","52.24237","-3.3791499999999814","","None","None","1910","84","30","","","Greeny blue","Smooth","1.5","Thickness: 1.5mm to 2mm","","","Good condition.","","","Joellen mcGann","https://farm8.staticflickr.com/7560/16266906645_bce07cb60a_b.jpg","https://www.flickr.com/photos/MicroPasts/16266906645","superuser",-3.3791,52.2424,"dirkspart2"
"28969","433","Rapier","Unclassified","National Museum of Wales,47.164/175,Formerly in collection of UCW, Aberystwyth","Wales,Powys (Montgomeryshire),Uwch-y-garreg,Mynydd Hyddgen,Found in peat at Talbot Drain","Nant-y-moch, Ceredigion, UK","52.4605172","-3.7984581000000617","XL NW; 127, 7990","None","None","None","363","45","","89","Dull pale green - pale brown","Badly corroded","3","Location on map may not be accurate?","","","","PW, No. 515","","Joellen mcGann","https://farm8.staticflickr.com/7491/16265086611_4646d40646_b.jpg","https://www.flickr.com/photos/MicroPasts/16265086611","superuser",-3.7985,52.4605,"dirkspart2"
"28970",,,,,,,,,,,,,,,,,,,,,,,,,,,"https://farm8.staticflickr.com/7551/15647004553_c617d73b6b_b.jpg",,"merged",,,"dirkspart2"
"28971",,,,,,,,,,,,,,,,,,,,,,,,,,,"https://farm8.staticflickr.com/7565/16265087781_580306e684_b.jpg",,"merged",,,"dirkspart2"
"28972",,,,,,,,,,,,,,,,,,,,,,,,,,,"https://farm8.staticflickr.com/7481/16081038997_abdb488a90_b.jpg",,"merged",,,"dirkspart2"
"28973",,,,,,,,,,,,,,,,,,,,,,,,,,,"https://farm9.staticflickr.com/8642/15647006353_2017253cb5_b.jpg",,"merged",,,"dirkspart2"
"28974",,,,,,,,,,,,,,,,,,,,,,,,,,,"https://farm8.staticflickr.com/7500/16265089461_73d0bf0da8_b.jpg",,"merged",,,"dirkspart2"
"28975",,,,,,,,,,,,,,,,,,,,,,,,,,,"https://farm8.staticflickr.com/7465/16081040427_41566e7427_b.jpg",,"merged",,,"dirkspart2"
"28976",,,,,,,,,,,,,,,,,,,,,,,,,,,"https://farm8.staticflickr.com/7542/15644483524_171884de30_b.jpg",,"merged",,,"dirkspart2"
"28977",,,,,,,,,,,,,,,,,,,,,,,,,,,"https://farm9.staticflickr.com/8635/16079537890_5d6d3a4b1f_b.jpg",,"merged",,,"dirkspart2"
"28978",,,,,,,,,,,,,,,,,,,,,,,,,,,"https://farm8.staticflickr.com/7557/16265091651_cc95105f09_b.jpg",,"merged",,,"dirkspart2"
"28979",,,,,,,,,,,,,,,,,,,,,,,,,,,"https://farm8.staticflickr.com/7540/16080790769_bbf06c847c_b.jpg",,"merged",,,"dirkspart2"
"28980",,,,,,,,,,,,,,,,,,,,,,,,,,,"https://farm8.staticflickr.com/7501/16079539480_c2cee76718_b.jpg",,"merged",,,"dirkspart2"
"28981",,,,,,,,,,,,,,,,,,,,,,,,,,,"https://farm8.staticflickr.com/7557/16079378668_240b36e199_b.jpg",,"merged",,,"dirkspart2"
"28982",,,,,,,,,,,,,,,,,,,,,,,,,,,"https://farm8.staticflickr.com/7576/15647011163_92bc647752_b.jpg",,"merged",,,"dirkspart2"
"28983",,,,,,,,,,,,,,,,,,,,,,,,,,,"https://farm9.staticflickr.com/8627/16240992316_a0de0fe021_b.jpg",,"merged",,,"dirkspart2"
"28984",,,,,,,,,,,,,,,,,,,,,,,,,,,"https://farm9.staticflickr.com/8624/16081044797_161678988d_b.jpg",,"merged",,,"dirkspart2"
"28985",,,,,,,,,,,,,,,,,,,,,,,,,,,"https://farm9.staticflickr.com/8634/16079542310_9a50dede40_b.jpg",,"merged",,,"dirkspart2"
"28986",,,,,,,,,,,,,,,,,,,,,,,,,,,"https://farm8.staticflickr.com/7476/16080794109_42b20b7c41_b.jpg",,"merged",,,"dirkspart2"
"28987",,,,,,,,,,,,,,,,,,,,,,,,,,,"https://farm9.staticflickr.com/8614/16079382028_b325fb754b_b.jpg",,"merged",,,"dirkspart2"
"28988",,,,,,,,,,,,,,,,,,,,,,,,,,,"https://farm8.staticflickr.com/7535/15647014333_e6a91064bb_b.jpg",,"merged",,,"dirkspart2"
"28989",,,,,,,,,,,,,,,,,,,,,,,,,,,"https://farm8.staticflickr.com/7478/16266917975_174d50f473_b.jpg",,"merged",,,"dirkspart2"
"28990",,,,,,,,,,,,,,,,,,,,,,,,,,,"https://farm8.staticflickr.com/7580/16080795929_74109b287d_b.jpg",,"merged",,,"dirkspart2"
"28991",,,,,,,,,,,,,,,,,,,,,,,,,,,"https://farm8.staticflickr.com/7535/16266918585_a8a7bd9d97_b.jpg",,"merged",,,"dirkspart2"
"28992",,,,,,,,,,,,,,,,,,,,,,,,,,,"https://farm8.staticflickr.com/7559/16266918665_8d186127ea_b.jpg",,"merged",,,"dirkspart2"
"28993",,,,,,,,,,,,,,,,,,,,,,,,,,,"https://farm8.staticflickr.com/7471/16266919005_2e749dda6b_b.jpg",,"merged",,,"dirkspart2"
"28994","433","Dirk","","London, Society of Antiquaries Collection, B.22,(Presented 1860 by Sudlow Roots, Esq., from the collection of his father William Roots - no. 13)","England,GreaterLondon,Kingston-upon-Thames,Chelsea Waterworks,""Found at the Chelsea Waterworks at Kingston, July 1855, 8 feet deep in the blue clay, on the banks of the Thames."" (a),The site could in fact be within Long Ditton, Surrey,Ordnance Survey Records state: ""area TQ 173675""","Kingston upon Thames, Greater London, UK","51.41233","-0.30068900000003396","c. TQ 17 67","None","7","1855","295","48.5","","","","Black to dull gold surface - black possibly very thin patina flaking to gold","5.3","","","","Dimensions: L 295mm; Wsh 48.3; max T. 5.3mm,Typology: sub-trapezoid, rounded asymmetrical corners and edges rounded in section; irregular bevelled surfaces around on rivet hole - other more flat inside, neither neat circular; hilt plate and uppermost blade with thick central swelling -rounded ridge; blade with very narrow flattened midrib and broad cont. edge bevels; shs. obtuse angles, but emphasised by little peaked points; edge bevels curve to meet shs.,Condition: no major damage, edges very good and sharp - very minor nicks,Attached Material: Small patch chalky encrustation next one rivet on reverse face","a) P.S.A. 2, I, 1859-61, 83 no. 13,b) Phillips 1967, 26","Labels/Markings: white ink inscr.: ""B.22""; loose taglabel - Roots original; loose hand-painted label,PIF; AFI; DF(C); SI; CI; SN Feb. 79; Source: MV; Old Card: 1","Joellen mcGann","https://farm9.staticflickr.com/8659/16080797099_8456ceb164_b.jpg","https://www.flickr.com/photos/MicroPasts/16080797099","superuser",-0.3007,51.4123,"dirkspart2"
"28995","433","Halbard","Frag.","Anthropological Museum, Aberdeen University,251,Purchased 1908","Scotland,Grampion (Aberdeenshire),New Machar,1908","Newmachar, Aberdeen, Aberdeenshire AB21, UK","57.266414","-2.1903009999999767","","None","None","1908","227","48","","147","","","7","","","Found with two others, 249 and 250.","Very imperfect specimen.","S.P.O Riordain, Archaeologia, Vol. 86, 1936, p. 311, No. 9","Found while making bridge over ditch on farm. All three lay together between subsoil and layer of moss about two feet thick, from over which, some years before, bank of moss eight to ten feet thick had been removed.","Joellen mcGann","https://farm8.staticflickr.com/7487/15644492264_15796ab4a5_b.jpg","https://www.flickr.com/photos/MicroPasts/15644492264","superuser",-2.1903,57.2664,"dirkspart2"
"28996","433","Halbard","Frag.","Anthropological Museum, Aberdeen University,250,Purchased 1908","Scotland,Grampion (Aberdeenshire),New Machar,1908","Newmachar, Aberdeen, Aberdeenshire AB21, UK","57.266414","-2.1903009999999767","","None","None","1908","268","87","","353","","","7","","","Found with two others, 249 and 251.","Both edges decayed, one badly.","S.P. O Riordain, Archaeologia, Vol. 86, p. 311, No. 8","O Riordan Type 4,Found while making bridge over ditch on farm. All three lay together between subsoil and layer of moss about two feet thick from over which, some years before, bank of moss eight to ten feet thick had been removed.","Joellen mcGann","https://farm8.staticflickr.com/7523/16265099861_0f1138425c_b.jpg","https://www.flickr.com/photos/MicroPasts/16265099861","superuser",-2.1903,57.2664,"dirkspart2"
"28997","433","Halbard","A","Anthropological Museum, Aberdeen University,249,Purchased 1908","Scotland,Grampian (Aberdeenshire),New Machar,1908","Newmachar, Aberdeen, Aberdeenshire AB21, UK","57.266414","-2.1903009999999767","","None","None","1908","284","90","","375","","","8","","","Found with two others, 250 and 251.","With tapering midrib and three rivet holes.","S.P. O Riordain, Archaeologia, Vol. 86, 1936, p. 311, No. 7","O Riordain Type 4,Found while making bridge over ditch on farm. All three lay together between subsoil and layer of moss about two feet thick, from over which, some years before, bank of moss about eight to ten feet thick had been removed.","Joellen mcGann","https://farm8.staticflickr.com/7537/16240998346_a6cc934c58_b.jpg","https://www.flickr.com/photos/MicroPasts/16240998346","superuser",-2.1903,57.2664,"dirkspart2"
"28998","433","Midrib Dagger","II","Ashmolean Museum, Oxford,1927-2341, Evans Collection","England,Gloucestershire,Cirencester, near,Found in a barrow.","Cirencester, Cirencester, Gloucestershire GL7, UK","51.718495","-1.9682430000000295","","None","None","None","123","38","","31.15","","Yellow bronze, with some green oxide pimpled on one face, especially near butt.","3","","","","Well-defined mid-rib. Butt imperfect. Edges damaged.","Evans, Ancient Bronze Implements, p. 241","","Joellen mcGann","https://farm9.staticflickr.com/8642/16266921285_545d4e7a71_b.jpg","https://www.flickr.com/photos/MicroPasts/16266921285","superuser",-1.9682,51.7185,"dirkspart2"
"28999","433","Rivetted Dirk (Frag)","A","Private Collection,1923,W. Claude Johnson, Esq.,Forest Row, Sussex.","England,Gloucestershire,Cirencester","Cirencester, Cirencester, Gloucestershire GL7, UK","51.718495","-1.9682430000000295","","None","None","None","82","36","21.5","42.52","Dark green","Pocked","3.5","Width: 36mm hilt; blade 21.5mm","","","One rivet remains.","","","Joellen mcGann","https://farm9.staticflickr.com/8599/16079547850_c800c364d4_b.jpg","https://www.flickr.com/photos/MicroPasts/16079547850","superuser",-1.9682,51.7185,"dirkspart2"
"29000","580","Dagger","I","On loan to Gloucester City Museum from Forest of Dean Local History Society., L. 90.","Gloucestershire, Near Chepstow, Tidenham Chase Round Barrow, Excavated by C. Scott-Garrett 1951-2., Found in the central cist with cremated human bones.","Tidenham Chase, Chepstow, Gloucestershire NP16, Royaume-Uni","51.680438","-2.649181999999996","","None","None","None","67.5","23","","","","","2","","","Pin or awl, bronze; flat, tabular shale amulet with a suspension-hole; three fossil encrinoid beads; all on loan to Gloucester City Museum, L. 90.","Three rivet-holes at top. Part of the top, and the tip of the dagger broken away.","Trans. B.G.A.S., LXXIV, 15 ff.","AG Hunter","Denis Antoine","https://farm8.staticflickr.com/7575/16079387008_f06826eac2_b.jpg","https://www.flickr.com/photos/MicroPasts/16079387008","superuser",-2.6492,51.6804,"dirkspart2"
"29001","580","Rivetted Flat (?) Knife dagger","I","Ashmolean Museum, Oxford, 1886 NÂ° 1488., Given by Mr. George Moore","England, Gloucestershire, Bourton-on-the-Water, Westfield, (most likely Naunton or Notgrove parish. L.V. Grinsell 4-xii-59), Found in a round barrow","Gloucestershire, Royaume-Uni","51.8642112","-2.2380335000000287","","None","None","None","64","31.5","","14.18","","Very much oxidised; dark green colour","5","","","","","TBGAS, vii, 70-2; LBC, pp. 18-19.","Found in a round barrow.","Denis Antoine","https://farm9.staticflickr.com/8593/16080800409_9fccba4fba_b.jpg","https://www.flickr.com/photos/MicroPasts/16080800409","superuser",-2.238,51.8642,"dirkspart2"
"29002","580","Ogival Midrib Dagger","Ogival","Ashmolean Museum, Oxford, 1927. 2432.","England, Gloucestershire, Bibury, Ablington, near, Found in a small barrow","Bibury, Cirencester, Gloucestershire GL7, Royaume-Uni","51.75801999999999","-1.8302300000000287","","None","None","None","109","30","","28.55","thin dark green patina","Yellow bronze, oxide at butt","3","","","","Broad midrib. Edges much worn, butt imperfect. ""appears to have had 2 rivet-holes"" (Evans)","Evans, Anc. Br. Imps. p. 241-2; Arch. Journ. X. 248.","","Denis Antoine","https://farm8.staticflickr.com/7527/15647020463_d54fc80bb2_b.jpg","https://www.flickr.com/photos/MicroPasts/15647020463","superuser",-1.8302,51.758,"dirkspart2"
"29003","580","Dirk","B","Trump's II Keelogue, Bristol Museum, E. 1778., Given by the Bristol Docks Committee, 19 September 1903","England, Gloucestershire, Avonmouth, Found about 50 feet below the surface of the ground, and 10 feet below low water of spring tides, during the construction of the Royal Edward Dock., 1903.","Avonmouth, Bristol, Bristol, City of Bristol BS11, Royaume-Uni","51.503457","-2.698443999999995","76","None","None","1903","335","hilt 60; blade 30","","313","","","","","","","Two rivet-holes, with both rivets remaining.","B. Trump. P.P.S. 1962 No. 5. p. 96., No. 72","","Denis Antoine","https://farm9.staticflickr.com/8637/16081052847_564c7f84fb_b.jpg","https://www.flickr.com/photos/MicroPasts/16081052847","superuser",-2.6984,51.5035,"dirkspart2"
"29004","580","Rapier","Unclassified","National Museum of Wales, Cardiff., 05. 152.","Wales, Glamorgan, Llansannwr, -city","Llansannor, Cowbridge, Vale of Glamorgan CF71, Royaume-Uni","51.488487","-3.44829100000004","","None","None","None","363","hilt 45; blade 30","","","","","blade 5","","","","The hole in hilt plate is filled in: possibly fault in metal","Pw, NÂ° 514","","Denis Antoine","https://farm8.staticflickr.com/7483/16241001746_c451e247df_b.jpg","https://www.flickr.com/photos/MicroPasts/16241001746","superuser",-3.4483,51.4885,"dirkspart2"
"29005","580","Flat ""Knife Dagger"" Rivetted","II","National Museum of Wales, Cardiff, 20. 435.","Wales, Glamorgan, Cowbridge - High School","Cowbridge, Cowbridge, Vale of Glamorgan CF71, Royaume-Uni","51.46209","-3.4495809999999665","","None","None","None","119","hilt 52","","","Traces only, of surface, green","","blade 2","","","","Poor condition. Edges are uneven. Traces of hilt shape, which is said to have powdered away when the blade was lifted. One rivet remains.","","","Denis Antoine","https://farm8.staticflickr.com/7540/15644497344_b5a5365273_b.jpg","https://www.flickr.com/photos/MicroPasts/15644497344","superuser",-3.4496,51.4621,"dirkspart2"
"29006","580","Trapeze-plated Dirk","B","National Museum of Wales, Cardiff, Z3","Wales, Glamorgan, Caerphilly","Caerphilly, Caerphilly, Royaume-Uni","51.578829","-3.2181339999999636","","None","None","None","172","blade 32; hilt 53","","","","dull bronze colour now. with thin lines where brown patina remains.","3","","","","Good condition. possibly this has been polished","Pw, NÂ° 511","","Denis Antoine","https://farm9.staticflickr.com/8567/16079390278_d4e0dc1ef1_b.jpg","https://www.flickr.com/photos/MicroPasts/16079390278","superuser",-3.2181,51.5788,"dirkspart2"
"29007","433","Dagger","","Dorchester Museum, 1934.37.2","England,Dorset,Winterborne St. Martin,Martinstown, South of,Barrow 4.50a,'ploughed out of a barrow' (a); unlocated barrow (b)","Martinstown, Dorchester, Dorset DT2, UK","50.699439","-2.502746000000002","c. SY 64 87","None","None","None","","","","","","","","","","8. Single Find possibly from barrow","","a) Gerloff 1975, 105 no. 178, pl. 17,b) Grinsell 1959, 154 no. 50a,c) Newall 1931, 450 no. 23,d) Ap Simon 1934, 58, no. 12","PIF (0); DF(C); SI; CI; SN Jan 81; Source: MV","Joellen mcGann","https://farm8.staticflickr.com/7511/16266090832_279f9d712c_b.jpg","https://www.flickr.com/photos/MicroPasts/16266090832","superuser",-2.5027,50.6994,"dirkspart2"
"29008","433","Halberd Fragment (viz. butt end imperfect)","","Exeter Museum, No. 1900.12.3","England,Devonshire,Woodbury near Yettington,From a tumulus on Woodbury Common, excavated by Capt. Ferrard and James Dallas.","Woodbury, Devon, UK","50.67734","-3.399045000000001","","None","None","None","162","62","","73.16","Green and brown","Much corroded, has been varnished or lacquered.","1.5","Thickness: average 1.5 - 2 mm","","","","","Found in a tumulus, excavated by Capt. Ferrand and James Dallas.","Joellen mcGann","https://farm8.staticflickr.com/7551/16266091412_b9609b6c23_b.jpg","https://www.flickr.com/photos/MicroPasts/16266091412","superuser",-3.399,50.6773,"dirkspart2"
"29009","433","Dagger","","Exeter, Royal Albert Memorial Museum, Rougemont House, 377","England,Devon,Upton Pyne","Upton Pyne, Exeter, Devon EX5, UK","50.770091","-3.542520999999965","","None","None","None","","","","","","","","","","Barrow; found with bronze pin","","R. Kirwen, T.D.A., 1871, 643, 634.","","Joellen mcGann","https://farm8.staticflickr.com/7519/15644498954_d4a5cc4974_b.jpg","https://www.flickr.com/photos/MicroPasts/15644498954","superuser",-3.5425,50.7701,"dirkspart2"
"29010","433","Rapier","D","Royal Albert Memorial Museum, Exeter.,Reg. No. 315.,Presented by Sir John Kennaway, Bart, 1870.","England,Devon,Talaton,""Ryland Field"", 3 miles from Larkbeare House; during drainage operations, 3 1/2 feet below surface.,January, 1867.","Talaton, Exeter, Devon EX5, UK","50.78934","-3.321055000000001","SY 0699","None","1","1867","322","50","","172","","Much oxidised and rough","7","","Bronze","2 weapons, 313 and 314 in same collection.","Rapier-shaped weapon, remains of rivet-holes at butt.","B.A.V. Trump, P.P.S., 1962, No. 5, p. 95, 63,Arch. J., ix, 185; xxlv, 110.,Evans, p. 250.","Trump's II Thetford","Joellen mcGann","https://farm8.staticflickr.com/7562/16266926885_4a29ea1d4f_b.jpg","https://www.flickr.com/photos/MicroPasts/16266926885","superuser",-3.3211,50.7893,"dirkspart2"
"29011","433","Rapier","Unclassified","Royal Albert Memorial Museum, Exeter.,Reg. No. 314,Presented by Sir John Kennaway, Bart, 1870.","England,Devon,Talaton,""Ryland Field"", 3 miles from Larkbeare House; during drainage operations, 3 1/2 feet below surface.,January 1867.","Talaton, Exeter, Devon EX5, UK","50.78934","-3.321055000000001","SY 0699","None","1","1867","422","29","","109.5","","Much oxidised and rough.","4","","Bronze","2 weapons, 313 and 315 in same collection.","Rapier-shaped weapon.","B.A.V. Trump, P.P.S., 1962, No. 5, p. 95, 62 and see other cards.","Trump's II Thetford","Joellen mcGann","https://farm8.staticflickr.com/7560/16080805329_39a0e75c2a_b.jpg","https://www.flickr.com/photos/MicroPasts/16080805329","superuser",-3.3211,50.7893,"dirkspart2"
"29012","433","Rapier","D","Royal Albert Memorial Museum, Exeter,Reg. No. 313,Presented by Sir John Kennaway, Bart, 1870.","England,Devon,Talaton,""Ryland Field"", 3 miles from Larkbeare House; during drainage operations, 3 1/2 feet below surface.,January 1867.","Talaton, Exeter, Devon EX5, UK","50.78934","-3.321055000000001","SY 0699","None","1","1867","577","51","","296","","Much oxidised and rough.","7","","Bronze","2 weapons, 314 and 315 in same collection.","Rapier-shaped weapon; remains of rivet holes at butt.","Arch. Journ. XXIV, p. 110,Evans, p. 250,B.A.V. Trump, P.P.S., 1962, No. 5, p. 95, 61","Trump's II Thetford","Joellen mcGann","https://farm8.staticflickr.com/7491/15644500214_c388f169df_b.jpg","https://www.flickr.com/photos/MicroPasts/15644500214","superuser",-3.3211,50.7893,"dirkspart2"
"29013","433","Rapier","B","Plymouth Municipal Museum,Given by H.R.H. The Prince of Wales","England,Devon,Princetown,Found at Greenaballs by convicts 2 feet below the surface in 1906.","Princetown, Yelverton, Devon PL20, UK","50.54581","-3.9863769999999477","","None","None","1906","457","50","","200","Dull bronze patina.","","6","","","","Much chipped. A blue-grey core shows at two places and at the point, as well as along both edges.","B.A.V. Trump, P.P.S., 1962, No. 5, p. 96, 65","Trump's III Corrib.","Joellen mcGann","https://farm8.staticflickr.com/7509/16266928355_25faf0d070_b.jpg","https://www.flickr.com/photos/MicroPasts/16266928355","superuser",-3.9864,50.5458,"dirkspart2"
"29014","433","Ogival Dagger Rivetted (with Midrib)","Ogival","Exeter Museum (No. 6234),Presented by Mr. George Doe","England,Devonshire,N.,Huntishaw, Torrington,Found in a barrow.,1875","Torrington, Torrington, Devon EX38, UK","50.95209699999999","-4.136851999999976","","None","None","1875","237","52","","190.47","Green patina","","7","","","Found with fragments of decayed wood, human bones, dried oak and beech leaves, in a barrow.","""Central rounded midrib and apparently 2 lateral ribs."" (Evans, A.B.I., 244)","Trans. Devons. Assoc. Vol. VII, p. 104.,Ancient Bronze Implements (Evans), p. 244.","","Joellen mcGann","https://farm8.staticflickr.com/7461/16266929035_cffb6ae627_b.jpg","https://www.flickr.com/photos/MicroPasts/16266929035","superuser",-4.1369,50.9521,"dirkspart2"
"29015","433","Rapier","E","Ashmolean Museum, Oxford,Evans Collection, 1927-2573","England,Devon,Crediton,1898","Crediton, Crediton, Devon EX17, UK","50.792592","-3.651495000000068","","None","None","1898","584","64","","459.8","Dirty green patina.","","7","","","Found with another and two palstaves (Nos. 2571-4).","Straight-sided blade with flat midrib, widening at base into broad unperforated butt.","E.T. Leeds, Antiquity II, 351,B.A.V. Trump, P.P.S.,1962, No. 5, p.95, 59","Trump's II Chatteris","Joellen mcGann","https://farm9.staticflickr.com/8644/16265108991_73aceae619_b.jpg","https://www.flickr.com/photos/MicroPasts/16265108991","superuser",-3.6515,50.7926,"dirkspart2"
"29016","433","Rapier","C","Ashmolean Museum, Oxford,Evans Collection, 1927-2574","England,Devon,Crediton,1898","Crediton, Crediton, Devon EX17, UK","50.792592","-3.651495000000068","","None","None","1898","677","63","","399.50","Dirty green patina, rubbed clean at point.","","8","","","Found with another and 2 palstaves (Nos. 2571-3)","Length of rivet 21mm; diameter 8 x 12mm. Slender tapering blade with twin-bevelled midrib. Outer lines diverge at base into broad butt with 2 large rivet holes, 1 broken. 1 rivet remains.","E. T. Leeds, Antiquity, II, 351,B.A.V. Trump, P.P.S., No. 5, p. 95, 60","Trump's II Mortlake","Joellen mcGann","https://farm8.staticflickr.com/7501/16080807519_f5c691e37c_b.jpg","https://www.flickr.com/photos/MicroPasts/16080807519","superuser",-3.6515,50.7926,"dirkspart2"
"29017","433","Grooved Dagger Blade","II","Plymouth Athenaeum","England,Devon,Hammeldon Down on Dartmoor. The furthermost of the ""Two Barrows"". Exact find place in barrow is not known (1872).","Dartmoor National Park, Devon, UK","50.5718857","-3.9206884000000173","","None","None","1872","101","30","","49","Greenish-brown patina","One side fairly smooth, with a few small pits near the point: the other side has large areas of the surface broken away, the depression then formed being covered with patches of green patina.","5","","","In the barrow were bones and an amber pommel with minute gold studs let into it.","Fragment of blade of a small ogival dagger. Although the shoulders, edges and point are all broken, its original outline is indicated by the grooves running down the blade near the edges.","Trans. of Devon Assoc. V, (1872), 554 -","","Joellen mcGann","https://farm8.staticflickr.com/7475/16241007606_5129f86ba6_b.jpg","https://www.flickr.com/photos/MicroPasts/16241007606","superuser",-3.9207,50.5719,"dirkspart2"
"29018",,,,,,,,,,,,,,,,,,,,,,,,,,,"https://farm8.staticflickr.com/7482/16079557000_8fd90b5689_b.jpg",,"merged",,,"dirkspart2"
"29019",,,,,,,,,,,,,,,,,,,,,,,,,,,"https://farm8.staticflickr.com/7549/16265110281_c4146e456a_b.jpg",,"merged",,,"dirkspart2"
"29020",,,,,,,,,,,,,,,,,,,,,,,,,,,"https://farm8.staticflickr.com/7517/16080809059_8217ebe15a_b.jpg",,"merged",,,"dirkspart2"
"29021",,,,,,,,,,,,,,,,,,,,,,,,,,,"https://farm8.staticflickr.com/7543/16265111701_fef99f2948_b.jpg",,"merged",,,"dirkspart2"
"29022",,,,,,,,,,,,,,,,,,,,,,,,,,,"https://farm8.staticflickr.com/7471/16266097642_c080f0266f_b.jpg",,"merged",,,"dirkspart2"
"29023",,,,,,,,,,,,,,,,,,,,,,,,,,,"https://farm8.staticflickr.com/7509/16266098132_24fa4947de_b.jpg",,"merged",,,"dirkspart2"
"29024",,,,,,,,,,,,,,,,,,,,,,,,,,,"https://farm8.staticflickr.com/7499/16079560390_14c4565c0d_b.jpg",,"merged",,,"dirkspart2"
"29025",,,,,,,,,,,,,,,,,,,,,,,,,,,"https://farm8.staticflickr.com/7550/16266099342_58c75b5840_b.jpg",,"merged",,,"dirkspart2"
"29026",,,,,,,,,,,,,,,,,,,,,,,,,,,"https://farm9.staticflickr.com/8624/16079399268_0285c0a189_b.jpg",,"merged",,,"dirkspart2"
"29027",,,,,,,,,,,,,,,,,,,,,,,,,,,"https://farm8.staticflickr.com/7544/16080813469_e7662701f1_b.jpg",,"merged",,,"dirkspart2"
"29028",,,,,,,,,,,,,,,,,,,,,,,,,,,"https://farm8.staticflickr.com/7472/16266100982_c91995822c_b.jpg",,"merged",,,"dirkspart2"
"29029",,,,,,,,,,,,,,,,,,,,,,,,,,,"https://farm8.staticflickr.com/7511/16266936385_7fe4fc58b3_b.jpg",,"merged",,,"dirkspart2"
"29030",,,,,,,,,,,,,,,,,,,,,,,,,,,"https://farm9.staticflickr.com/8651/15644509314_dc20af81f0_b.jpg",,"merged",,,"dirkspart2"
"29031",,,,,,,,,,,,,,,,,,,,,,,,,,,"https://farm9.staticflickr.com/8658/16080814879_288d267519_b.jpg",,"merged",,,"dirkspart2"
"29032",,,,,,,,,,,,,,,,,,,,,,,,,,,"https://farm8.staticflickr.com/7521/16241015176_19078d0aa1_b.jpg",,"merged",,,"dirkspart2"
"29033","817","DIRK","D","Museum of Archaeology, Cambridge,Lichfield Collection. (from Evans Collection).","England,Cambridgeshire,[...] Fen","","52.26558199999999","0.19100200000002587","","None","None","None","181","24","","112","Black patina -- & some metal showing through.","Slightly rough & dull.","6","Width shows ""blade 24mm   hilt plate 43mm"". Thickness shows ""blade 6mm"".","","","Sharp midrib & 2 lines running parallel with the cutting edges -- 2 notches.","B.A.V. Trump. P.P.S. 1962 No.5 p. 97,39","Trump's II Thetford.","JP OConnor","https://farm9.staticflickr.com/8562/16241015986_6634e3530d_b.jpg","https://www.flickr.com/photos/MicroPasts/16241015986","only good record",0.191,52.2656,"dirkspart2"
"29034",,,,,,,,,,,,,,,,,,,,,,,,,,,"https://farm8.staticflickr.com/7473/16080816209_e50187e6a7_b.jpg",,"merged",,,"dirkspart2"
"29035",,,,,,,,,,,,,,,,,,,,,,,,,,,"https://farm9.staticflickr.com/8567/16265119051_184041a47e_b.jpg",,"merged",,,"dirkspart2"
"29036",,,,,,,,,,,,,,,,,,,,,,,,,,,"https://farm9.staticflickr.com/8601/16266104422_1143303207_b.jpg",,"merged",,,"dirkspart2"
"29037",,,,,,,,,,,,,,,,,,,,,,,,,,,"https://farm9.staticflickr.com/8682/16266940355_46f04c5760_b.jpg",,"merged",,,"dirkspart2"
"29038",,,,,,,,,,,,,,,,,,,,,,,,,,,"https://farm9.staticflickr.com/8602/16265120411_0c3799956f_b.jpg",,"merged",,,"dirkspart2"
"29039",,,,,,,,,,,,,,,,,,,,,,,,,,,"https://farm9.staticflickr.com/8678/16080818689_5b8a181aa7_b.jpg",,"merged",,,"dirkspart2"
"29040","433","Dirk","C","Museum of Archaeology and Ethnology, Cambridge,Cole Ambrose Collection,559","England,Cambridgeshire,Ely,Quaveny by Stuntney","Stuntney, Ely, Cambridgeshire CB7, UK","52.3804031","0.28408920000003945","","None","None","None","293","55.5","","184.27","Black shiny patina","Smooth, Dark Bronze","5","Width: blade 26mm; hilt 55.5mm; 50mm","","","2 Rivets remains. A. 18.5mm long; B. 19mm long.","B.A.V. Trump, P.P.S., 1962, No. 5, p. 95, 37","Trump's II Mortlake","Joellen mcGann","https://farm8.staticflickr.com/7580/16080819359_a70667ddeb_b.jpg","https://www.flickr.com/photos/MicroPasts/16080819359","superuser",0.2841,52.3804,"dirkspart2"
"29041","433","Dirk with Trapezoidal Plate","B","Museum of Archaeology and Ethnology, Cambridge,Cole Ambrose Collection,560","England,Cambridgeshire,Fens, near Ely","Ely, Ely, Cambridgeshire, UK","52.399539","0.2623630000000503","","None","None","None","228","52","","127.56","Patches of shiny black","Rough dark brown","5.5","Width: blade 24mm; hilt 52mm","","","","B. Trump, P.P.S., 1962, No. 5, p. 95, No. 35","Trump's II Chatteris","Joellen mcGann","https://farm8.staticflickr.com/7497/16265122071_18cc11d60f_b.jpg","https://www.flickr.com/photos/MicroPasts/16265122071","superuser",0.2624,52.3995,"dirkspart2"
"29042","433","Dirk With Trapezoidal Plate","B","Museum of Archaeology and Ethnology, Cambridge,Cole Ambrose Collection,561","England,Cambridgeshire,Fens nearEly","Ely, Ely, Cambridgeshire, UK","52.399539","0.2623630000000503","","None","None","None","207","49","","70.88","No patina.","Rough, dark bronze.","3.5","Width: blade 25mm; hilt 49mm","","","","B. Trump, P.P.S., 1962, No. 5, p. 95, No. 18","","Joellen mcGann","https://farm8.staticflickr.com/7464/15644515124_355413fc79_b.jpg","https://www.flickr.com/photos/MicroPasts/15644515124","superuser",0.2624,52.3995,"dirkspart2"
"29043","433","Dirk","D","Museum of Archaeology, Cambridge","England,Cambridgeshire,Ely,Stuntney","Stuntney, Ely, Cambridgeshire CB7, UK","52.3804031","0.28408920000003945","","None","None","None","315","48","","138","Brown patina in places. Chipped off in a few patches showing a smoother surface beneath.","Rough","5","Width: Blade 20mm; hilt plate 48mm","","","Broad midrib. 2 Rivet holes both broken.","Prehistoric Bronzes 131,Foster Bequest 231,B.A.V. Trump,P.P.S., 1962, No. 5, p. 95, 48","Trump's III Lisburn","Joellen mcGann","https://farm8.staticflickr.com/7559/16266943855_fcb5f5ab1f_b.jpg","https://www.flickr.com/photos/MicroPasts/16266943855","superuser",0.2841,52.3804,"dirkspart2"
"29044","433","Rapier","D","Museum of Archaeology and Ethnology, Cambridge,Cole Ambrose Collection,551","England,Cambridgeshire,? Ely","Ely, Ely, Cambridgeshire, UK","52.399539","0.2623630000000503","","None","None","None","390","46","","148.83","No patina.","Rough, dark brown.","4","Width: blade 19.5mm; hilt 46mm","","","","B.A.V. Trump, P.P.S., 1962, No. 5, p. 95, 40","Trump's II Thetford","Joellen mcGann","https://farm8.staticflickr.com/7519/16080821649_e8a60c1e17_b.jpg","https://www.flickr.com/photos/MicroPasts/16080821649","superuser",0.2624,52.3995,"dirkspart2"
"29045","433","Short Dirk","D","Museum of Archaeology and Ethnology, Cambridge,Cole Ambrose Collection,550","England,Cambridgeshire,near Ely","Ely, Ely, Cambridgeshire, UK","52.399539","0.2623630000000503","","None","None","None","276","19","","70.88","No patina.","Rough. Light bronze.","3.5","Width: 19mm; 12mm","","","","Evans, Bronze Implements, Fig. 321","","Joellen mcGann","https://farm8.staticflickr.com/7541/16081073567_121f3582f1_b.jpg","https://www.flickr.com/photos/MicroPasts/16081073567","superuser",0.2624,52.3995,"dirkspart2"
"29046","433","Rapier","D","Transferred King's Lynn Museum, March 1962","England,Cambridgeshire,Ely","Ely, Ely, Cambridgeshire, UK","52.399539","0.2623630000000503","","None","None","None","365","40","","185","","","6","Width: hilt plate 40mm; 23mm; 34mm; blade 23mm","","","Strong central rib.","B.A.V. Trump, P.P.S., 1962, No. 5, p. 95, 54","Trump's III Lisburn.","Joellen mcGann","https://farm8.staticflickr.com/7566/16266110072_3a6fa2b424_b.jpg","https://www.flickr.com/photos/MicroPasts/16266110072","superuser",0.2624,52.3995,"dirkspart2"
"29047","433","Dirk with Trapezoidal Plate","B","Transferred King's Lynn Museum, March 1962","England,Cambridgeshire,Ely","Ely, Ely, Cambridgeshire, UK","52.399539","0.2623630000000503","","None","None","None","168","53","","117","","","4","Width: blade 24mm; 26mm; hilt plate 53mm","","","Two large rivet holes in hilt plate.","B.A.V. Trump, P.P.S. 1962, No. 5, p. 95, No. 30","Trump's I","Joellen mcGann","https://farm8.staticflickr.com/7486/16266946185_456713e9a8_b.jpg","https://www.flickr.com/photos/MicroPasts/16266946185","superuser",0.2624,52.3995,"dirkspart2"
"29048","433","Short Dirk with Trapezoidal Plate","B","Museum of Archaeology and Ethnology, Cambridge,Cole-Ambrose Collection,558","England,Cambridgeshire,Coveney,Downham Hill","Coveney, Ely, Cambridgeshire CB6, UK","52.416416","0.18800599999997303","","None","None","None","283.5","57","","99.22","No patina.","Smooth. Browny green.","3.5","Width: blade 17.5mm; hilt 57mm,Thickness: blade 3.5mm; rivet8.5mm; 9mm","","","One rivet remains.","B.A.V. Trump, P.P.S., 1962, No. 5, p. 95, 22","Trump's I.","Joellen mcGann","https://farm8.staticflickr.com/7575/16266947095_e1513e563d_b.jpg","https://www.flickr.com/photos/MicroPasts/16266947095","superuser",0.188,52.4164,"dirkspart2"
"29049","433","Rapier","B","Ashmolean Museum, Oxford,1927-2353, Evans Collection","England,Cambridgeshire,Chatteris, near,1871,""Found at the bottom of an old canoe between the peat and clay.""","Chatteris, Cambridgeshire, UK","52.45610199999999","0.054012000000057014","","None","None","1871","388","57","","171.53","patches of patina, purple.","Clean bronze, with","5","Thickness: 5mm; 6mm","","","Broad, low-keeled midrib. 2 rivet holes in butt.","Evans, Ancient Bronze Implements, p. 250, Fig. 315,Cyril Fox, Archaeology of the Cambridge Region, p. 64,Antiq. Journ. VI, pp. 127, 147.,B.A.V. Trump,P.P.S., 1962, No. 5, p. 95, 32","Trump's II Chatteris","Joellen mcGann","https://farm9.staticflickr.com/8657/15647043763_e2228b8073_b.jpg","https://www.flickr.com/photos/MicroPasts/15647043763","superuser",0.054,52.4561,"dirkspart2"
"29050","433","Ribbed Ogival Dagger","Ogival","Ashmolean Museum, Oxford,1927-2521, Evans Collection,(Litchfield Collection)","England,Cambridgeshire,""Found not far from Cambridge"" (Evans).","Cambridge, Cambridge, UK","52.205337","0.12181699999996454","","None","None","None","178","53","","120.55","Blackish patina.","Some pitting, especially near butt and rust especially near point.","7","","","","3 Rivet holes, all broken out. Triple ribbing, ornamented with lines of fine punched dots and fine diagonal incisions along inner side of outer ribs (specimen of ornament shown on drawing).","Evans, Ancient Bronze Implements, pp. 243-4, Fig. 304.","","Joellen mcGann","https://farm8.staticflickr.com/7473/16079575110_840be47235_b.jpg","https://www.flickr.com/photos/MicroPasts/16079575110","superuser",0.1218,52.2053,"dirkspart2"
"29051","433","Dirk","D","Blandford Collection,Pitt Rivers Museum, Farnham","England,Cambridgeshire,Cambridge,Found in Fens.","Cambridge, Cambridge, UK","52.205337","0.12181699999996454","","None","None","None","350","37","","198.44","","Smooth dark bronze.","6","Width: blade 22mm; hilt plate 37mm; 25mm","","","","B.A.V.Trump, P.P.S., 1962, No. 5, p. 95, 52.","Trump's III Lisburn,Label: Bronze sword found in Fen of Cambridge.","Joellen mcGann","https://farm8.staticflickr.com/7465/16266113802_aa286765fc_b.jpg","https://www.flickr.com/photos/MicroPasts/16266113802","superuser",0.1218,52.2053,"dirkspart2"
"29052","433","Rapier","D","Museum of Archaeology, Cambridge,Presented by Mrs. W. K. Foster,(Freeman Collection)","England,Cambridgeshire,Cambridge,Newnham,Grange Road,1896","Grange Road, Cambridge, Cambridge CB3, UK","52.1999241","0.10501309999995101","","None","None","1896","418","61.5","","248","","","6","Width: blade 23mm; hilt plate (widest) 61.5mm","","","In good preservation. Point slightly bent. 2 notches for rivets. Ornamented with mid rib and 2 beads running parallel with cutting edge.","Annual Records Catalogue, 72, 1899,B.A.V. Trump, P.P.S., 1962, No. 5, p. 95, 44","Trumps II Thetford","Joellen mcGann","https://farm8.staticflickr.com/7532/16265129111_78db1a8321_b.jpg","https://www.flickr.com/photos/MicroPasts/16265129111","superuser",0.105,52.1999,"dirkspart2"
"29053","433","Dirk","B","London Museum,49.83/6,Bought at Sotheby & Co., 18.10.1949, Lot 169. Ex Ball Collection, formerly in Hertfordshire County Museum.","England,Cambridgeshire,Cambridge","Cambridge, Cambridge, UK","52.205337","0.12181699999996454","","None","None","None","348","38","","","","","","","","","The two rivets remain.","","OK","Joellen mcGann","https://farm9.staticflickr.com/8654/16080827219_32634f6bd9_b.jpg","https://www.flickr.com/photos/MicroPasts/16080827219","superuser",0.1218,52.2053,"dirkspart2"
"29054","433","Dirk with Trapezoidal Plate","D","Cambridge Antiquarian Museum,No. 28.516,Donor, T. C. Lethbridge, 1928.","England,Cambridgeshire,Burwell,Burwell Fen, ploughed up.","Burwell, Cambridge, Cambridgeshire CB25, UK","52.27491999999999","0.327246999999943","","None","None","None","190","32","","73.5","Rusty green patina.","Underside badly corroded.","5","","","","2 notches at hilt. Well-defined midrib. Very poorly preserved.","B.A.V. Trump, P.P.S., 1962, No. 5, p. 95, 51.","Trump's III Lisburn","Joellen mcGann","https://farm8.staticflickr.com/7489/15647046523_ebc26e09c1_b.jpg","https://www.flickr.com/photos/MicroPasts/15647046523","superuser",0.3272,52.2749,"dirkspart2"
"29055","433","Dirk (Rapier blade)","D","Museum of Archaeology, Cambridge","England,Cambridgeshire,Burwell Fen,1861","Burwell, Cambridge, Cambridgeshire CB25, UK","52.27491999999999","0.327246999999943","","None","None","1861","279","18","","77","Mostly black patches of Patina and a fair amount of metal with patches of green and black with touches of red.","Dull and fairly smooth.","5","","","","Straight blade. Hilt plate notched and same width as blade. Low midrib. Cutting edge very sharp.","Prehistoric Bronzes, 128, No catalogue.,Bronzes 17. The numbers can be found in a catalogue called ""Museum of Archaeology"".,Cambridge Antiquarian Society Catalogue, 166, 1884.","","Joellen mcGann","https://farm8.staticflickr.com/7492/15647048353_aec25e1a67_b.jpg","https://www.flickr.com/photos/MicroPasts/15647048353","superuser",0.3272,52.2749,"dirkspart2"
"29056","433","Rapier Dirk Trapezoidal Plate","B","Museum of Archaeology, Cambridge,Transferred from the Fitzwilliam Museum","England,Cambridgeshire,Burwell,Burwell Fen,1860","Burwell, Cambridge, Cambridgeshire CB25, UK","52.27491999999999","0.327246999999943","","None","None","1860","307","60","","157","Dark brown and green patina and some metal showing through.","Rougher on one side than the other.","4.5","Width: blade at section 28mm; hilt plate 60mm","","","There is an inscription on the bevel: ""Inventus Bruwell palustre. F.D. 1860. Dons dedit R. R. Fielder. Jes. Coll. Contab. Mus. Fitz. Gul."" Midrib and bevels. 2 rivets. Slightly bent.","Prehistoric Bronzes, 125, No catalogue.,Bronzes 100. The numbers can be found in a catalogue called ""Museum of Archaeology."",B.A.V. Trump, P.P.S., 1962, No. 5, No. 36","Trump's II Chatteris ?","Joellen mcGann","https://farm8.staticflickr.com/7479/16266953095_0f47585c54_b.jpg","https://www.flickr.com/photos/MicroPasts/16266953095","superuser",0.3272,52.2749,"dirkspart2"
"29057","433","Dirk Short Sir with Trapezoidal Plate","B","Ashmolean Museum, Oxford,1927-2343 Evans Collection","England,Cambridge,Burwell Fen","Burwell, Cambridge, Cambridgeshire CB25, UK","52.27491999999999","0.327246999999943","","None","None","None","161","33","","52.46","","Yellow bronze.","4","","","","Length of Rivets: 14mm; diam. 7-8mm. Spatulate hilt. Flat midrib. Edges much damaged. 2 rivets with round heads.","B.A.V. Trump, P.P.S., 1962, No. 5, p. 95, No. 45","Trump's I","Joellen mcGann","https://farm8.staticflickr.com/7557/16266953535_ea7b78d41f_b.jpg","https://www.flickr.com/photos/MicroPasts/16266953535","superuser",0.3272,52.2749,"dirkspart2"
"29058","433","Short Dirk With Trapezoidal Plate","A","Ashmolean Museum, Oxford,1927-2344, Evans Collection","England,Cambridge,Burwell,Burwell Fen,1872","Burwell, Cambridge, Cambridgeshire CB25, UK","52.27491999999999","0.327246999999943","","None","None","1872","215","36","","74.01","Dirty greenish patina.","","4","","","","Length of rivets 14mm; diam. 7-9mm. Hilt approximately spatulate. 3 rivet-holes in line at butt. Originally 3 round-headed rivets, but 1 has been lost and this hole torn out.","Evans, Ancient Bronze Implements, p. 248,B.A.V. Trump, P.P.S., 1962, No. 5, p. 95, 26","Trump's I","Joellen mcGann","https://farm8.staticflickr.com/7540/16081082357_f4771fd379_b.jpg","https://www.flickr.com/photos/MicroPasts/16081082357","superuser",0.3272,52.2749,"dirkspart2"
"29059","433","Dirk with Trapezoidal Plate","B","Private Collection,S.G. Fenton,Esq., 33 Cranbourn St. W., 6.7.20","England,Cambridgeshire,Burnwell (?Burwell),Bunwell, see Trump's","Burwell, Cambridge, Cambridgeshire CB25, UK","52.27491999999999","0.327246999999943","","None","None","None","142","45","","35.43","Thin dull green patina.","Rather rough","1.5","Site: Bunwell is in Norwich, not certain of location.,Width: 45mm; 29mm,Thickness: 1.5mm; 3mm","","","","B. Trump, P.P.S., 1962, No. 5, p. 95, No.33","Trump's II Chatteris","Joellen mcGann","https://farm9.staticflickr.com/8674/16081082957_c609495640_b.jpg","https://www.flickr.com/photos/MicroPasts/16081082957","superuser",0.3272,52.2749,"dirkspart2"
"29060","433","Dirk Trapezoid Plate","B","Museum of Archaeology, Cambridge","England,Cambridgeshire,Bottisham Lode","Bottisham Lode,","52.27491999999999","0.327246999999943","","None","None","None","316","56","","165","Light brown, grey and green patina.","Rough in places.","5","Width: hilt plate 56mm; blade 23mm","","","Midrib. Edges slightly bevelled. 2 Rivets.","Prehistoric Bronzes, 126. No catalogue.,Foster Bequest 229. The numbers do not correspond in the catalogue.","","Joellen mcGann","https://farm8.staticflickr.com/7469/16266955335_f9184f1fa6_b.jpg","https://www.flickr.com/photos/MicroPasts/16266955335","superuser",0.3272,52.2749,"dirkspart2"
"29061","433","Dirk with Trapezoidal Plate","B","Hanley Municipal Museum,Jewitt Collection,Labelled Llewellynn Jewitt,This collection was apparently received from Edwin A. G. Jewitt by W. H. Goss and by him deposited or given to the Hanley Museum. Many of the exhibits bear Jewitts name and must have apparently been exhibited at or by The Royal Archaeological Society. There is among the collection a model not a cast in plaster. No data whatever, as not sketched.","England,Cambridgeshire,Bottisham,Bottisham Fen","Bottisham, Cambridge, Cambridgeshire, UK","52.223476","0.2580399999999372","","None","None","None","113","26","","43","Very little","Fairly smooth","3","","Bronze","","","Jewitt, Ll.; Half hours among some English Antiquities. Fig. 102, Sec. Half hours among English Antiquities by Llewellyn Jewitt.","","Joellen mcGann","https://farm9.staticflickr.com/8581/16079420218_ca3b3edc56_b.jpg","https://www.flickr.com/photos/MicroPasts/16079420218","superuser",0.258,52.2235,"dirkspart2"
"29062","433","Dirk","","Unknown,Submitted to Peterborough Museum - owner wished to remain anonymous.","England,Cambridgeshire,Alwalton,River Nene Bank,Found on 'landward' side of river Nene bank at Alwalton (a); apparently a metal detector find (b)","Alwalton, Cambridgeshire, UK","52.5487397","-0.3313324000000648","c. TL 13 96","None","None","None","","","","","","","","","","8. Single","","a) Pryor, 1978, no. 3,b) Pryor - pers. comm.","SI; CI; SN April 79; Source: R","Joellen mcGann","https://farm8.staticflickr.com/7481/16266956055_e6b1e7829d_b.jpg","https://www.flickr.com/photos/MicroPasts/16266956055","superuser",-0.3313,52.5487,"dirkspart2"
"29063","433","Dirk","E","Ashmolean Museum, Oxford,1927-2338, Evans Collection,(from Litchfield Collection)","England,?Cambridge","Cambridge, Cambridge, UK","52.205337","0.12181699999996454","","None","None","None","128","29","","38.45","Green patina.","Much corroded.","5","","","","","(Not in Ancient Bronze Implements)","","Joellen mcGann","https://farm9.staticflickr.com/8671/15644528564_2cd5400571_b.jpg","https://www.flickr.com/photos/MicroPasts/15644528564","superuser",0.1218,52.2053,"dirkspart2"
