"taskID","userID","objectType","rightCorner","collection","site","toSearch","Lat","Lon","gridRef","dateDiscoveryDay","dateDiscoveryMonth","dateDiscoveryYear","length","width","edge","weight","patina","surface","thickness","other","composition","associations","description","publications","remarks","inputBy","imageURL","flickrURL","Processing","lon","lat","project"
"11040","64","PALSTAVE - CHISEL","A3","REYNOLDS, Mr. - private,'Six Acres', Ivinghoe Aston, Bucks","BUCKINGHAMSHIRE,IVINGHOE,IVINGHOE ASTON,'SIX ACRES',Circumstances: found July/Aug 1976 by Mr. Reynolds in topsoil removed to make the front drive of 'Six Acres' bungalow - adjacent to Beacon Farm;","2 Ashbys Villas, Ivinghoe Aston, Leighton Buzzard, Buckinghamshire LU7 9DH, UK","51.85277182785752","-0.6166860263672334","SP 9535 1805","None","None","1976","","","","","","","","Modern card, fields do not match data entry template., ,","Cu 86, Pb 0.3, Su 12.4, Ag 0.025, Fe 0.04, Sb 0.005, Ni 0.18, As 0.2, Bi 0.01, Co 0.01, Au, Cd, Mr, Zn - nd.","Context: 8. SINGLE","","Bibliog: Farley, 1978, 675 fig. 1 left","Metallurgy Analyst: Craddock - B.M. Res. Lab.,Sub. Inf. Mike Farley, Bucks Co. Mus. 20.10.78","Hugh Fiske","https://farm6.staticflickr.com/5586/14884612989_6c821e2da8_b.jpg","https://www.flickr.com/photos/MicroPasts/14884612989","superuser",-0.6167,51.8528,"flangedchiselsA1"
"11041","64","Bronze Palstave Chicel,Axe-like","A3","British Museum 65.4-18.3","CAMBRIDGESHIRE,,Burwell Fen","Reach Road, Cambridge, Cambridgeshire CB25 0GH, UK","52.26946803252533","0.3144065495605446","TL 58 66","None","None","None","122","Butt 20, Blade 32","","140","black","Rough. Incrusted.","19","","Bronze","","much corroded. butt, blade & one side much broken","","","Hugh Fiske","https://farm6.staticflickr.com/5564/15071316355_a5b6146384_b.jpg","https://www.flickr.com/photos/MicroPasts/15071316355","superuser",0.3144,52.2695,"flangedchiselsA1"
"11042",,,,,,,,,,,,,,,,,,,,,,,,,,,"https://farm4.staticflickr.com/3856/15068288681_3f4351c964_b.jpg",,"merged",,,"flangedchiselsA1"
"11043",,,,,,,,,,,,,,,,,,,,,,,,,,,"https://farm6.staticflickr.com/5594/15068288641_651481af34_b.jpg",,"merged",,,"flangedchiselsA1"
"11044",,,,,,,,,,,,,,,,,,,,,,,,,,,"https://farm4.staticflickr.com/3922/15048311786_b8cd50ffb1_b.jpg",,"merged",,,"flangedchiselsA1"
"11045",,,,,,,,,,,,,,,,,,,,,,,,,,,"https://farm6.staticflickr.com/5584/14884716228_6ce893a397_b.jpg",,"merged",,,"flangedchiselsA1"
"11046","433","Palstave Chisel Axe-Like","","Society of antiquaries,(No. 6),Burlington House W.,Dr. Roots Collection","England,Greater London,Kingston,several feet under gravel + resting nearly 2 ft in blue clay.","Kingston upon Thames, Greater London, UK","51.41233","-0.30068900000003396","","None","None","None","121","22","31","156","Very slt patina, rust colour inside sockets + remains of whitish earth.","Smooth dark brown bronze colour","20","Width: edge 31mm; centre 21.5mm; butt 19mm,Thickness: 19.5mm; 3.5mm,Weight: 155.92 gms","","Close to spot where other implements were found.","Well preserved + a sharp edge.","","Width: edge 31mm; centre 21.5mm; butt 19mm,Thickness: 19.5mm; 3.5mm,Weight: 155.92 gms","Joellen mcGann","https://farm6.staticflickr.com/5566/14884612849_f5a4073515_b.jpg","https://www.flickr.com/photos/MicroPasts/14884612849","superuser",-0.3007,51.4123,"flangedchiselsA1"
"11047","433","Palstave Chisel","A3","Wisbech Museum","England,Huntingdonshire (Cambridgeshire),Ramsey Fen","Ramsey, Cambridgeshire, UK","52.4503619","-0.10846549999996569","","None","None","None","168","18","18","213","No patina","Rough dark green + light brass in patches.","16","Width: edge 17.5mm; middle 20.5mm; butt 18mm,Thickness: 15.5mm; 3mm; 18mm,Weight: 212.61 gms","","","","","","Joellen mcGann","https://farm6.staticflickr.com/5557/14884612779_4c8ba4a3c0_b.jpg","https://www.flickr.com/photos/MicroPasts/14884612779","superuser",-0.1085,52.4504,"flangedchiselsA1"
"11048","433","Flanged Chisel","A3","Skipton, The Craven Museum","England,Lancashire,(Yorkshire West Riding),Barnoldswick,Causeway Carr,Found Jan. 1980 in a field known as Causeway Carr, by Mr. Hirst, 3 Sackville Street, Barnoldswick, just below the surface of the field, using a metal detector (DF).","Barnoldswick, Barnoldswick, Lancashire BB18, UK","53.91301499999999","-2.1869179999999915","SD 8721 4605","None","1","1980","","","","","","","","","","8a. Single Find","","","PRBAF: DF (S); SI,Ext. CI,Rec.: SN March 80,Source: SB. I,Sub. Inf. David Williams, Craven Museum 28/2/80","Joellen mcGann","https://farm6.staticflickr.com/5580/14884670240_2f629f60b6_b.jpg","https://www.flickr.com/photos/MicroPasts/14884670240","superuser",-2.1869,53.913,"flangedchiselsA1"
"11049","433","Haft-Flanged Chisel","A3","London, British Museum, 52.4-3.5","England,Norfolk,Barton Bendish","Barton Bendish, King's Lynn, Norfolk PE33, UK","52.6214299","0.5285169999999653","","None","None","None","105","31","","","","Hammering extensive on two sides as far down as the incurve.","","","","","","","MJR","Joellen mcGann","https://farm4.staticflickr.com/3875/15048311536_01faa0da10_b.jpg","https://www.flickr.com/photos/MicroPasts/15048311536","superuser",0.5285,52.6214,"flangedchiselsA1"
"11050","433","Palstave of Chisel-like Form; Palstave Chisel Axe-Like","A3","Ashmolean Museum, Oxford,Evans Collection, 1927-2687","England,Oxon,Dorchester, near,1873","Dorchester, Dorchester, Dorset, UK","50.7111639","-2.4411810000000287","","None","None","1873","129","19","24","157","Light brown-green patina","","7","Width: edge 24mm; centre 21mm; butt 19mm,Thickness: centre 7mm, 19mm,Weight: 156.85 gms","","","Narrow chisel-like form.","Evans, Anc. Br. Imps., pp. 83-4.","","Joellen mcGann","https://farm6.staticflickr.com/5596/15071316045_406d52c0b4_b.jpg","https://www.flickr.com/photos/MicroPasts/15071316045","superuser",-2.4412,50.7112,"flangedchiselsA1"
"11051","433","Palstave (Chisel?)","","London, Museum O.1186","England,River Thames","River Thames, United Kingdom","51.4917059","0.7321755000000394","","None","None","None","98","22","","","","","","","","","Faint pointed shield design below stop.","","MJR","Joellen mcGann","https://farm4.staticflickr.com/3896/14884670150_35d5fcb579_b.jpg","https://www.flickr.com/photos/MicroPasts/14884670150","superuser",0.7322,51.4917,"flangedchiselsA1"
"11052","433","Palstave Chisel Axe-Like","A3","Fitz Collection 757.76.94,Catalogue of Antiquities, No. 240,Transferred to Ipswich Museum, Oct. 1962,Cat. No. preserved","England,Suffolk,Felixstowe","Felixstowe, Suffolk, UK","51.961726","1.3512550000000374","","None","None","None","138","19","27","176","Greenish patina","","6","Width: edge 27mm; middle 20mm; butt 19mm,Thickness: 6mm; 18mm","","","Semi-elliptical ornament below stop ridge.","","","Joellen mcGann","https://farm4.staticflickr.com/3906/15070954732_55e58953d0_b.jpg","https://www.flickr.com/photos/MicroPasts/15070954732","superuser",1.3513,51.9617,"flangedchiselsA1"
"11053","433","Flanged Chisel","A3","Municipal Museum, Hull","locality unknown","","51.961726","1.3512550000000374","","None","None","None","74","12","19","43","Dull green","Corroded in places.","5","Width: edge 19mm; middle 14mm; butt 12mm,Thickness: 5mm; 13mm,Weight: 42.525 gms","","","Edge sharp but damaged.","","","Joellen mcGann","https://farm6.staticflickr.com/5589/15048311386_7af436bbf5_b.jpg","https://www.flickr.com/photos/MicroPasts/15048311386","superuser",1.3513,51.9617,"flangedchiselsA1"
"11054","433","Palstave Chisel","A3","Collection of Dr. A. Relph,Sold at Sotheby's June 7,1936","?England","England, UK","52.3555177","-1.1743197000000691","","None","None","None","103","","22","","Green and brown patina.","Rough and corroded.","20","","","","Very bad condition, irregular casting. Triangular depression below stop-ridge on each face. Edge quite blunt.","","10 in white paint on blade.","Joellen mcGann","https://farm6.staticflickr.com/5578/15071315905_15e6f6b9dd_b.jpg","https://www.flickr.com/photos/MicroPasts/15071315905","superuser",-1.1743,52.3555,"flangedchiselsA1"
"11055","433","Flanged Chisel","A3","Salisbury, S. Wilts. and Blackmore Museum, Salisbury,112 Goddard","England,Wilts,Bulford (near),Beacon Hill,1878","Beacon Hill, Salisbury, Wiltshire SP4, UK","51.1833333","-1.7166667000000189","","None","None","1878","80","14","20","47","Dark green","","4","Width: edge 20mm; middle 21mm; butt 14mm,Thickness: 4mm; 12mm,Weight: 47.45 gms","","","","","","Joellen mcGann","https://farm4.staticflickr.com/3914/14884761637_7940853e48_b.jpg","https://www.flickr.com/photos/MicroPasts/14884761637","superuser",-1.7167,51.1833,"flangedchiselsA1"
"11056","433","Bronze Palstave Chisel Axe-Like","A3","British Museum, 83.8-2.10","England,Sussex,Bignor,Westburton Hill,1846","Bignor, Pulborough, West Sussex RH20, UK","50.920029","-0.6041400000000294","SU 98 14","None","None","1846","158","16","28","186","Yellow","Slightly pitted.","20","Width: butt 16mm; blade 28mm","Bronze","Perhaps influenced by Narrow type of Nordic Palstave.","Surface worn, ""V"" shape indentation with centre rib below stop ridge. Slight vertical rib on butt.,Rib castin sock on both sides. Warbutron Down near Bigmor, Sussec, 1846 while digging. Rev. J. Beck.","Proc. Soc. Antiq. 2nd Series, Vol. IV, p. 442.158","New drawing available.","Joellen mcGann","https://farm4.staticflickr.com/3900/15070954582_d6a35da212_b.jpg","https://www.flickr.com/photos/MicroPasts/15070954582","superuser",-0.6041,50.92,"flangedchiselsA1"
"11057","433","Palstave Chisel Axe-Like","A3","Lewes Museum,Presented to Sussex Arch. Soc. 1929,(From Weekes Collection, c. 1840)","England,Sussex,Pyecombe,Wolstonbury Hill","Pyecombe, Brighton, West Sussex BN45, UK","50.9010609","-0.17474429999992935","","None","None","None","","","","","Dull green","","","","","","","Evans, Anc. Br. Imps, p. 84,Proc. Soc. Antiq. XXXI, 116, fig. 7 centre,Sussex Arch. Coll. VIII, 284/4","","Joellen mcGann","https://farm6.staticflickr.com/5584/15048310456_c1a06dff34_b.jpg","https://www.flickr.com/photos/MicroPasts/15048310456","superuser",-0.1747,50.9011,"flangedchiselsA1"
"11058","433","Palstave Chisel","A3","British Museum, No No.,(missing 1980),presumably Sloane Collection as other St. Leonard's Hill, 'Windsor' bronzes","England,Berkshire,Clewer Without,St. Leonard's Hill","Clewer, Windsor, Windsor and Maidenhead SL4, UK","51.485","-0.6269999999999527","c. SU 93 75","None","None","None","138","15","22","140","Brown","Rather flaked especially towards edge.","5","Width: edge 22mm; middle 17mm; butt 15mm,Thickness: 5mm; 18mm,Weight: 139.65 gms","","1a. Hoard","Shield decoration below stop.","Soc. of ants. MS 265, f. 12,Shikeley 1776, 96, 2d,possibly Du Noyer, 1847, 4 fig. D,Lost 1979, pl CIII, no. 13.,Soc. of Ants. MS 700 (way MSS) f. 9113","AFI; SI; CI","Joellen mcGann","https://farm6.staticflickr.com/5559/15068287431_8d97204b16_b.jpg","https://www.flickr.com/photos/MicroPasts/15068287431","superuser",-0.627,51.485,"flangedchiselsA1"
"11059","433","Palstave Chisel","A3","Aylesbury, Bucks Co. Museum, 86.24","England,Buckinhamshire,between High Wycombe and West Wycombe","3 Fryers Lane, High Wycombe, Buckinghamshire HP12 3AN, UK","51.63777422509215","-0.7751798361816782","c. SU 8546 9394","None","None","None","","","","","","Corroded","","","","","","Farley 1978, 675-6, fig. 1 right","See new index","Joellen mcGann","https://farm4.staticflickr.com/3859/14884611049_aeab8f8c4f_b.jpg","https://www.flickr.com/photos/MicroPasts/14884611049","superuser",-0.7752,51.6378,"flangedchiselsA1"
