"taskID","userID","objectType","rightCorner","collection","site","toSearch","Lat","Lon","gridRef","dateDiscoveryDay","dateDiscoveryMonth","dateDiscoveryYear","length","width","edge","weight","patina","surface","thickness","other","composition","associations","description","publications","remarks","inputBy","imageURL","flickrURL","Processing","lon","lat","project"
"40087","433","Socketed Chisel","","Herts Cty. Museum, St. Albans,Ball Collection","Austria","Austria","47.516231","14.550072","","None","None","None","102","socket 19","8","63.78","patches of bronzey patina","smooth, slight encrustation","socket 17","","","","","","","Joellen mcGann","https://www.flickr.com/photos/115096994@N02/18154782720","https://farm8.staticflickr.com/7755/18154782720_ca3213d477_m.jpg","superuser",14.5501,47.5162,"ForeignTools"
"40088","433","Sickle","","Herts. Cty. Mus., St. Albans,Ball Collection","Austria","Austria","47.516231","14.550072","","None","None","None","170","135.5; blade 42.5, 23.5, 44","","205.52","Dull green matt","Smooth","blade 8, 6, 6.5","","","","At X the blade curves so that this point is 10mm above plane.","","","Joellen mcGann","https://www.flickr.com/photos/115096994@N02/18342527265","https://farm8.staticflickr.com/7745/18342527265_6e3002684f_m.jpg","superuser",14.5501,47.5162,"ForeignTools"
"40089","433","Sickle","","Herts. Cty. Museum, St. Albans,Ball Collection","Austria","Austria","47.516231","14.550072","","None","None","None","173.5","113; blade 32, 37, 21","","134.65","dull green matt","encrusted","3.5, 3","","","","","","","Joellen mcGann","https://www.flickr.com/photos/115096994@N02/18343977661","https://farm8.staticflickr.com/7751/18343977661_43686097d7_m.jpg","superuser",14.5501,47.5162,"ForeignTools"
"40090","433","Sickle","","Herts. Cty. Mus., St. Albans,Ball Collection","Austria","Austria","47.516231","14.550072","","None","None","None","155","100.5; blade 33, 23","","141.75","Dull green matt","Smooth","blade 6.5, 4; tang 5, 3","","","","","","","Joellen mcGann","https://www.flickr.com/photos/115096994@N02/18156321479","https://farm9.staticflickr.com/8803/18156321479_1e7cd51389_m.jpg","superuser",14.5501,47.5162,"ForeignTools"
"40091","433","Sickle","","Herts. Cty. Mus., St. Albans,Ball Collection","Austria","Austria","47.516231","14.550072","","None","None","None","192","136; blade 42, 45, 28.5","","233.88","Green","Smooth","7, 4, 2.5, 4.5","","","","The end of blade is 16mm from plane, owing to curvature.","","","Joellen mcGann","https://www.flickr.com/photos/115096994@N02/18343976931","https://farm1.staticflickr.com/457/18343976931_8ac288d855_m.jpg","superuser",14.5501,47.5162,"ForeignTools"
"40092","433","Knife","","Royal Scottish Museum, Edinburgh,Reg. No. 1894.192","Central Europe","Central Europe","50.3784723","14.97059820000004","","None","None","None","235","30; butt 19","","124","Dark green patina","Well preserved","19; 1","","","","Knife, bronze: recurved + pointed blade, round socket; hatched ornament.","","","Joellen mcGann","https://www.flickr.com/photos/115096994@N02/18154670478","https://farm8.staticflickr.com/7752/18154670478_f63812d482_m.jpg","superuser",14.9706,50.3785,"ForeignTools"
"40093","433","Horse Bit","","Private Collection,11.4.24 (at S. of A),Capt. W. H. Murray","China","China","35.86166","104.19539699999996","","None","None","None","106, 109","rings 57 x 40; centre 26","","290","Polished patina mottled medium green. A patch (where shaded on linked ring) of dark red-brown patina + fawn coloured earth. A similar patch on other side of the other ring.","Smooth. Golden bronze shows on the square edges.","12, 12.25, 9.5","","","","The large rings are oval in section + the linked rings are round. The bars are crudely round.","","","Joellen mcGann","https://www.flickr.com/photos/115096994@N02/18343976821","https://farm9.staticflickr.com/8848/18343976821_46558f19be_m.jpg","superuser",104.1954,35.8617,"ForeignTools"
"40094","433","Chisel","","Pitt Rivers Museum, Farnham","Cyprus,Nicosia","Nicosia","35.166667","33.36666700000001","","None","None","None","162","below middle 17; end 8","15","141.75","Green + dark bronze","Rough","12","","","","Edge slightly indented","","","Joellen mcGann","https://www.flickr.com/photos/115096994@N02/17721856173","https://farm8.staticflickr.com/7743/17721856173_0e1eef179d_m.jpg","superuser",33.3667,35.1667,"ForeignTools"
"40095","433","Socketed Chisel","","Sold at Sotheby's, 23rd July 1926, Lot 460,Owner unknown","Cyprus","Cyprus","35.126413","33.429858999999965","","None","None","None","112","socket 14; edge 8.75","","","Dirty dark green + a drab coloured soil adheres.","Fairly smooth","socket 14.75","","","","","","Two items of this lot not drawn, one a bell + the other an ornament.","Joellen mcGann","https://www.flickr.com/photos/115096994@N02/17721855903","https://farm1.staticflickr.com/512/17721855903_1985d5d193_m.jpg","superuser",33.4299,35.1264,"ForeignTools"
"40096","433","Tweezers","","Sold at Sotheby's, 23rd July 1926, Lot 460,owner unknown","Cyprus","Cyprus","35.126413","33.429858999999965","","None","None","None","84","","16.5","","Some dark green patina shows.","Rough. Earth encrusted all over + some light green powdery corrosion","","","","","","","Two items of this lot not drawn, one a bell + the other an ornament.","Joellen mcGann","https://www.flickr.com/photos/115096994@N02/17719895014","https://farm8.staticflickr.com/7753/17719895014_8293cf2a03_m.jpg","superuser",33.4299,35.1264,"ForeignTools"
"40097","433","Sickle","","Pitt Rivers Museum,Farnham","Czecho-Slovakia,Moravia,Boskowitz (label)","Boskovice, Czech Republic","49.4875115","16.659976099999994","","None","None","None","180","blade 12, 33, 27","","113.39","Green","Rough","","","","","","","","Joellen mcGann","https://www.flickr.com/photos/115096994@N02/18154669728","https://farm9.staticflickr.com/8791/18154669728_c09e127903_m.jpg","superuser",16.66,49.4875,"ForeignTools"
"40098","433","Socketed Hammer","","Farnham Museum, Dorset","R. Danube","Danube","46.6661353","18.976064199999996","","None","None","None","80","37, 35","","255.15","Green","Rough","29, 26","","","","","","","Joellen mcGann","https://www.flickr.com/photos/115096994@N02/18154669598","https://farm8.staticflickr.com/7750/18154669598_1492eafefb_m.jpg","superuser",18.9761,46.6661,"ForeignTools"
"40099","433","Awl","","Nationalmuseet, Copenhagen,No. B 8390","Denmark,Festykke H.,Stenlose S.","3660 Stenløse, Denmark","55.76861599999999","12.198309999999992","","None","None","None","48.75","rod 1.50; hammered centre 2.75","","1","","","","","","","Bronze pin slightly flattened in centre.","","","Joellen mcGann","https://www.flickr.com/photos/115096994@N02/18342525455","https://farm8.staticflickr.com/7796/18342525455_597d492685_m.jpg","superuser",12.1983,55.7686,"ForeignTools"
"40100","433","","","Nationalmuseet, Copenhagen,No. B3886","Denmark,Stovring H.,Harritsten S","9530 Støvring, Denmark","56.8881242","9.830045400000017","","None","None","None","304","base 48.5; shaft 27 (drawn as 25)","","648","","","11.5","","","","The whole object is slightly bent. Just below hook + bar is a hole. Double band of herringbone pattern extends whole length of shaft.","","Cf. No. B 3885","Joellen mcGann","https://www.flickr.com/photos/115096994@N02/18156320059","https://farm9.staticflickr.com/8865/18156320059_d17b253dc0_m.jpg","superuser",9.83,56.8881,"ForeignTools"
"40101","433","2 (one drawn)","","Nationalmuseet, Copenhagen,No. B 3885 (1) + (2)","Denmark,Stovring H.,Harritslen S.","9530 Støvring, Denmark","56.8881242","9.830045400000017","","None","None","None","","","","(1) 1318; (2) 890","","","","","","","2 objects, similar in every detail, except weight. End solid. Both corroded. 3 large perforations in shafts. Herringbone band round side rim below hook.","","Cf. No. B3886","Joellen mcGann","https://www.flickr.com/photos/115096994@N02/18154669118","https://farm9.staticflickr.com/8883/18154669118_402d55ddec_m.jpg","superuser",9.83,56.8881,"ForeignTools"
"40102","433","Knife","","Peabody Museum,Harvard University,4696,Cambridge, Mass.,Received by purchase 1868,Collected by Wilmot J. Rose.","Denmark,Jutland,Osterbo","Jutland, 6040 Egtved, Denmark","55.62954999999999","9.20105000000001","","None","None","None","97","blade 18; handle 14","","","light green","Somewhat corroded at point.","4.5 tapering down","","","","(Broken and sewn on card)","","","Joellen mcGann","https://www.flickr.com/photos/115096994@N02/18343975991","https://farm8.staticflickr.com/7782/18343975991_6676d2a82b_m.jpg","superuser",9.2011,55.6295,"ForeignTools"
"40103","433","Twisted Gold Wire (2 pieces)","","Nationalmuseet, Copenhagen,No. 13 (1) + (2)","Denmark?,No provenance listed.","Denmark","56.26392","9.50178500000004","","None","None","None","","(1) Diameter of wire about 1mm, of coil c. 14mm; (2) similar, but with 1 twist less","","Approximate (1) 3 gr; (2) 2 gr","","","","","Gold","","Twisted wire","","Not drawn,Cf. No. B 8389, Bronze Ring","Joellen mcGann","https://www.flickr.com/photos/115096994@N02/18154780090","https://farm1.staticflickr.com/445/18154780090_be131555af_m.jpg","superuser",9.5018,56.2639,"ForeignTools"
"40104","433","Pin","","Nationalmuseet, Copenhagen,No. B 9611","Denmark,Skippinge H.,Breynivge S.","4534 Skippinge, Denmark","55.740289","11.399380000000065","","None","None","None","143","head 17.5","","26","","","","","","","Bronze pin with hollow spherical head, perforated.","Illustrated by Sophus Muller ""Oldtidens Kimst Bronzegealeren,"" p. 3, fig., 13.","","Joellen mcGann","https://www.flickr.com/photos/115096994@N02/17721854883","https://farm8.staticflickr.com/7790/17721854883_dde93e1ab5_m.jpg","superuser",11.3994,55.7403,"ForeignTools"
"40105","433","Pin","","National Museet, Copenhagen,No. B 6229","Denmark,Zealand,Fredriksborg,Lynge H.,Grose S.","3540 Lynge, Denmark","55.8410507","12.282758899999976","","None","None","None","67","head 20","","24","","","","","Bronze","","Hollow headed pin; spherical top. No decoration. Item broken half way down.","","","Joellen mcGann","https://www.flickr.com/photos/115096994@N02/18338521542","https://farm8.staticflickr.com/7737/18338521542_3dfd411a8a_m.jpg","superuser",12.2828,55.8411,"ForeignTools"
"40106","433","Pin + other fragments","","Nationalmuseet, Copenhagen,No. A 5158","Denmark,Jutland,Randers Nr. H,Eusler","Randers, Denmark","56.460584","10.036538999999948","","None","None","None","33","19 (head)","","8","","","","","","","Corroded fragments of a pin - ?holed spherical-headed type.","See Aorboger 1866, 20f.","","Joellen mcGann","https://www.flickr.com/photos/115096994@N02/18156319099","https://farm8.staticflickr.com/7785/18156319099_f74f0a755e_m.jpg","superuser",10.0365,56.4606,"ForeignTools"
"40107","433","Razor?","","Nationalmuseet, Copenhagen,No. B7698","Denmark,Zealand,Sjaelland,Horns H.,Gjorler S.","Zealand, Denmark","55.4632518","11.721497900000031","","None","None","None","80","15","","7","","","","","","","Plain bronze razor?","","","Joellen mcGann","https://www.flickr.com/photos/115096994@N02/18316075266","https://farm9.staticflickr.com/8811/18316075266_f07b6119c7_m.jpg","superuser",11.7215,55.4633,"ForeignTools"
"40108","433","Knife Blade","","Horniman Museum,Forest Hill, SE,bought","Denmark","Denmark","56.26392","9.50178500000004","","None","None","None","62","10","","3.7","Emerald green patina","Smooth","about 1mm; looped end about 1.5mm","","","","","","","Joellen mcGann","https://www.flickr.com/photos/115096994@N02/18156318799","https://farm8.staticflickr.com/7771/18156318799_4fa59401ab_m.jpg","superuser",9.5018,56.2639,"ForeignTools"
"40109","433","Knife Blade","","Horniman Museum,Forest Hill, Se,bought","Denmark","Denmark","56.26392","9.50178500000004","","None","None","None","69","9 blade; 3 stem","","3.2","emerland green patina","slightly pitted","1","","","","","","","Joellen mcGann","https://www.flickr.com/photos/115096994@N02/18156318589","https://farm8.staticflickr.com/7787/18156318589_9ff42299dc_m.jpg","superuser",9.5018,56.2639,"ForeignTools"
"40110","433","Razor","","Pitt Rivers Museum, Farnham","Denmark","Denmark","56.26392","9.50178500000004","","None","None","None","94","blade 21, 21.5; tang 6","","7.08","Green","Rough","","","","","","","","Joellen mcGann","https://www.flickr.com/photos/115096994@N02/18343974341","https://farm8.staticflickr.com/7742/18343974341_f10047b640_m.jpg","superuser",9.5018,56.2639,"ForeignTools"
"40111","433","Razor","","Peabody Museum,Harvard University,4695,Cambridge, Mass.,Rec.d by purchase 1868,Collected by Wilmot J. Rose","Denmark,Jutland","Denmark","56.26392","9.50178500000004","","None","None","None","97","blade 25","","","Dark, with a little carbonate","","1","","","","","","","Joellen mcGann","https://www.flickr.com/photos/115096994@N02/18343974251","https://farm8.staticflickr.com/7749/18343974251_2d812ab3e1_m.jpg","superuser",9.5018,56.2639,"ForeignTools"
"40112","433","Razor","","Peabody Museum,Harvard University,16508,Cambridge, Mass.,Received Decem. 1878,Collected by Clarence B. Moore","Denmark","Denmark","56.26392","9.50178500000004","","None","None","None","55","blade 15","","","green on face, reverse - iron-like with a little verdigris on edge","smooth","2; blade less than 1mm thick","","","","","","","Joellen mcGann","https://www.flickr.com/photos/115096994@N02/18338520522","https://farm9.staticflickr.com/8896/18338520522_70cb551c0b_m.jpg","superuser",9.5018,56.2639,"ForeignTools"
"40113","433","Razor Blade","","Brighton Museum,Pres. by H. Willett, Esq. FSA","Denmark","Denmark","56.26392","9.50178500000004","","None","None","None","71","14.5","","6.5","dull dark green patina","smooth","2","","","","","","","Joellen mcGann","https://www.flickr.com/photos/115096994@N02/18343974031","https://farm9.staticflickr.com/8825/18343974031_79d15cf2d8_m.jpg","superuser",9.5018,56.2639,"ForeignTools"
"40114","433","Razor Blade","","Brighton Museum,Pres. by  H. Willett Esq., FSA","Denmark","Denmark","56.26392","9.50178500000004","","None","None","None","77","24.5","","12.40","dull dark green patina","Smooth","1.5","","","","","","","Joellen mcGann","https://www.flickr.com/photos/115096994@N02/18338520152","https://farm1.staticflickr.com/441/18338520152_fb4f07227a_m.jpg","superuser",9.5018,56.2639,"ForeignTools"
"40115","433","Razor Blade","","Brighton Museum,Presented by H. Willett Esq. FSA","Denmark","Denmark","56.26392","9.50178500000004","","None","None","None","74","11.5","","6.4","Dull dark green patina","Rough, slightly encrusted.","1","","","","","","","Joellen mcGann","https://www.flickr.com/photos/115096994@N02/17719892364","https://farm9.staticflickr.com/8858/17719892364_2dd71aef1a_m.jpg","superuser",9.5018,56.2639,"ForeignTools"
"40116","433","Sickle","","Museum of Archaeology + Ethnology,Read Gift","Denmark,Sylland (Jutland),Tylland","Jutland, 6040 Egtved, Denmark","55.62954999999999","9.20105000000001","","None","None","None","125","25","","42.52","dark green matt","smooth","5, 2.5, 13","","","","","","","Joellen mcGann","https://www.flickr.com/photos/115096994@N02/18342522595","https://farm9.staticflickr.com/8787/18342522595_d2e98d74a7_m.jpg","superuser",9.2011,55.6295,"ForeignTools"
"40117","433","Tweezers","","Peabody Museum,4688,Harvard University,Cambridge, Mass,Received by purchase 1868,Collected by Wilmot J. Rose","Denmark,Jutland","Jutland, 6040 Egtved, Denmark","55.62954999999999","9.20105000000001","","None","None","None","70","where bent over 4","22","","dark green patina with worn patch, much scratched","","","","","","","","","Joellen mcGann","https://www.flickr.com/photos/115096994@N02/18342522485","https://farm1.staticflickr.com/336/18342522485_5598a2cd7b_m.jpg","superuser",9.2011,55.6295,"ForeignTools"
"40118","433","Tweezers","","Horniman Museum,Forest Hill, SE,Bought from Back house Collection","Denmark","Denmark","56.26392","9.50178500000004","","None","None","None","49","16","","7.08","Very little emerald green patina","Mostly smooth brownish or golden bronze colour",".45","","Bronze","","","","","Joellen mcGann","https://www.flickr.com/photos/115096994@N02/18154666618","https://farm8.staticflickr.com/7748/18154666618_f29922f5b8_m.jpg","superuser",9.5018,56.2639,"ForeignTools"
"40119","433","Chisel","","Private Collection,Late Lord Amherst of Hackney, FSA,Sotheby's 17.vi.21, Lot 827","Egypt,City of Akhenaten (Tell el Amarna)","Amarna, Tall Bani Omran, Deir Mawas, Menia Governorate, Egypt","27.661667","30.905555999999933","","None","None","None","59","edge 8; tang 4","tang 4","4.65","medium green patina mixed with encrustment of tiny stones","rough + encrusted all over","","","","","","","Discovered by Lord Amherst 1891/2","Joellen mcGann","https://www.flickr.com/photos/115096994@N02/18316073026","https://farm1.staticflickr.com/362/18316073026_00ed65a865_m.jpg","superuser",30.9056,27.6617,"ForeignTools"
"40120","433","Chisel","","Private Collection,late Lord Amherst of Hackney, FSA,Sotheby's 17.vi.21, Lot 827","Egypt,City of Akhenaten (Tell el Amarna)","Amarna, Tall Bani Omran, Deir Mawas, Menia Governorate, Egypt","27.661667","30.905555999999933","","None","None","None","64","tang 4","9.25","4.65","partly covered with a greyish green patina which is inclined to be rough","Fairly smooth - partly a dark brown bronze colour","blade 2.5; tang 1.75","","","","","","Discovered by Lord Amherst 1891/2","Joellen mcGann","https://www.flickr.com/photos/115096994@N02/18154666358","https://farm1.staticflickr.com/328/18154666358_248009dee8_m.jpg","superuser",30.9056,27.6617,"ForeignTools"
"40121","433","Sculptor's Chisel","","Private Collection,D. Sams Esq., Late of Luxor, Egypt,Sotheby's, 23.v.21, Lot 45","Egypt,Thebes","Luxor, Luxor City, Luxor, Luxor Governorate, Egypt","25.6872431","32.639635699999985","","None","None","None","41","5.5, 6.4 (widest)","","3.1","","Very slightly encrusted with emeralg green colour - one side is a reddish brown as if subjected to fire.","1.75 + slt. over 2 at the edge","","","15 chisels and 3 scrapers found wrapped together in a tomb at Thebes.","","","","Joellen mcGann","https://www.flickr.com/photos/115096994@N02/18154777430","https://farm1.staticflickr.com/366/18154777430_f017d528c9_m.jpg","superuser",32.6396,25.6872,"ForeignTools"
"40122","433","Sculptor's Chisel","","Private Collection,D. Ams Esq, late of Luxor, Egypt,Sotheby's, 23.v.21, Lot 45","Egypt,Thebes","Luxor, Luxor City, Luxor, Luxor Governorate, Egypt","25.6872431","32.639635699999985","","None","None","None","45","haft 7","9.5","3.87","light greenish patina with soil lightly encrusted on","a little rough",".75 at edge + nearly 3mm at point of haft","","","15 chisels + 3 scrapers found wrapped together in a tomb at Thebes.","","","","Joellen mcGann","https://www.flickr.com/photos/115096994@N02/18343972731","https://farm1.staticflickr.com/376/18343972731_e4b428af2f_m.jpg","superuser",32.6396,25.6872,"ForeignTools"
"40123","433","Sculptor's Chisel","","Private Collection,D. Sams Esq, late of Luxor, Egype,Sotheby's 23.v.21, Lot 45","Egypt,Thebes","Luxor, Luxor City, Luxor, Luxor Governorate, Egypt","25.6872431","32.639635699999985","","None","None","None","58.5","7, 7.5 tapering to a point","","5.42","dark emerald green patina on one side + dark red brown rust colour on the other, with a little dark green patina at the end.","a little rough","1 + slt over 1.5","","","15 chisels + 3 scrapers found wrapped together in a Tomb at Thebes","","","One of 3 - all similar - ther others measure 54.5 x 7 + 55 x 6.5 + 6","Joellen mcGann","https://www.flickr.com/photos/115096994@N02/17719891014","https://farm9.staticflickr.com/8763/17719891014_c623988cc0_m.jpg","superuser",32.6396,25.6872,"ForeignTools"
"40124","433","Chisel","","Private Collection,D. Sams, Esq., late of Luxor, Egypt,Sotheby's 23/v/21, Lot 45","Egypt,Thebes","Luxor, Luxor City, Luxor, Luxor Governorate, Egypt","25.6872431","32.639635699999985","","None","None","None","72.5","","14.5","6.5","","surface is covered with a slight encrustment of emerald + a lighter green, with rust colour showing beneath","about 1 1/2 at thickets part + tapering to an edge","","","15 chisels + three scrapers - found wrapped together in a Tomb at Thebes","","","This is one of 9 - all practically the same shape and size.","Joellen mcGann","https://www.flickr.com/photos/115096994@N02/18338518812","https://farm9.staticflickr.com/8895/18338518812_30afe8b221_m.jpg","superuser",32.6396,25.6872,"ForeignTools"
"40125","433","Blade, curved","","Sotheby's Sale, 20th May, 1930, Lot No. 2","Egypt","Egypt","26.820553","30.802498000000014","","None","None","None","385","33","","","","","4","","","","Curved blade, pierced with 6 small holes along back side for attachment to a shaft, probably from a battle-axe.","","","Joellen mcGann","https://www.flickr.com/photos/115096994@N02/18316072006","https://farm8.staticflickr.com/7775/18316072006_7233eedaf1_m.jpg","superuser",30.8025,26.8206,"ForeignTools"
"40126","433","Fish hooks","","Private Collection,Late Lord Amherst of Hackney, FSA,Sotheby's 17.vi.21, Lot 827","Egypt,City of Akhenaten (Tell el Amarna)","Amarna, Tall Bani Omran, Deir Mawas, Menia Governorate, Egypt","27.661667","30.905555999999933","","None","None","1891","A. 39.5; B. 38","A. 15.5; B. 17","","A: 1.94; B. 1.55","","Both rather rough through corrosion, with fine soil in a sort of encrustment all over.","","","","","These were probably made of round wire hammered a little flat. The curled end for fastening is corroded solid on each.","","Discovered by Lord Amherst in 1891/2.","Joellen mcGann","https://www.flickr.com/photos/115096994@N02/17721851413","https://farm9.staticflickr.com/8869/17721851413_82a75e00aa_m.jpg","superuser",30.9056,27.6617,"ForeignTools"
"40127","433","Fishing Spear","","Pitt Rivers Museum, Farnham","Egypt,Kourneh","Tall al Qurnah, Abu Diab Sharq, Deshna, Qena Governorate, Egypt","26.2","32.53333329999998","","None","None","None","147","7, 9, 14","","14.17","","Smooth bronze","","","","","Edge smooth","","","Joellen mcGann","https://www.flickr.com/photos/115096994@N02/18342520835","https://farm1.staticflickr.com/433/18342520835_048bdd15d4_m.jpg","superuser",32.5333,26.2,"ForeignTools"
"40128","433","Horse Bit","","Private Collection,Late Lord Amherst of Hackney, FSA,Sotheby's 17.vi.21, Lot 827","Egypt,City of Akhenaten (Tell el Amarna)","Amarna, Tall Bani Omran, Deir Mawas, Menia Governorate, Egypt","27.661667","30.905555999999933","","None","None","1891","90","31, 14, 7.5","","53.15","","Rough green encrusted surface of various shades - light blue at one end + traces of light brown earth here and there.","7, 6.5","","","","","","Discovered by Lord Amherst 1891/2","Joellen mcGann","https://www.flickr.com/photos/115096994@N02/18316071436","https://farm8.staticflickr.com/7762/18316071436_31a3eda6cd_m.jpg","superuser",30.9056,27.6617,"ForeignTools"
"40129","433","Nail","","Private Collection,Late Lord Amherst of Hackney, F.S.A.,Sotheby's 17.vi.21, Lot 827","Egypt,City of Akhenaten (Tell el Amarna)","Amarna, Tall Bani Omran, Deir Mawas, Menia Governorate, Egypt","27.661667","30.905555999999933","","None","None","1891","67","head 9; stem 4","3","8.52","Covered with a dull matte light green patina with traces of earth practically all over.","Fairly smooth","head 8; stem 4","","","","","","Discovered by Lord Amherst 1891/2.","Joellen mcGann","https://www.flickr.com/photos/115096994@N02/18154776150","https://farm1.staticflickr.com/531/18154776150_d82e870fd3_m.jpg","superuser",30.9056,27.6617,"ForeignTools"
"40130","433","Nail","","Private Collection,late Lord Amherst of Hackney, FSA,Sotheby's 17.vi.21, Lot 827","Egypt,City of Akhenaten (Tell el Amarna)","Amarna, Tall Bani Omran, Deir Mawas, Menia Governorate, Egypt","27.661667","30.905555999999933","","None","None","1891","59.5","stem 3.5","","nearly 5","Covered with a smooth light blue powdery patina","Smooth - + a little light green encrustment, more especially at the head.","stem 3.5","","","","","","Discovered by Lord Amherst 1891/2","Joellen mcGann","https://www.flickr.com/photos/115096994@N02/18154775940","https://farm1.staticflickr.com/509/18154775940_978a954f2b_m.jpg","superuser",30.9056,27.6617,"ForeignTools"
"40131","433","Nail","","Private Collection,Late Lord Amherst of Hackney, FSA,Sotheby's 17.vi.21, Lot 827","Egypt,City of Akhenaten (Tell el Amarna)","Amarna, Tall Bani Omran, Deir Mawas, Menia Governorate, Egypt","27.661667","30.905555999999933","","None","None","1891","48","head 7.5, 6.25; point end 3","","7.9","Covered with a light greyish green patina which has a matte surface.","Fairly smooth - traces of light earth","head 7, 5.5; point end 2.75","","","","","","Discovered by Lord Amherst, 1891/2","Joellen mcGann","https://www.flickr.com/photos/115096994@N02/18154775780","https://farm8.staticflickr.com/7753/18154775780_44c2b4e2f1_m.jpg","superuser",30.9056,27.6617,"ForeignTools"
"40132","433","Stylus","","Private Collection,of Late Lord Amherst of Hackney, FSA,Sotheby's 17.vi.21, Lot 827","Egypt,City of Akhenaten (Tell el Amarna)","Amarna, Tall Bani Omran, Deir Mawas, Menia Governorate, Egypt","27.661667","30.905555999999933","","None","None","1891","A 147; B 42.5; C 160","A 3.5, 5; B 4.5 to 5; C 3 to 5.5","","A 12.4; B 1; C 15.5","","A. Rough all over + a patina of greyish green which is rough as through soil is encrusted with it + whitish patches. B. Slightly rough through corrosion, which is thin - but nearly coveres the surface. Light greyish green patina. C. Rough nearly all over - caused by soil encrusted with a patina of greyish green. This is chipped off where thin near point, showing a dark brown coppery surface.","","","","","A. Not quite round at thickest end, but the pointed end is practically round. B.  Is hollow, although the others seem to be solid. C. Has a coppery appearance.","","Discovered by Lord Amherst 1891/2","Joellen mcGann","https://www.flickr.com/photos/115096994@N02/18156314919","https://farm9.staticflickr.com/8805/18156314919_02eaa00266_m.jpg","superuser",30.9056,27.6617,"ForeignTools"
"40133","433","Needles","","Private Collection,Late Lord Amherst of Hackney, FSA,Sotheby's 17.vi.21, Lot 827","Egypt,City of Akhenaten (Tell el Amarna)","Amarna, Tall Bani Omran, Deir Mawas, Menia Governorate, Egypt","27.661667","30.905555999999933","","None","None","1891","A 43.5; B 102.5","","","A 1.17; B 1.98","A. A matte light green patina; B. light green patina","A. smooth with traces of encrustment. B. smooth + slightly encrusted.","A about 1 3/4; B. 2 to 2.5","","","There are 11 others, much about the same size of the larger one, although some are broken about half way + nearly all have broken eyes (they measure from 73 to 121).","A. seems to be complete and is well preserved, but the point is missing from B. They are round in section except where the eye is + here they are oval.","","Discovered by Lord Amherst 1891/2","Joellen mcGann","https://www.flickr.com/photos/115096994@N02/18154664058","https://farm9.staticflickr.com/8880/18154664058_9b54c63417_m.jpg","superuser",30.9056,27.6617,"ForeignTools"
"40134","433","Razor","","Private Collection,late Lord Amherst of Hackney, FSA,Sotheby's 17.vi.21, Lot 827","Egypt,City of Akhenaten (Tell el Amarna)","","27.661667","30.905555999999933","","None","None","1891","75","blade 16.5","","slt. under (4 dwt) 6.25 gms","The rougher side has a mottled green patina with patches of light earth, the smoother side has a lighter green dull patina.","One side is rougher than the other owing to slight encrustment","blade - under 1; thickest part of back piece on blade 5","","","Discovered by Lord Amherst 1891/2","Blade is strengthened by a piece of tubular bronze riveted to the back edge.","","","Joellen mcGann","https://www.flickr.com/photos/115096994@N02/18154775340","https://farm1.staticflickr.com/433/18154775340_6f2a1fd61f_m.jpg","superuser",30.9056,27.6617,"ForeignTools"
"40135","433","Razor","","Sotheby's Sale, 20.v.30, Lot 5","Egypt","Egypt","26.820553","30.802498000000014","","None","None","None","150","blade 16; butt 18","","","","","2","","","","","Sotheby's Catalogue, 20.v.30, p. 4","","Joellen mcGann","https://www.flickr.com/photos/115096994@N02/18154775060","https://farm1.staticflickr.com/426/18154775060_8ff31dbbab_m.jpg","superuser",30.8025,26.8206,"ForeignTools"
"40136","433","Knife Blade","","Private Collection,late Lord Amherst of Hackney, FSA,Sotheby's 17.vi.21, Lot 827","Egypt,City of Akhenaten (Tell el Amarna)","Amarna, Tall Bani Omran, Deir Mawas, Menia Governorate, Egypt","27.661667","30.905555999999933","","None","None","1891","104","blade 26; tang 6, 2.5","","8.52","A roughish patina of green mottled with a light greenish white on one side over the green surface.","Rough practically all over (earth encrusted on).","blade 1.5; tang 5.5, 2","","","","Blade is broken near the point.","","Discovered by Lord Amherst 1891/2.","Joellen mcGann","https://www.flickr.com/photos/115096994@N02/18338517222","https://farm9.staticflickr.com/8766/18338517222_de92e072ac_m.jpg","superuser",30.9056,27.6617,"ForeignTools"
"40137","433","Knife Blade","","Private Collection,Late Lord Amherst of Hackney, FSA,Sotheby's 17.vi.21, Lot 827","Egypt,City of Akhenaten (Tell el Amarna)","Amarna, Tall Bani Omran, Deir Mawas, Menia Governorate, Egypt","27.661667","30.905555999999933","","None","None","1891","76","28","","10.85","","One side is completely encrusted with a rough pale earthy green + the other side is black except for parts near the edge where there is an ecncrustment + soil mixed.","Less than 2mm thick. The thickness cannot really be determined because of the encrustment.","","","","Very coppery in appearance. Quite flat in section.","","Discovered by Lord Amherst 1891/2","Joellen mcGann","https://www.flickr.com/photos/115096994@N02/18338516392","https://farm9.staticflickr.com/8891/18338516392_96323ba294_m.jpg","superuser",30.9056,27.6617,"ForeignTools"
"40138","433","Knife","","Private Collection,D. Sams Esq., late of Luxor, Egypt,(Sotheby's 23.v.21, Lot 46)","Egypt,Thebes + Karnak","Karnak, El-Karnak, Luxor, Luxor Governorate, Egypt","25.7188346","32.65727029999994","","None","None","None","92.5","blade 11","","8.5","The blade is not covered with patina, but is chiefly a red coppery colour. The remainder a slightly rough dull dark green colour + rather corroded.","fairly smooth","blade 1.75","","","","","","","Joellen mcGann","https://www.flickr.com/photos/115096994@N02/18154774890","https://farm1.staticflickr.com/367/18154774890_813432c04c_m.jpg","superuser",32.6573,25.7188,"ForeignTools"
"40139","433","Knife","","Private Collection,D. Sams, Esq., Late of Luxor, Egypt,(Sotheby's 23.v.21, Lot. No. 46)","Egypt,Thebes + Karnak,Karnak","Karnak, El-Karnak, Luxor, Luxor Governorate, Egypt","25.7188346","32.65727029999994","","None","None","None","124","blade - nearly 17.5; tang 6, 3.25","","20.15 (slightly under 13 Dwt)","A light green corroded patina with tiny pieces of stone encrusted in it.","A little rough","tang nearly 4 (thickest); blade 3","","","","The tang is rectangular in section + on both sides. Traces of hafting (wood) remains. The sketch shows a mid-rib on blade, but this is very indistinct owing to heavy corrosion.","","","Joellen mcGann","https://www.flickr.com/photos/115096994@N02/17721849233","https://farm1.staticflickr.com/471/17721849233_8640d6000b_m.jpg","superuser",32.6573,25.7188,"ForeignTools"
"40140","433","Tool for Cutting Leather Probably XVIII Dyny.","","Private,J.B.Williams, Esq.,Bolforgan, Kerry, Montgomery","Egypt,Abydos,Miss Murray's Excavations","Abydos, Qesm Al Wahat Al Khargah, New Valley Governorate, Egypt","26.1837366","31.92272879999996","","None","None","None","139.5","","21","17.72","Brown patina, with red stains + purplish film under corrosion","Sandy blue-green + red corrosion","1","Weight: 5/8 oz. = 17.72 gms","Bronze","","","","","Joellen mcGann","https://www.flickr.com/photos/115096994@N02/18343969791","https://farm1.staticflickr.com/310/18343969791_314b696a41_m.jpg","superuser",31.9227,26.1837,"ForeignTools"
"40141","433","Knife Blade","","Horniman Museum,Forest Hill, SE,Presented by E. J. Horniman","Egypt,Abydos,Cairo Museum","Abydos, Qesm Al Wahat Al Khargah, New Valley Governorate, Egypt","26.1837366","31.92272879999996","","None","None","None","132","20","","14.175","No patina","Very rough + encrusted bright green.","2","","Bronze","","","","","Joellen mcGann","https://www.flickr.com/photos/115096994@N02/17719888014","https://farm1.staticflickr.com/490/17719888014_c626f49aff_m.jpg","superuser",31.9227,26.1837,"ForeignTools"
"40142","433","Knife","","Canterbury Museum, 476","Egypt","Egypt","26.820553","30.802498000000014","","None","None","None","254","blade 27.5, 44; ring 11","","190","Dark brownish green patina.","Smooth, slight light green corrosion on one side.","blade 3 to 4; ring 5","","","","Flat + practically the same thickness all over.","","","Joellen mcGann","https://www.flickr.com/photos/115096994@N02/18343969491","https://farm1.staticflickr.com/377/18343969491_8cfbb08016_m.jpg","superuser",30.8025,26.8206,"ForeignTools"
"40143","433","Tweezers XVIIIth Dynasty","","Private Collection,J.B.Williams, Esq.,Dolforgan, Kerry, Montgomery","Egypt,Abydos,Miss Murray's Excavations","Abydos, Qesm Al Wahat Al Khargah, New Valley Governorate, Egypt","26.1837366","31.92272879999996","","None","None","None","70","6","","7.09","Purple brown patina enternally pale green film + blue green corrosion within.","Somewhat corroded","1","Weight: 1/4 oz. = 7.09 gms","Bronze","","","","","Joellen mcGann","https://www.flickr.com/photos/115096994@N02/18338515732","https://farm9.staticflickr.com/8871/18338515732_882728b52a_m.jpg","superuser",31.9227,26.1837,"ForeignTools"
"40144","433","Tweezers","","Horniman Museum,Forest Hill, SE,Presented by E. J. Horniman","Egypt,Abydos,Cairo Museum","Abydos, Qesm Al Wahat Al Khargah, New Valley Governorate, Egypt","26.1837366","31.92272879999996","","None","None","None","38","4","","","No patina","Much corroded, light green","3/4","","Bronze","","","","","Joellen mcGann","https://www.flickr.com/photos/115096994@N02/18316068666","https://farm9.staticflickr.com/8848/18316068666_0d61205032_m.jpg","superuser",31.9227,26.1837,"ForeignTools"
"40145","433","?Tweezers","","Horniman Museum,Forest Hill, SE,Presented by E. J. Horniman","Egypt,Abydos,Cairo Museum","Abydos, Qesm Al Wahat Al Khargah, New Valley Governorate, Egypt","26.1837366","31.92272879999996","","None","None","None","97","25, 22, 16","","28.35","No patina","Very rough + heavily encrusted light green.","1 1/2 to 2","","","","","","","Joellen mcGann","https://www.flickr.com/photos/115096994@N02/18338515162","https://farm1.staticflickr.com/427/18338515162_f8835532d3_m.jpg","superuser",31.9227,26.1837,"ForeignTools"
"40146","433","Chisels","","Musee Miln, Carnac","France,Brittany,Ile-et-Vilaine","Ille-et-Vilaine, France","48.2292016","-1.5300694999999678","","None","None","None","65","blade 35 (approx.)","","","","Surface of this + those mentioned below: covered with what looks like dusty rust.","5 (approx)","","","This and part of a socketed knife are from a hoard of 7 from Ile-et-Vilaine (site unknown), all in Carnac Museum. The others are 1 socketed celt with vestigal wings, another similar, but without signs of wings, + 3 fragments of Class V spearheads.","","","Mr. Le Ronzic thinks this is a broken piece of sword, re-ground for use as a chisel - I was not altogether convinced that it had belonged to a sword (L.F. Chitty)","Joellen mcGann","https://www.flickr.com/photos/115096994@N02/17719887094","https://farm1.staticflickr.com/347/17719887094_386cf127f3_m.jpg","superuser",-1.5301,48.2292,"ForeignTools"
"40147","433","Chisel","","Private Collection,1926,The Lord Braybrooke,Audley End, Saffron Walden","France,Pas de Calais,Bologne sur Mer","Boulogne-sur-Mer, France","50.725231","1.613334000000009","","None","None","None","176","middle 13; tang 8","28","82","Dark green","","11.5 middle","","","","Edge worn and broken.","","","Joellen mcGann","https://www.flickr.com/photos/115096994@N02/18156312369","https://farm1.staticflickr.com/521/18156312369_762dd4d982_m.jpg","superuser",1.6133,50.7252,"ForeignTools"
"40148","433","Chisel","","John Holmes Collection, City Art Gallery, Leeds,Cat. No. 227","France,Brittany,Karnac","Carnac, France","47.58469299999999","-3.07778600000006","","None","None","None","106","","36","49","","","13.5","","","","Blade, below collar is cylindrical in section, expanding into broad fan-shaped cutting edge.","","","Joellen mcGann","https://www.flickr.com/photos/115096994@N02/17719887014","https://farm8.staticflickr.com/7741/17719887014_dc498b69df_m.jpg","superuser",-3.0778,47.5847,"ForeignTools"
"40149","433","Chisel","","Vannes Museum, No. 1540,Label in case: 1540 Gaulois; Environs de Perigueux (Dordogne)","France,Dordogne,Perigueux (neighborhood of)","Périgueux, France","45.184029","0.721114899999975","","None","None","None","","","","","Green","","","","Bronze","","This is less than full size: from a quick sketch.","Vannes Mus. Catalogue (1921) p. 93,Hache a donille ronde et appendices lateraux de Perigueux (Dordogne) Long. O. 140,Don de M. de la  Monneraye","","Joellen mcGann","https://www.flickr.com/photos/115096994@N02/18154661558","https://farm9.staticflickr.com/8837/18154661558_40f9f95c3a_m.jpg","superuser",0.7211,45.184,"ForeignTools"
"40150","433","Knife","","Pitt Rivers Museum, Farnham","France,Savoie,Lake of Bourget (label)","Lake Bourget, France","45.7296783","5.869578799999999","","None","None","None","150","blade 15, 22","","56.7","","Smooth, dark","","","","","","","","Joellen mcGann","https://www.flickr.com/photos/115096994@N02/18342518575","https://farm9.staticflickr.com/8889/18342518575_cba6a4b87d_m.jpg","superuser",5.8696,45.7297,"ForeignTools"
"40151","433","Curved Socketed Knife","","Musee Miln, Carnac","France,Brittany,Ille-et-Vilaine","Ille-et-Vilaine, France","48.2292016","-1.5300694999999678","","None","None","None","(From rough sketch) 63","","","","","Surface of this and those mentioned below, covered with what looks like dusty rust.","","","","This is a ?piece re-ground for use as a chisel, are from a hoard of 7 from Ile-et-Vilaine (site unknown) all in Carnac Museum. The others are - 1 socketed celt with vestigal wings, another similar, but without signs of wings, + 3 fragments of Class V Spearheads.","","","","Joellen mcGann","https://www.flickr.com/photos/115096994@N02/18316067686","https://farm9.staticflickr.com/8821/18316067686_9a510f32d0_m.jpg","superuser",-1.5301,48.2292,"ForeignTools"
"40152","433","Knife","","Private Collection,Mr. Bushnell, Cheltenham","France,exact site unknown","France","46.227638","2.213749000000007","","None","None","None","57","blade 12; socket 15","","18","","","","","Bronze","Founder's Hoard of broken weapons found in France 52. 8 pieces + a hammer.","","","","Joellen mcGann","https://www.flickr.com/photos/115096994@N02/18156311739","https://farm9.staticflickr.com/8784/18156311739_0434b21674_m.jpg","superuser",2.2137,46.2276,"ForeignTools"
"40153","433","Fragments","","Formerly M. de la Granciere,Sold at Sotheby's, 23.vii.39, Lot 20","France,Brittany,Morbihan,Guern,Fourdan,March 1898,40 m depth","Fourdan, 56310 Guern, France","48.03775770000001","-3.158510500000034","","None","3","1898","","","","","","","","","","Hoard comprising 12 palstaves, 2 blades, 2 parts of spear-heads, 2 socketed hammers, 1 tanged razor, 3 bracelets, + debris. 2 metres distant were 2 pots, one containing fragments of iron.","","Bull. Soc. Polym. Morbihan, 1898, p. 158: Dechelette, Manuel II, Appendix p. 83, Hoard No. 564.","Not drawn,List overleaf,Fourdan Hoard: Fragments not drawn at Sotheby's: No.: 54) Palstave larger blade like No. 53 (butt),55) Blade Small, with nicks on either side,56) Blade Fragment,58) Spear-head Fragment,59) Spear-head 3 fragments of socket,62 Razor or Dagger: fragment, with handle ending in a ring: all in one piece, thin.,63, 64, 65) All attached to cards. Bracelets each in several pieces.,66) Small tube containing metal fragments.,Box contains fragments of large urn.","Joellen mcGann","https://www.flickr.com/photos/115096994@N02/18342516515","https://farm1.staticflickr.com/525/18342516515_2ca489e628_m.jpg","superuser",-3.1585,48.0378,"ForeignTools"
"40154","433","Fragments","","Formerly M. De la Granciere,Sold at Sotheby's, 23rd July 1930, Lot 21","France,Brittany,Morbihan,Couedic","Morbihan, France","47.8852929","-2.900186500000018","","None","None","None","","","","","","","","","","Hoard, comprising also 5 winged celts + 2 fragments, 3 spearheads, 1 point, 4 pieces of sword blades, 2 mounts, 2 gouges, 2 pieces of bracelets, 1 coiled ring.","","Bull. Soc. Polym. Morbihan, L. Marsille, ""Inventaire des Depots de bronze du Morbihan"",Date? Not his 1913 paper.","Not drawn.,No. 702 [33] Lump of Metal,21 other small fragments,12 other small fragments of pottery,No. 106 [37],No. 97 [28] 2 small fragments of socket of socketed axe","Joellen mcGann","https://www.flickr.com/photos/115096994@N02/18342516305","https://farm9.staticflickr.com/8860/18342516305_f41c9bbfa4_m.jpg","superuser",-2.9002,47.8853,"ForeignTools"
"40155","433","Socketed Gouge","","John Holmes Collection, City Art Gallery, Leeds,Cat. No. 228,(Wardell Collection)","France,Brittany,Karnac","Carnac, France","47.58469299999999","-3.07778600000006","","None","None","None","84.5","Diameter of socket 18","","53","Green","","","","","","","","","Joellen mcGann","https://www.flickr.com/photos/115096994@N02/18343967641","https://farm9.staticflickr.com/8883/18343967641_a071bface8_m.jpg","superuser",-3.0778,47.5847,"ForeignTools"
"40156","433","Gouge","","Formerly M. de la Granciere,Sold at Sotheby's, 23rd July 1930,Lot 21, No. 77","France,Brittany,Morbihan,Couedic","Morbihan, France","47.8852929","-2.900186500000018","","None","None","None","87","Diameter of socket 22","15","","","","","","","Hoard comprising 2 fragments of socketed axe, 2 gouges, 5 winged celts + 2 fragments, 3 spearheads, 4 pieces of sword blades, 1 point, 2 mounts, 2 pieces of bracelets, 1 coiled ring, 1 lump of metal, 21 small fragments, 12 potsherds.","","Bull. Soc. Polym. Morbihan,(Marsille, ""Inventaire des Depots de Bronze du Morbihan""),Not his 1913 paper.","","Joellen mcGann","https://www.flickr.com/photos/115096994@N02/17719886614","https://farm9.staticflickr.com/8860/17719886614_2c4cdc56ee_m.jpg","superuser",-2.9002,47.8853,"ForeignTools"
"40157","433","Gouge","","Formerly M. de la Granciere,Sold at Sotheby's, 23.vii.30,Lot 21, No. 78[9]","France,Brittany,Morbihan,Couedic","Morbihan, France","47.8852929","-2.900186500000018","","None","None","None","83","Diameter of socket 20","15","","","","","","","Hoard: see above, no. 77","Collar below mouth of socket.","Bull. Soc. Polym. Morbihan","","Joellen mcGann","https://www.flickr.com/photos/115096994@N02/18154660538","https://farm9.staticflickr.com/8785/18154660538_868346e1fe_m.jpg","superuser",-2.9002,47.8853,"ForeignTools"
"40158","433","Hammer","","Private Collection,Mr. Bushnell, Cheltenham","France,exact site unknown","France","46.227638","2.213749000000007","","None","None","None","54","","","166","","","30, 28","","Bronze","Founder's Hoard of broken weapons found in France. 52 - 8 pieces + this hammer.","","","","Joellen mcGann","https://www.flickr.com/photos/115096994@N02/17719885654","https://farm9.staticflickr.com/8857/17719885654_c3bdd540c6_m.jpg","superuser",2.2137,46.2276,"ForeignTools"
"40159","433","Socketed Hammer","","Formerly M. de la Granciere,Sold at Sotheby's 23.vii.30,Lot 20, No. 61","France,Brittany,Morbihan,Guern,Fourdan,March 1898,Depth 40 m","Fourdan, 56310 Guern, France","48.03775770000001","-3.158510500000034","","None","3","1898","58","","22","","","","","","","Hoard comprising: 12 palstaves, 2 socketed hammers, 2 blades, 1 tanged razor, fragments of spearheads, 3 bracelets, + debris. 2 metres distant, 2 pots, one containing iron fragments.","","Bull. Soc. Polym. Morbihan, 1898, p. 158: Dechelette Manuel II, Appendix p. 83, Hoard No. 564","","Joellen mcGann","https://www.flickr.com/photos/115096994@N02/17721846663","https://farm8.staticflickr.com/7773/17721846663_2c55776c29_m.jpg","superuser",-3.1585,48.0378,"ForeignTools"
"40160","433","Hammer, Socketed","","Formerly M. de la Granciere,Sold at Sotheby's, 23 July, 1930,Lot 20, No. 60","France,Brittany,Morbihan,Guern,Fourdan,March 1898,Depth 40m","Fourdan, 56310 Guern, France","48.03775770000001","-3.158510500000034","","None","3","1898","79","","21","","","","","","","Hoard comprising: 12 palstaves, 2 socketed hammers, 2 blades, 1 tanged razor, fragments of spearheads, 3 bracelets, + debris. 2 metres distant were 2 pots, one containing fragments of iron.","","Bull. Soc. Polym. Morbihan, 1898, p. 158: Dechelette, Manuel II, Appendix p. 83, Hoard No. 564.","","Joellen mcGann","https://www.flickr.com/photos/115096994@N02/18154660238","https://farm1.staticflickr.com/510/18154660238_f1c58189d9_m.jpg","superuser",-3.1585,48.0378,"ForeignTools"
"40161","433","Sickle","","Pitt Rivers Museum, Farnham","France,Somme,Amiens","Amiens, France","49.894067","2.2957529999999906","","None","None","None","225","55, 50, 19","","170.1","","Rough green","7","","","","","","","Joellen mcGann","https://www.flickr.com/photos/115096994@N02/18154771350","https://farm9.staticflickr.com/8811/18154771350_de83e604d9_m.jpg","superuser",2.2958,49.8941,"ForeignTools"
"40162","433","Knife","","Private Collection,Mr. Bushnell, Cheltenham","France,exact site unknown","France","46.227638","2.213749000000007","","None","None","None","73","17, 24, 19","","27","","","","","Bronze","Founder's Hoard of broken weapons found in France 52. 8 pieces + a hammer.","","","","Joellen mcGann","https://www.flickr.com/photos/115096994@N02/18154659898","https://farm8.staticflickr.com/7732/18154659898_e4b9195ef5_m.jpg","superuser",2.2137,46.2276,"ForeignTools"
"40163","433","Socketed Knife","","Private Collection,Mr. Bushnell, Cheltenham","France,exact site unknown","France","46.227638","2.213749000000007","","None","None","None","59","blade 20, 25; socket 26","","37","","","","","Bronze","Founder's Hoard of broken weapons found in France. 52. 8 pieces + a hammer.","","","","Joellen mcGann","https://www.flickr.com/photos/115096994@N02/18342515175","https://farm8.staticflickr.com/7729/18342515175_9c38f8532d_m.jpg","superuser",2.2137,46.2276,"ForeignTools"
"40164","433","Three-Sided Knife/Razor","","British Museum, W.G. 137","France,Nr. Marseille","Marseille, France","43.296482","5.369779999999992","","None","None","None","length of 1 side 62","","","","","","","","","","","","","Joellen mcGann","https://www.flickr.com/photos/115096994@N02/18156309679","https://farm1.staticflickr.com/536/18156309679_474635a0ba_m.jpg","superuser",5.3698,43.2965,"ForeignTools"
"40165","433","Pin","","Brentford Public Library,Layton Collection, 01521","Germany,Westphalia,Cologne","Cologne, Germany","50.937531","6.960278600000038","","None","None","None","72","head 7 1/8; pin 3","","","Dirty rough green - some rust stains","","head 7 1/8; pin 3","","","","","","Label: Cologne, on the Rhine","Joellen mcGann","https://www.flickr.com/photos/115096994@N02/18338512522","https://farm9.staticflickr.com/8839/18338512522_515d4e7a94_m.jpg","superuser",6.9603,50.9375,"ForeignTools"
"40166","433","Pin","","Brentford Public Library,Layton Collection, 01523","Germany,Westphalia,Cologne","Cologne, Germany","50.937531","6.960278600000038","","None","None","None","80.25","head, nearly 9; head 10 long; pin 3","","","Head. smooth olive green. Pin much the same but slightly spotted.","","pin 3","","","","Head is almost barrel shaped. Pin is irregularly hexagonal in section.","","Label: Cologne, on the Rhine","Joellen mcGann","https://www.flickr.com/photos/115096994@N02/18154658918","https://farm1.staticflickr.com/491/18154658918_b7b66a113e_m.jpg","superuser",6.9603,50.9375,"ForeignTools"
"40167","433","Sickle","","University College of Wales, Museum, Aberystwyth","Germany,Rimelsheim,Hemidstreet,21 Jan. 1870","Germany","51.165691","10.451526000000058","","21","1","1870","135","","","62","Peacock green patina","With some mud adhering","","","","","","","","Joellen mcGann","https://www.flickr.com/photos/115096994@N02/17721845243","https://farm8.staticflickr.com/7779/17721845243_6ff946f7cd_m.jpg","superuser",10.4515,51.1657,"ForeignTools"
"40168","433","Sickle","","University College of Wales Museum, Aberystwyth","Germany,Langelohnsheimer Wald","Langenlonsheimer Wald, 55450 Langenlonsheim, Germany","49.9138889","7.851388899999961","","None","None","None","106","","","50","powdery green patina","incrusted","","","","","","","","Joellen mcGann","https://www.flickr.com/photos/115096994@N02/18316065716","https://farm9.staticflickr.com/8779/18316065716_697d6c89f3_m.jpg","superuser",7.8514,49.9139,"ForeignTools"
"40169","433","Knife","","Pitt Rivers Museum, Farnham","Greece,Aegean,Rhodes,Label: Bronze knife from Rhodes","Rhodes, Greece","36.4349631","28.21748290000005","","None","None","None","205","blade 36, 37; tang 19","","170.1","Green with dark patches","Rough","7","","","","","","","Joellen mcGann","https://www.flickr.com/photos/115096994@N02/18343965761","https://farm8.staticflickr.com/7788/18343965761_651dcf35cb_m.jpg","superuser",28.2175,36.435,"ForeignTools"
"40170","433","Shield","","Private Collection,Lord Howard de Walden,1923,Belgrave Square, SW","Greece (purchased in),[Italian body armour (breastplate)]","Greece","39.074208","21.824311999999964","","None","None","None","","226 x 225","","311.85","Polished patina mottled lightish green.","Smooth. A good deal of light soil adheres on under side.","Thickness of metal up to 2mm","","","","In the centre is a small pin hole. The spaces A, B, + C are filled with the same decoration as the other two spaces. Well preserved. The decoration is mostly incised + covers the surface.","","","Joellen mcGann","https://www.flickr.com/photos/115096994@N02/18342513705","https://farm8.staticflickr.com/7760/18342513705_e55f75045b_m.jpg","superuser",21.8243,39.0742,"ForeignTools"
"40171","433","Flat Celt","","Herts. Cty. Mus., St. Albans,Ball Collection","Hungary","Hungary","47.162494","19.50330400000007","","None","None","None","75.5","middle 31, butt edge 24","28","63.78","No patina","Very pocked - bright brass like bronze","7","","","","","","","Joellen mcGann","https://www.flickr.com/photos/115096994@N02/18154658228","https://farm1.staticflickr.com/359/18154658228_a02d79b3c0_m.jpg","superuser",19.5033,47.1625,"ForeignTools"
"40172","433","Pins","","Royal Scottish Museum, Edinburgh,Reg. Nos 1903, 13d, f, g, h, i, k","Hungary,Pancsova","Pancevo, Serbia","44.874","20.64756729999999","","None","None","None","i: 116; f: 120; h: 132; d: 147; g: 168; k: 169","","","d: 19; f: 15; g: 12; h: 8; i: 7; k: 14","d, g, i: light green patina; f, h, k: original bronze colour","","","","","","","","","Joellen mcGann","https://www.flickr.com/photos/115096994@N02/18154658068","https://farm9.staticflickr.com/8861/18154658068_4c4c9f556e_m.jpg","superuser",20.6476,44.874,"ForeignTools"
"40173","433","Pins","","Royal Scottish Museum, Edinburgh,Reg. Nos. 1903 137 a, b, c, e, j, l","Hungary,Pancsova","Pancevo, Serbia","44.874","20.64756729999999","","None","None","None","a: 127; b: 89; c: 211; j: 198; e: 231; l: 99","","","a: 5; b: 3 1/2; c: 14; e: 17; j: 13; l: 2","b, l, j: light green patina; a, c, e = original bronze colour","","","","","","","","","Joellen mcGann","https://www.flickr.com/photos/115096994@N02/17721844383","https://farm9.staticflickr.com/8804/17721844383_d1fe5e32f8_m.jpg","superuser",20.6476,44.874,"ForeignTools"
"40174","433","Sickle","","Farnham Museum, Dorset","Hungary,Kaal,Label","Kál, Hungary","47.73182389999999","20.26088660000005","","None","None","None","159","blade 15, 31; tang 37, 22","","113.39","","Smooth dark bronze","blade 5","","","","Edge slightly indented","","","Joellen mcGann","https://www.flickr.com/photos/115096994@N02/18316064006","https://farm9.staticflickr.com/8830/18316064006_0becfe251c_m.jpg","superuser",20.2609,47.7318,"ForeignTools"
"40175","433","Sickle","","Farnham Museum, Dorset","Hungary,Budapest,St. Andre, Buda-Pest (Label)","Budapest, Hungary","47.497912","19.04023499999994","","None","None","None","180","blade 33, 25","","170.1","","Smooth dark bronze","blade 6","","","","Edge slightly indented","","","Joellen mcGann","https://www.flickr.com/photos/115096994@N02/18338510302","https://farm9.staticflickr.com/8795/18338510302_7ba0c76ec0_m.jpg","superuser",19.0402,47.4979,"ForeignTools"
"40176","433","Sickle","","Farnham Museum, Dorset","Hungary,Veszprem","Veszprém, Hungary","47.1028087","17.909301899999946","","None","None","None","187","33; haft end 24","","226.8","green","rough","22","","","","","","","Joellen mcGann","https://www.flickr.com/photos/115096994@N02/18154657438","https://farm8.staticflickr.com/7755/18154657438_82f78fd49a_m.jpg","superuser",17.9093,47.1028,"ForeignTools"
"40177","433","Sickle","","Royal Scottish Museum, Edinburgh,Reg. No. 1902.532","Hungary,Temesvar District","Timișoara, Romania","45.759722","21.230000000000018","","None","None","None","144","31; butt 26","","134","Light + dark green patina with traces of brown","In fair condition","4","","","","Sickle, bronze with incised cable border; one rivet hole","","","Joellen mcGann","https://www.flickr.com/photos/115096994@N02/18343964451","https://farm8.staticflickr.com/7771/18343964451_e2d96b8e3a_m.jpg","superuser",21.23,45.7597,"ForeignTools"
"40178","433","Sickle","","Vize Collection No. 2706; Sotheby's No. 124/9","Hungary,Banat,Temesvar","Timișoara, Romania","45.759722","21.230000000000018","","None","None","None","156","27, 35, 30, 21.5","","113.39","Thin emerald green patina, golden bronze just visible.","Smooth, with very slt. traces of earth.","2, 4, 6, 3.5","","","","Both sides of blade are ground to form an edge, especially the underneath side of blade.","","","Joellen mcGann","https://www.flickr.com/photos/115096994@N02/18343964261","https://farm9.staticflickr.com/8813/18343964261_084a7ecd88_m.jpg","superuser",21.23,45.7597,"ForeignTools"
"40179","433","Sickle","","Pitt Rivers Museum, Farnham","Hungary,Fehersas? Fehersav?","Hungary","47.162494","19.50330400000007","","None","None","None","163","blade 33; tang 22","","141.75","","Smooth dark bronze","6","","","","","","","Joellen mcGann","https://www.flickr.com/photos/115096994@N02/17719882384","https://farm1.staticflickr.com/382/17719882384_86b58bec31_m.jpg","superuser",19.5033,47.1625,"ForeignTools"
"40180","433","Sickle","","Pitt Rivers Museum, Farnham","Hungary,Kaal?,Label: bronze sickle from Kaal Hungary","Kál, Hungary","47.73182389999999","20.26088660000005","","None","None","None","152","blade 14, 27; tang 25","","85.05","Green patches","Rough dark bronze","6.5","","","","","","","Joellen mcGann","https://www.flickr.com/photos/115096994@N02/18316063116","https://farm9.staticflickr.com/8798/18316063116_716599e372_m.jpg","superuser",20.2609,47.7318,"ForeignTools"
"40181","433","Sickle","","Cheltenham Museum, Bushnell Collection","Hungary,Label: ""Bronze Falx, or sickle from Dacin, South Hungary""","Hungary","47.162494","19.50330400000007","","None","None","None","","","","174","Light green patina","Smooth","","","Bronze","","","","Nothing more known","Joellen mcGann","https://www.flickr.com/photos/115096994@N02/17721843163","https://farm1.staticflickr.com/422/17721843163_5cbe6a902a_m.jpg","superuser",19.5033,47.1625,"ForeignTools"
"40182","433","Sickle","","Pitt Rivers Museum, Farnham","Hungary","Hungary","47.162494","19.50330400000007","","None","None","None","159","blade 25, 28, 37","","113.39","Dull green","Rough","5","","","","","","","Joellen mcGann","https://www.flickr.com/photos/115096994@N02/18343963821","https://farm8.staticflickr.com/7736/18343963821_fb374ed8c0_m.jpg","superuser",19.5033,47.1625,"ForeignTools"
"40183","433","Sickle","","Pitt Rivers Museum, Farnham","Hungary","Hungary","47.162494","19.50330400000007","","None","None","None","103","blade 28, 27","","28.35","Patches of green patina","Smooth dark bronze","4.5","","","","","","","Joellen mcGann","https://www.flickr.com/photos/115096994@N02/17719881824","https://farm8.staticflickr.com/7797/17719881824_b2769a13d5_m.jpg","superuser",19.5033,47.1625,"ForeignTools"
"40184","433","Sickle","","Pitt Rivers Museum, Farnham","Hungary","Hungary","47.162494","19.50330400000007","","None","None","None","171","blade 20, 38, 35; tang 31","","226.8","","Smooth, dark bronze","","","","","","","","Joellen mcGann","https://www.flickr.com/photos/115096994@N02/18316062586","https://farm8.staticflickr.com/7779/18316062586_ab86211041_m.jpg","superuser",19.5033,47.1625,"ForeignTools"
"40185","433","Sickle","","Farnham Museum, Dorset","Hungary,Label: Found in Hungary","Hungary","47.162494","19.50330400000007","","None","None","None","129","blade 13, 21, 19","","56.7","","Rough dull green","blade 4","","","","Edge slightly indented","","","Joellen mcGann","https://www.flickr.com/photos/115096994@N02/18343963481","https://farm1.staticflickr.com/537/18343963481_d60fa31b35_m.jpg","superuser",19.5033,47.1625,"ForeignTools"
"40186","433","Sickle","","Farnham Museum, Dorset","Hungary","Hungary","47.162494","19.50330400000007","","None","None","None","141","blade 20, 25","","85.05","","Rough green","4 blade","","","","Edge indented","","","Joellen mcGann","https://www.flickr.com/photos/115096994@N02/18156306809","https://farm8.staticflickr.com/7768/18156306809_4b4f18d95b_m.jpg","superuser",19.5033,47.1625,"ForeignTools"
"40187","433","Sickle","","Liverpool Museum, 4611","Hungary,locality unknown","Hungary","47.162494","19.50330400000007","","None","None","None","120","blade 25","","","dark grey green patina","","8,5.5, 6","","","","Edges slightly chipped","","","Joellen mcGann","https://www.flickr.com/photos/115096994@N02/18154767270","https://farm1.staticflickr.com/541/18154767270_f391d91ed3_m.jpg","superuser",19.5033,47.1625,"ForeignTools"
"40188","433","Sickle","","Liverpool Museum, 4611","Hungary,locality unknown","Hungary","47.162494","19.50330400000007","","None","None","None","115","blade 24","","","dark green patina","","4","","","","Good preservation","","","Joellen mcGann","https://www.flickr.com/photos/115096994@N02/18316062026","https://farm9.staticflickr.com/8759/18316062026_de739b6664_m.jpg","superuser",19.5033,47.1625,"ForeignTools"
"40189","433","Sickle","","Liverpool Museum, 4611","Hungary,Locality unknown","Hungary","47.162494","19.50330400000007","","None","None","None","115","blade 28","","","Light grey green","","5.3 (maximum)","","","","Good preservation.","","","Joellen mcGann","https://www.flickr.com/photos/115096994@N02/18342510965","https://farm9.staticflickr.com/8763/18342510965_51a153dedb_m.jpg","superuser",19.5033,47.1625,"ForeignTools"
"40190","433","Sickle","","Liverpool Museum, 4611","Hungary,Locality unknown","Hungary","47.162494","19.50330400000007","","None","None","None","134","blade 30","","","grey green patina, bright metal exposed on back","","5","","","","","","","Joellen mcGann","https://www.flickr.com/photos/115096994@N02/18316061826","https://farm8.staticflickr.com/7741/18316061826_74439df099_m.jpg","superuser",19.5033,47.1625,"ForeignTools"
"40191","433","Sickle","","Liverpool Museum, 4611","Hungary,locality unknown","Hungary","47.162494","19.50330400000007","","None","None","None","117","blade 27.3","","","Dark grey green patina","","9, 6, 5.3","","","","","","","Joellen mcGann","https://www.flickr.com/photos/115096994@N02/18338508082","https://farm1.staticflickr.com/338/18338508082_763360d3fc_m.jpg","superuser",19.5033,47.1625,"ForeignTools"
"40192","433","Sickle","","Liverpool Museum, 4612M","Hungary,Locality unknown","Hungary","47.162494","19.50330400000007","","None","None","None","145.5","blade 31","","106.31","Very dark green to brown.","Corroded in places (shaded patches)","blade 5","","","","Ornamented with notched ribs forming a rope pattern.","","","Joellen mcGann","https://www.flickr.com/photos/115096994@N02/18343962451","https://farm8.staticflickr.com/7728/18343962451_2b7a71d8bc_m.jpg","superuser",19.5033,47.1625,"ForeignTools"
"40193","433","Sickle","","Pitt Rivers Museum, Farnham","Hungary,Label: Bronze sickle from Hungary","Hungary","47.162494","19.50330400000007","","None","None","None","117","blade 38, 35; tang 19","","141.75","Green","Rough","6.5","","","","","","","Joellen mcGann","https://www.flickr.com/photos/115096994@N02/18156306049","https://farm9.staticflickr.com/8885/18156306049_7e188cd04e_m.jpg","superuser",19.5033,47.1625,"ForeignTools"
"40194","433","SIckle","","Canterbury Museum, 2089,Copeland Collection","Hungary","Hungary","47.162494","19.50330400000007","","None","None","None","170","105","","129","Dark blackish green patina.","Smooth, traces of sand or clay earth mostly on the back.","5, 3.75, 4.25","","","","","","","Joellen mcGann","https://www.flickr.com/photos/115096994@N02/18154654988","https://farm8.staticflickr.com/7731/18154654988_2a713dea62_m.jpg","superuser",19.5033,47.1625,"ForeignTools"
"40195","433","Sickle","","Farnham Museum, Dorset","Hungary","Hungary","47.162494","19.50330400000007","","None","None","None","281","blade 60, tang 91","","340.2","Green","Rough","","","","","","","","Joellen mcGann","https://www.flickr.com/photos/115096994@N02/17719881234","https://farm9.staticflickr.com/8796/17719881234_2057c58af0_m.jpg","superuser",19.5033,47.1625,"ForeignTools"
"40196","433","Sickle","","Farnham Museum, Dorset","Hungary","Hungary","47.162494","19.50330400000007","","None","None","None","243","50, 28, 30","","","Green","Rough","8","","","","","","","Joellen mcGann","https://www.flickr.com/photos/115096994@N02/18316060746","https://farm1.staticflickr.com/361/18316060746_60c9342e0a_m.jpg","superuser",19.5033,47.1625,"ForeignTools"
"40197","433","Socketed Knife","","Herts Cty. Mus., St. Albans,Ball Collection","Hungary","Hungary","47.162494","19.50330400000007","","None","None","None","291.5","blade 26, 34.5; socket 29.5","","212.61","No patina","Slightly pocked. British bronze colour.","blade 6; socket 15","","","","","","","Joellen mcGann","https://www.flickr.com/photos/115096994@N02/18154654448","https://farm1.staticflickr.com/488/18154654448_7e67cfdeee_m.jpg","superuser",19.5033,47.1625,"ForeignTools"
"40198","433","Knife","","Pitt Rivers Museum, Farnham","Hungary","Hungary","47.162494","19.50330400000007","","None","None","None","115","blade 5, 24, 20; tang 10","","28.35","Black","Smooth","blade 4","","","","","","","Joellen mcGann","https://www.flickr.com/photos/115096994@N02/18338506962","https://farm8.staticflickr.com/7797/18338506962_aaabe2e6d3_m.jpg","superuser",19.5033,47.1625,"ForeignTools"
"40199","433","Chisel","","Pitt Rivers Museum, Farnham","Italy,Naples,Naples","Naples, Italy","40.8517746","14.268124400000033","","None","None","None","160","tang end 4","15","28.35","Patches of green","Rough dark bronze","","","","","Edge slightly indented","","","Joellen mcGann","https://www.flickr.com/photos/115096994@N02/17719879524","https://farm1.staticflickr.com/335/17719879524_d466c7cdd0_m.jpg","superuser",14.2681,40.8518,"ForeignTools"
"40200","433","Double spiral pin","","Horniman Museum,Forest Hill, SE,Bought from G.F. Lawrence","Italy,Umbria,Lake Trasimeno","Lago Trasimeno, Province of Perugia, Italy","43.1295911","12.09468179999999","","None","None","None","70","top 30 x 15","","14.17","No patina","Very much encrusted, light green","","","","","A round stemmed pin","","","Joellen mcGann","https://www.flickr.com/photos/115096994@N02/18342509195","https://farm8.staticflickr.com/7772/18342509195_954ac28675_m.jpg","superuser",12.0947,43.1296,"ForeignTools"
"40201","433","Razor","","Private Collection,E5591,1918,S.G. Fenton, Esq., 33 Cranbourn St. W.C.","Italy,Umbria,Orvieto","05018 Orvieto TR, Italy","42.7185068","12.110744599999975","","None","None","None","57","blade 39","","","Dirty dark green patina one side. Lighter on other side + soil stained.","Slightly rough","nearly 1 (flat)","","","","","","","Joellen mcGann","https://www.flickr.com/photos/115096994@N02/17721840493","https://farm8.staticflickr.com/7735/17721840493_e49a9940e3_m.jpg","superuser",12.1107,42.7185,"ForeignTools"
"40202","433","Razor","","Private Collection,E5591,1925,S.G. Fenton, Esq., 33 Cranbourn Street, W.C.","Italy,Umbria,Orvieto","05018 Orvieto TR, Italy","42.7185068","12.110744599999975","","None","None","None","71","blade 22, 25","","","Dirty dark green, lighter on other side.","Very slight encrustment",".5 to .75 (flat)","","","","","","","Joellen mcGann","https://www.flickr.com/photos/115096994@N02/18338506312","https://farm9.staticflickr.com/8892/18338506312_bec53ff05e_m.jpg","superuser",12.1107,42.7185,"ForeignTools"
"40203","433","Knife","","Pitt Rivers Museum, Farnham","Italy,Label: Bronze knife from Italy","Italy","41.87194","12.567379999999957","","None","None","None","118","blade 18; tang 12","","28.35","Black","Smooth","blade 5","","","","","","","Joellen mcGann","https://www.flickr.com/photos/115096994@N02/18154653498","https://farm8.staticflickr.com/7733/18154653498_104d4c37a9_m.jpg","superuser",12.5674,41.8719,"ForeignTools"
"40204","433","Knife","","Peabody Museum,16447,Harvard University,Cambridge, Mass.,Received December 1878,Collected by Clarence B. Moore","Italy,Rome,Rome","Rome, Italy","41.9027835","12.496365500000024","","None","None","None","130","blade 10","","","dark","somewhat encrusted","2 blade","","","","Reverse of blade is flat","","","Joellen mcGann","https://www.flickr.com/photos/115096994@N02/18316059676","https://farm9.staticflickr.com/8863/18316059676_e71eed8cd3_m.jpg","superuser",12.4964,41.9028,"ForeignTools"
"40205","433","Knife","","Peabody Museum,3368,Harvard University,Cambridge, Mass.,Received by purchase 1868,Collected by G. de Mortillet","Italy","Italy","41.87194","12.567379999999957","","None","None","None","93","blade 21","","","dark, with green patches","","blade 3","","","","","","","Joellen mcGann","https://www.flickr.com/photos/115096994@N02/18342508535","https://farm1.staticflickr.com/453/18342508535_30a3ca792b_m.jpg","superuser",12.5674,41.8719,"ForeignTools"
"40206","433","Knife","","Peabody Museum,3368,Harvard University,Cambridge, Mass.,Received by purchase 1868,Collected by G. de Mortillet","Italy","Italy","41.87194","12.567379999999957","","None","None","None","120","blade 24","","","rough green with dark smooth patch","","blade 4","","","","","","","Joellen mcGann","https://www.flickr.com/photos/115096994@N02/18154764580","https://farm8.staticflickr.com/7739/18154764580_d45738a8c1_m.jpg","superuser",12.5674,41.8719,"ForeignTools"
"40207","433","Knife (tanged)","","Pitt Rivers Museum, Farnham","Italy,Tuscany,Chuisi,Label: Bronze knife from Chinisi, Italy","53043 Chiusi SI, Italy","43.0155186","11.94477489999997","","None","None","None","213","blade 15, 27; tang boss 15","","85.05","Green","Rough","6","","","","","","","Joellen mcGann","https://www.flickr.com/photos/115096994@N02/18316059436","https://farm8.staticflickr.com/7771/18316059436_28a15eb5f6_m.jpg","superuser",11.9448,43.0155,"ForeignTools"
"40208","433","Socketed Knife","","Pitt Rivers Museum, Farnham","Italy,Label: Bronze knife, Italian","Italy","41.87194","12.567379999999957","","None","None","None","258","blade 12, 25; socket 20","","141.75","","Smooth dark bronze","socket 18","","","","","","","Joellen mcGann","https://www.flickr.com/photos/115096994@N02/18154652718","https://farm8.staticflickr.com/7762/18154652718_e1b0727677_m.jpg","superuser",12.5674,41.8719,"ForeignTools"
"40209","433","Knife","","Pitt Rivers Museum, Farnham","Palestine,Plain of Sharon,Label","HaSharon, Israel","32.3235643","34.92860960000007","","None","None","None","115","blade 13","","14.17","","Smooth, dark bronze","","","","","","","","Joellen mcGann","https://www.flickr.com/photos/115096994@N02/17719878114","https://farm8.staticflickr.com/7780/17719878114_efb9a347e0_m.jpg","superuser",34.9286,32.3236,"ForeignTools"
"40210","433","Large Pin or Skewer?","","Geological Museum, Lisbon,No. 124 (alias 206)","Portugal,Estnemadura Transtagana,Palmella,Casal Parolo,Quinta do Anjo,3rd Grotto (Furna)","Quinta do Anjo, Portugal","38.5905448","-8.979746699999964","","None","None","None","170","head 30; tang 4","","","","","tang 4","","","Other objects from the 3rd Grotto include Beaker ware, necklaces of Callais beads + a large spool shaped bead with V-perforation.","Head nearly flat; tang square","E. Cartailhac, Ages Prehistoriques, Fig. 182,Aberg, Civiln. Eneol. Iberique, Fig. 76.1,V.G. Childe, Dawn of European Civilization (1925), pp. 11-8, Fig. 57, 2; scale erroneously given as ""1/2""; actually less than 1/2,Also Peake and Fessure[?], Merchant Venturers in Bronze, fig. 5 c, p. 17.","Cf. large bone pin from Casa da Moura, Cescarda (Catailhac, Fig. 116) with spatulate head.","Joellen mcGann","https://www.flickr.com/photos/115096994@N02/18343959741","https://farm8.staticflickr.com/7799/18343959741_01c88f0d0f_m.jpg","superuser",-8.9797,38.5905,"ForeignTools"
"40211","433","Chisel","","Herts County Museum, St. Albans,Lent by Capt. J. H. Ball, RAF","Spain","Spain","40.46366700000001","-3.7492200000000366","","None","None","None","97","butt 7 1/4","5.5","28","No patina","Smooth - dark brown bronze colour","7 x 5.5","","","","","","","Joellen mcGann","https://www.flickr.com/photos/115096994@N02/18338505302","https://farm8.staticflickr.com/7735/18338505302_c369074641_m.jpg","superuser",-3.7492,40.4637,"ForeignTools"
"40212","433","8 Awls","","Ex. R. W. Kennard's,Sotheby's Sale, 25-6.iii.30, Lot 43","Switzerland,Lake Dwellings","Switzerland","46.818188","8.227511999999933","","None","None","None","31, 49, 60, 88, 40, 62, 61, 102","","","","","","","","","","","","","Joellen mcGann","https://www.flickr.com/photos/115096994@N02/17719877614","https://farm8.staticflickr.com/7774/17719877614_5c7f68e7b0_m.jpg","superuser",8.2275,46.8182,"ForeignTools"
"40213","433","3 Awls with Spiral Bands","","ex R.W. Kennard's,Sotheby's Sale 25-6.iii.30, Lot 43","Switzerland,Lake Dwellings","Switzerland","46.818188","8.227511999999933","","None","None","None","44, 60, 75","","","","","","","","","","","","","Joellen mcGann","https://www.flickr.com/photos/115096994@N02/17721838933","https://farm1.staticflickr.com/530/17721838933_1bbbc77cc2_m.jpg","superuser",8.2275,46.8182,"ForeignTools"
"40214","433","Chisel","","Private Collection,F. Ransom, Esq., Hitchin","Switzerland,Zurich,Lake Zurich","Zurich, Switzerland","47.3686498","8.539182500000038","","None","None","None","128","middle 14; socket 23","10","127.56","No patina","Smooth. Dark bronze colour","middle 14.5; socket 23","","","","","","","Joellen mcGann","https://www.flickr.com/photos/115096994@N02/17719877264","https://farm8.staticflickr.com/7743/17719877264_234d5c1c62_m.jpg","superuser",8.5392,47.3686,"ForeignTools"
"40215","433","Graver","","Private Collection,Professor Sir Lucas White-King, CSI, LLD, FSA,late of Roebuck Hall, Co. Dublin,Sold by Auction at Sotheby's 9.11.21, Lot 115","Switzerland,Swiss Lake Dwellings,Onnens,?Concise","Onnens, Switzerland","46.8396252","6.686404799999991","","None","None","None","83","4.5, 5","","","Traces of light greyish green.","Smooth, dark golden bronze.","4.5","","","","This has 2 edges + is twisted slightly in its length. Square in section, with round edges.","","","Joellen mcGann","https://www.flickr.com/photos/115096994@N02/17721838633","https://farm8.staticflickr.com/7755/17721838633_1dd3284870_m.jpg","superuser",6.6864,46.8396,"ForeignTools"
"40216","433","Graver","","Private Collection,Professor Sir Lucas White-King, CSI, LLD, FSA,Late of Roebuck Hall, Co. Dublin,Sold by Auction at Sotheby's, 9.11.21, Lot 115","Switzerland,Swiss Lake Dwellings,Onnens,?Concise","Onnens, Switzerland","46.8396252","6.686404799999991","","None","None","None","54.5","5","","","No patina","Smooth, dull dark brown colour - traces of earth","3,3.5","","","","","","","Joellen mcGann","https://www.flickr.com/photos/115096994@N02/18343958991","https://farm1.staticflickr.com/300/18343958991_e2eb447dae_m.jpg","superuser",6.6864,46.8396,"ForeignTools"
"40217","433","Chisel","","Pitt Rivers Museum, Farnham","Switzerland,Neuchatel,Lake Neuchatel,Label","Lake Neuchâtel, Switzerland","46.9106751","6.872131800000034","","None","None","None","115","middle 8","4","7.08","","Smooth, bronze","","","","","","","","Joellen mcGann","https://www.flickr.com/photos/115096994@N02/18338504352","https://farm9.staticflickr.com/8765/18338504352_c285ff5355_m.jpg","superuser",6.8721,46.9107,"ForeignTools"
"40218","433","Chisel","","Peabody Museum,E2177,Harvard University,Cambridge, Mass.,Bequest of Prof. H. W. Haynes, 1912","Switzerland?","Switzerland","46.818188","8.227511999999933","","None","None","None","104","6.5","","","practically no patina","","6","","","","""Scalloped edges""","","","Joellen mcGann","https://www.flickr.com/photos/115096994@N02/17719876534","https://farm8.staticflickr.com/7755/17719876534_44b785f348_m.jpg","superuser",8.2275,46.8182,"ForeignTools"
"40219","433","Chisel","","Peabody Museum,E2177,Harvard University,Cambridge, Mass.,Bequest of Prof. H. W. Haynes, 1912","Switzerland?","Switzerland","46.818188","8.227511999999933","","None","None","None","70","5.5","","","Practically no patina","","5.5","","","","","","","Joellen mcGann","https://www.flickr.com/photos/115096994@N02/18154762450","https://farm8.staticflickr.com/7771/18154762450_b542fea082_m.jpg","superuser",8.2275,46.8182,"ForeignTools"
"40220","433","Socketed Chisel","","Peabody Museum,Harvard University, Cambridge, Mass.,Received by purchase 1871,Collected by Dr. Clement,6096","Switzerland,Friburg,Estavayer,Lake Dwelling","Estavayer-le-Lac, Switzerland","46.8466059","6.84688749999998","","None","None","None","110","socket 22","11","","","Natural, considerably discoloured","socket 25","","","","Fragment of hafting remains","","","Joellen mcGann","https://www.flickr.com/photos/115096994@N02/18316057326","https://farm8.staticflickr.com/7753/18316057326_6e4acc0856_m.jpg","superuser",6.8469,46.8466,"ForeignTools"
"40221","433","Chisel","","Pitt Rivers Museum, Farnham,Label: Chisel Bough Apl. 20th, 1891","Switzerland,Lake Dwellings","Switzerland","46.818188","8.227511999999933","","None","None","None","105","socket 25","9","113.39","ochre","smooth","socket 24","","","","Edge smooth","","","Joellen mcGann","https://www.flickr.com/photos/115096994@N02/18342506475","https://farm1.staticflickr.com/335/18342506475_3388a26c73_m.jpg","superuser",8.2275,46.8182,"ForeignTools"
"40222","433","Knife","","Private Collection,Professor Sir Lucas White-King, CSI, LLD, FSA,Late of Roebuck Hall, Co. Dublin,Sold by Auction at Sotheby's, 9.11.21, Lot 115","Switzerland,Swiss Lake Dwellings,Onnens,?Concise","Onnens, Switzerland","46.8396252","6.686404799999991","","None","None","None","141","blade 17.5; tang 6.5","","","Patina of brown bronze colour + over this, traces of a light grey patina.","Smooth","tang 3.5","","","","Splendidly preserved. Has a coppery appearance. Fairly sharp edge. Blade decorated on both sides (incised). Also along the back of blade.","","","Joellen mcGann","https://www.flickr.com/photos/115096994@N02/18154762020","https://farm1.staticflickr.com/285/18154762020_8b36c53a83_m.jpg","superuser",6.6864,46.8396,"ForeignTools"
"40223","433","Knife","","Peabody Museum, 5568,Harvard University,Cambridge, Mass.,Received by purchase 1871,Collected by Dr. Clement","Switzerland,Neuchatel,Lake Neuchatel,Corcelettes","Corcelettes, 1422, Switzerland","46.8206982","6.662332300000003","","None","None","None","151","blade 18.5","","","","Natural, considerably obscured by light verdigris.","1.5, 4, 6, 1","","","","","","","Joellen mcGann","https://www.flickr.com/photos/115096994@N02/17719876074","https://farm1.staticflickr.com/352/17719876074_3bb58ec0d5_m.jpg","superuser",6.6623,46.8207,"ForeignTools"
"40224","433","Knife","","Peabody Museum, 5869,Harvard University,Cambridge, Mass.,Received by purchase, 1871,Collected by Dr. Clement","Switzerland,Neuchatel,Lake Neuchatel,Corcelettes","Corcelettes, 1422, Switzerland","46.8206982","6.662332300000003","","None","None","None","135","13 blade","","","","natural surface, discoloured with some incrusted breccia, or lime deposit (?)","near tang 7","","","","","","","Joellen mcGann","https://www.flickr.com/photos/115096994@N02/18343957941","https://farm9.staticflickr.com/8873/18343957941_fd7a5f342d_m.jpg","superuser",6.6623,46.8207,"ForeignTools"
"40225","433","Knife","","Peabody Museum, 3388,Harvard University,Cambridge, Mass.,Received by purchase, 1868,Collected by G. de Mortillet","Switzerland,Neuchatel,Lake Neuchatel,Corcelettes","Corcelettes, 1422, Switzerland","46.8206982","6.662332300000003","","None","None","None","13","blade 18","","","","natural surface with slight encrustation at broad end","back 4; blade from about 3/4","","","","Blade is thin, tapering down from about 3/4mm","","","Joellen mcGann","https://www.flickr.com/photos/115096994@N02/18342505955","https://farm1.staticflickr.com/415/18342505955_58950857f6_m.jpg","superuser",6.6623,46.8207,"ForeignTools"
"40226","433","Knife","","Peabody Museum, 6035,Harvard University,Cambridge, Mass.,Received by purchase 1871,Collected by Dr. Clement","Switzerland,Neuchatel,Lake Neuchatel,Cortaillod","Cortaillod, Switzerland","46.94358","6.846270000000004","","None","None","None","85","blade 23","","","","Natural, with slight discoloration.","1","","","","At A. - the blade is folded over. Very thin.","","","Joellen mcGann","https://www.flickr.com/photos/115096994@N02/18154649848","https://farm8.staticflickr.com/7761/18154649848_d6a894917e_m.jpg","superuser",6.8463,46.9436,"ForeignTools"
"40227","433","Knife","","Peabody Museum,Harvard University,Cambridge, Mass.,Received by purchase, 1871,Collected by Dr. Clement,5865","Switzerland,Neuchatel,St. Aubin,Lake Dwelling","Saint-Aubin, Switzerland","46.88952","6.9807799999999816","","None","None","None","95","blade 12","","","","Natural. Somewhat rough.","5.5","","","","","","","Joellen mcGann","https://www.flickr.com/photos/115096994@N02/18338503022","https://farm8.staticflickr.com/7797/18338503022_b9cbe61a69_m.jpg","superuser",6.9808,46.8895,"ForeignTools"
"40228","433","Knife","","Pitt Rivers Museum, Farnham","Switzerland,Neuchatel,Lake of Neuchatel","Neuchâtel, Switzerland","46.99297929999999","6.931932500000016","","None","None","None","206","blade 15","","56.7","","smooth, bronze colour","blade 4","","","","Edge slightly indented","","","Joellen mcGann","https://www.flickr.com/photos/115096994@N02/17719875314","https://farm1.staticflickr.com/445/17719875314_96be611a4b_m.jpg","superuser",6.9319,46.993,"ForeignTools"
"40229","433","Knife","","Sotheby's Sale, 19.11.24,813,Collection of W. J. Knowles, MRIA, of Flixton Place, Ballymena","Switzerland,Neuchatel,Neuchatel","Neuchâtel, Switzerland","46.99297929999999","6.931932500000016","","None","None","None","190","blade 18; tang 16, 8.5","","","Traces of black patina","Smooth, dark bronze","blade 4.5; tang 17, 11","","","","In very good preservation","","","Joellen mcGann","https://www.flickr.com/photos/115096994@N02/18343957311","https://farm9.staticflickr.com/8792/18343957311_1f6542fb50_m.jpg","superuser",6.9319,46.993,"ForeignTools"
"40230","433","Knife","","Pitt Rivers Museum, Farnham","Switzerland,Neuchatel,Lake Neuchatel","Neuchâtel, Switzerland","46.99297929999999","6.931932500000016","","None","None","None","190","blade 12","","28.35","Ochre colour","smooth","blade 5","","","","Edge slightly chipped","","","Joellen mcGann","https://www.flickr.com/photos/115096994@N02/18316055876","https://farm1.staticflickr.com/467/18316055876_0cb51c5297_m.jpg","superuser",6.9319,46.993,"ForeignTools"
"40231","433","Knife Blade","","Horniman Museum,Forest Hill, SE,Bought from Backhoner Collection","Switzerland,Neuchatel,Neuchatel","Neuchâtel, Switzerland","46.99297929999999","6.931932500000016","","None","None","None","90","16, 19","","14.17","No patina","Smooth, brown + golden colour","2","","","","","","","Joellen mcGann","https://www.flickr.com/photos/115096994@N02/18338502312","https://farm9.staticflickr.com/8865/18338502312_0073582fe4_m.jpg","superuser",6.9319,46.993,"ForeignTools"
"40232","433","Knife","","Pitt Rivers Museum, Farnham","Switzerland,Neuchatel,Lake Neuchatel","Neuchâtel, Switzerland","46.99297929999999","6.931932500000016","","None","None","None","199","blade 18, 19","","56.7","Ochre","Rough","","","","","","","","Joellen mcGann","https://www.flickr.com/photos/115096994@N02/18343956741","https://farm9.staticflickr.com/8789/18343956741_873b05493f_m.jpg","superuser",6.9319,46.993,"ForeignTools"
"40233","433","Knife","","Pitt Rivers Museum, Farnham","Switzerland,Neuchatel,Lake of Neuchatel","Neuchâtel, Switzerland","46.99297929999999","6.931932500000016","","None","None","None","137","blade 16; socket 11, 17","","28.35","","Rough dark bronze","socket 17","","","","Edge slightly indented","","","Joellen mcGann","https://www.flickr.com/photos/115096994@N02/18154648978","https://farm9.staticflickr.com/8817/18154648978_37a0c9b90c_m.jpg","superuser",6.9319,46.993,"ForeignTools"
"40234","433","Knife","","Pitt Rivers Museum, Farnham","Switzerland,Neuchatel,Lake of Neuchatel","Neuchâtel, Switzerland","46.99297929999999","6.931932500000016","","None","None","None","155","blade 13","","28.35","","Smooth dark bronze.","blade 7","","","","Edge slightly indented.","","","Joellen mcGann","https://www.flickr.com/photos/115096994@N02/17719874384","https://farm8.staticflickr.com/7737/17719874384_7341ce35f1_m.jpg","superuser",6.9319,46.993,"ForeignTools"
"40235","433","Knife","","Pitt Rivers Museum, Farnham","Switzerland,Neuchatel,Lake of Neuchatel","Neuchâtel, Switzerland","46.99297929999999","6.931932500000016","","None","None","None","213","blade 26, 14; tang 7","","56.7","","Smooth dark bronze","","","","","","","","Joellen mcGann","https://www.flickr.com/photos/115096994@N02/17721835983","https://farm8.staticflickr.com/7797/17721835983_ec1a63b3b2_m.jpg","superuser",6.9319,46.993,"ForeignTools"
"40236","433","Knife","","Pitt Rivers Museum, Farnham","Switzerland,Neuchatel,Lake of Neuchatel","Neuchâtel, Switzerland","46.99297929999999","6.931932500000016","","None","None","None","193","blade 21, 15","","56.7","","Rough bronze","","","","","Edge indented","","","Joellen mcGann","https://www.flickr.com/photos/115096994@N02/18338501832","https://farm1.staticflickr.com/534/18338501832_2853e1378b_m.jpg","superuser",6.9319,46.993,"ForeignTools"
"40237","433","Knife","","Museum + Art Galleries, Salford,76-1913,Purchased","Switzerland,Neuchatel,Estavayer on L. Neuchatel,from the lake dwg.","Estavayer-le-Lac, Switzerland","46.8466059","6.84688749999998","","None","None","None","115","blade 10, 14; tang 5","","20","Brown + greenish + discolouration.","Fairly smooth","blade 3","","","","Point end missing.","","","Joellen mcGann","https://www.flickr.com/photos/115096994@N02/18338501592","https://farm9.staticflickr.com/8840/18338501592_6ea9809a3f_m.jpg","superuser",6.8469,46.8466,"ForeignTools"
"40238","433","Knife","","Vize Collection, No. 2842,Sotheby's No. 124/9","Switzerland,Vaud,Estavayer","Estavayer-le-Lac, Switzerland","46.8466059","6.84688749999998","","None","None","None","202.5","blade 12, 22; stem 11.5, 17, 5","","88.59","No patina","Smooth, very slight green corrosion on handle end. Traces of light coloured earth all over.","blade back 4; stem 11","","","","","","","Joellen mcGann","https://www.flickr.com/photos/115096994@N02/18343956071","https://farm9.staticflickr.com/8839/18343956071_9308264815_m.jpg","superuser",6.8469,46.8466,"ForeignTools"
"40239","433","Knife","","Vize Collection, No. 196,Sotheby's No. 124/9","Switzerland,Vaud,Estavayer","Estavayer-le-Lac, Switzerland","46.8466059","6.84688749999998","","None","None","None","202","blade 10, 19, 12","","32.89","No patina","Smooth. Dull bronze colour. Traces of light earth on blade.","blade 5, thickest part of back; handle fastening 6","","","","Well preserved. V. shaped blade edge.","","","Joellen mcGann","https://www.flickr.com/photos/115096994@N02/18154648208","https://farm8.staticflickr.com/7780/18154648208_1d695b0501_m.jpg","superuser",6.8469,46.8466,"ForeignTools"
"40240","433","Knife","","Vize Collection 197,Sotheby's No. 124/9","Switzerland,Vaud,Estavayer","Estavayer-le-Lac, Switzerland","46.8466059","6.84688749999998","","None","None","None","121","14, 6, 5.5","","17.71","","Smooth. Dull bronze colour, black stained a good deal.","4 to 5","","","","A cutting edge is ground on both sides of blade. The edge is sharp.","","","Joellen mcGann","https://www.flickr.com/photos/115096994@N02/18338501332","https://farm9.staticflickr.com/8873/18338501332_d03619a805_m.jpg","superuser",6.8469,46.8466,"ForeignTools"
"40241","433","Knife","","Pitt Rivers Museum, Farnham","Switzerland,Lake Dwellings","Switzerland","46.818188","8.227511999999933","","None","None","None","157","blade 11, 19; tang 10","","56.7","Ochre","Smooth","blade 4","","","","Edge slightly indented","","","Joellen mcGann","https://www.flickr.com/photos/115096994@N02/18316054466","https://farm8.staticflickr.com/7728/18316054466_38d603bf88_m.jpg","superuser",8.2275,46.8182,"ForeignTools"
"40242","433","Knife","","Pitt Rivers Museum, Farnham","Switzerland,Label: Bronze knife, Swiss Lakes","Switzerland","46.818188","8.227511999999933","","None","None","None","148","blade 10, 22, 20","","56.7","","Rough","","","","","","","","Joellen mcGann","https://www.flickr.com/photos/115096994@N02/18154759400","https://farm8.staticflickr.com/7753/18154759400_cf91a584d6_m.jpg","superuser",8.2275,46.8182,"ForeignTools"
"40243","433","Knife","","Pitt Rivers Museum, Farnham","Switzerland,Lake Dwellings","Switzerland","46.818188","8.227511999999933","","None","None","None","162","blade 7, 15, 18","","28.35","Brown","Smooth","","","","","Edge slightly indented","","","Joellen mcGann","https://www.flickr.com/photos/115096994@N02/18338500772","https://farm9.staticflickr.com/8853/18338500772_50d39312e8_m.jpg","superuser",8.2275,46.8182,"ForeignTools"
"40244","433","Knife","","Christie's Sale, 14/7/24; 53/2,Late Earl of Northesk (Rosehill Collection)","Switzerland,Swiss Lakes","Switzerland","46.818188","8.227511999999933","","None","None","None","228","blade 21","","","Traces of dark green + black.","Dark golden bronze.","4.5, 9.5","","","","Sharp edge, slightly cracked. Decorated with incised lines. Tang is square with bevelled edges.","","","Joellen mcGann","https://www.flickr.com/photos/115096994@N02/18338500802","https://farm9.staticflickr.com/8765/18338500802_4210f3dbd6_m.jpg","superuser",8.2275,46.8182,"ForeignTools"
"40245","433","Socketed Knife","","Brentford Public Library,Layton Collection, 01270","Switzerland,Lake Dwellings type","Switzerland","46.818188","8.227511999999933","","None","None","None","164","blade 16.25; socket 17","","","Brownish green bronze with slight green encrustment.","","blade 5.5; socket 17","","","","Rivet hole right through socket","","","Joellen mcGann","https://www.flickr.com/photos/115096994@N02/18343955021","https://farm1.staticflickr.com/509/18343955021_dc809e12a0_m.jpg","superuser",8.2275,46.8182,"ForeignTools"
"40246","433","Knife","","B'ham University","Switzerland","Switzerland","46.818188","8.227511999999933","","None","None","None","179","10","","30","Light green","Very smooth + uniform","","","Bronze","","","","","Joellen mcGann","https://www.flickr.com/photos/115096994@N02/17721834483","https://farm8.staticflickr.com/7732/17721834483_b01d834f27_m.jpg","superuser",8.2275,46.8182,"ForeignTools"
"40247","433","Knife","","Cyfarthfa Castle Museum,Merthyr Tydfil, P+N.72K","Switzerland,from a lake dwelling","Switzerland","46.818188","8.227511999999933","","None","None","None","187","blade 19","","43","brownish green","","","","","","","","","Joellen mcGann","https://www.flickr.com/photos/115096994@N02/18156298749","https://farm9.staticflickr.com/8842/18156298749_013066ec97_m.jpg","superuser",8.2275,46.8182,"ForeignTools"
"40248","433","Knife","","Cheltenham Museum,Bushnell Collection","Switzerland,found in a lake","Switzerland","46.818188","8.227511999999933","","None","None","None","236","","","71","Very free from any coloured deposit. Metal unusually ""clean + bright"".","Smooth bright bronze","","","Bronze","Unknown beyond label.","","Label:Bronze knife with horn handle found in Swiss Lake.","","Joellen mcGann","https://www.flickr.com/photos/115096994@N02/18342502755","https://farm8.staticflickr.com/7739/18342502755_d0a99a973e_m.jpg","superuser",8.2275,46.8182,"ForeignTools"
"40249","433","Knife, curved (broken)","","ex. Rlv. Kennard's,Sotheby's Sale, 25.6.iii.30, Lot 48","Switzerland,Lake Dwelling","Switzerland","46.818188","8.227511999999933","","None","None","None","140","20","","","","","","","","","Broken across blade: probably ended in a short tang. Decorated.","Sotheby's Catalogue, 25-6, iii, 30, p. 7","","Joellen mcGann","https://www.flickr.com/photos/115096994@N02/18338500052","https://farm8.staticflickr.com/7760/18338500052_a47901c5fc_m.jpg","superuser",8.2275,46.8182,"ForeignTools"
"40250","433","Knife","","Peabody Museum,Harvard University,E2180,Cambridge, Mass.,Bequest of Prof. H. W. Haynes, 1912","Switzerland?","Switzerland","46.818188","8.227511999999933","","None","None","None","130","23","","","No patina","","8","","","","","","","Joellen mcGann","https://www.flickr.com/photos/115096994@N02/18342502385","https://farm1.staticflickr.com/370/18342502385_5708ba0355_m.jpg","superuser",8.2275,46.8182,"ForeignTools"
"40251","433","Knife","","Chadwick Museum, Bolton","Switzerland,Canton Berne,Nidau (Lake Bienne)","Nidau, Switzerland","47.12441159999999","7.237288700000022","","None","None","None","160","blade 14; tang collar 12","","42","","Deeply pitted","blade 7","","Bronze","","","","","Joellen mcGann","https://www.flickr.com/photos/115096994@N02/18342502275","https://farm8.staticflickr.com/7728/18342502275_6e538b2a7e_m.jpg","superuser",7.2373,47.1244,"ForeignTools"
"40252","433","Knife","","Peabody Museum, 6031,Harvard University,Cambridge, Mass.","Switzerland,Friburg,Estavayer","Estavayer-le-Lac, Switzerland","46.8466059","6.84688749999998","","None","None","None","246","blade 21","","","","Natural, considerably discoloured.","6","","","","","","","Joellen mcGann","https://www.flickr.com/photos/115096994@N02/18154646298","https://farm8.staticflickr.com/7735/18154646298_836dd00306_m.jpg","superuser",6.8469,46.8466,"ForeignTools"
"40253","433","Knife","","Peabody Museum,5858,Harvard University,Cambridge, Mass.,Received by purchase 1871,Collected by Dr. Clement.","Switzerland,Friburg,Estavayer,Lake Dwelling","Estavayer-le-Lac, Switzerland","46.8466059","6.84688749999998","","None","None","None","199","blade 16; tang 13","","","","Natural, slightly discoloured.","back 6 (tapering to point)","","","","","","","Joellen mcGann","https://www.flickr.com/photos/115096994@N02/18316053016","https://farm8.staticflickr.com/7787/18316053016_9f2c4bd37e_m.jpg","superuser",6.8469,46.8466,"ForeignTools"
"40254","433","Knife","","Peabody Museum, 3388,Harvard University,Cambridge, Mass.,Purchased 1868,Collected by G. de Mortillet","Switzerland,Neuchatel,Lake Neuchatel,Auvernier","Auvernier, Switzerland","46.97496","6.878609999999981","","None","None","None","112","blade 12; stop on tang 13.5","","","","","5","","","","","","","Joellen mcGann","https://www.flickr.com/photos/115096994@N02/18342501975","https://farm9.staticflickr.com/8760/18342501975_c362d255dc_m.jpg","superuser",6.8786,46.975,"ForeignTools"
"40255","433","Knife","","Peabody Museum,Harvard University, Cambridge, Mass.,Received by purchase, 1868.,Collected by G. de Mortillet, 3388.","Switzerland,Neuchatel,Lake Neuchatel,Auvernier (or Corcelettes),(Bevaix on label)","Auvernier, Switzerland","46.97496","6.878609999999981","","None","None","None","197","blade 18","","","","Natural, discoloured. Slight encrustation as shown.","Thickness of back: 1, 3, 5.5, 8, 4","","","","","","","Joellen mcGann","https://www.flickr.com/photos/115096994@N02/18154757590","https://farm1.staticflickr.com/306/18154757590_66068a3557_m.jpg","superuser",6.8786,46.975,"ForeignTools"
"40256","433","Knife","","Chadwick Museum, Bolton","Switzerland,Canton Neuchatel,Auvernier","Auvernier, Switzerland","46.97496","6.878609999999981","","None","None","None","116","blade 20; tang 14","","40","","","blade 7; tang 13","","Bronze","","","","","Joellen mcGann","https://www.flickr.com/photos/115096994@N02/18342501855","https://farm1.staticflickr.com/351/18342501855_bdc218d006_m.jpg","superuser",6.8786,46.975,"ForeignTools"
"40257","433","Knife","","Peabody Museum,Harvard University,Cambridge, Mass,Received by purchase 1871,Collected by Dr. Clement,6032","Switzerland,Neuchatel,Concise,Lake Dwelling","Concise, Switzerland","46.8519","6.718629999999962","","None","None","None","221","blade 26","","","","natural, somewhat discoloured","5, 8","","","","","","","Joellen mcGann","https://www.flickr.com/photos/115096994@N02/18343953541","https://farm8.staticflickr.com/7763/18343953541_7dc3e5f967_m.jpg","superuser",6.7186,46.8519,"ForeignTools"
"40258","433","Knife","","Peabody Museum,Harvard University,Cambridge, Mass.,6032,received by purchase 1871,Collected by Dr. Clement","Switzerland,Neuchatel,Concise,Lake Dwelling","Concise, Switzerland","46.8519","6.718629999999962","","None","None","None","125","blade 13","","","Traces of patina green","Natural","7, 2","","","","","","","Joellen mcGann","https://www.flickr.com/photos/115096994@N02/18342501515","https://farm9.staticflickr.com/8837/18342501515_77100c8bd2_m.jpg","superuser",6.7186,46.8519,"ForeignTools"
"40259","433","(Sickle or) Curved Knife","","University Museum, Birmingham,DCCCXLVIII","Switzerland","Switzerland","46.818188","8.227511999999933","","None","None","None","180","","","","","","","","","","Curved blade","","","Joellen mcGann","https://www.flickr.com/photos/115096994@N02/18342501385","https://farm1.staticflickr.com/336/18342501385_ae153210f3_m.jpg","superuser",8.2275,46.8182,"ForeignTools"
"40260","433","Knife","","Pitt Rivers Museum, Farnham","Switzerland,Lake Dwellings","Switzerland","46.818188","8.227511999999933","","None","None","None","245","blade 23, 26","","56.7","Ochre","Smooth","blade 5","","","","Edge damaged","","","Joellen mcGann","https://www.flickr.com/photos/115096994@N02/18154757180","https://farm8.staticflickr.com/7739/18154757180_ffed931fc2_m.jpg","superuser",8.2275,46.8182,"ForeignTools"
"40261","433","Knife","","Farnham Museum, Dorset","Switzerland,Berne,Moeringen (on Lake Bienne),Label: Bronze knife + handle from Moringen, Switzerland","Meiringen, Switzerland","46.7273913","8.185877300000016","","None","None","None","290","blade 21, 24; handle 22","","170.1","","Smooth, bronze colour.","","","","","Edge slightly indented.","","","Joellen mcGann","https://www.flickr.com/photos/115096994@N02/17719870694","https://farm9.staticflickr.com/8887/17719870694_14d7d01f44_m.jpg","superuser",8.1859,46.7274,"ForeignTools"
"40262","433","Fish Hooks","","Christie's Sale, 14.7.24, 65/3,Late Earl of Northesk (Rosehill Collection)","Switzerland,Swiss Lakes","Switzerland","46.818188","8.227511999999933","","None","None","None","A: 32; B: 39; C: 23","","","","","","B: 2","","","","Made of bronze wire. A: without barb. B: with barb, lower half covered with a gilt overlay. C: without barb - the other end is cut + split to a Y shape for fastening.","","","Joellen mcGann","https://www.flickr.com/photos/115096994@N02/17721832353","https://farm8.staticflickr.com/7793/17721832353_2baba8b807_m.jpg","superuser",8.2275,46.8182,"ForeignTools"
"40263","433","Fish Hook","","Horniman Museum,Forest  HIll, SE,Bought from Backhouse Collection","Switzerland,Swiss Lake Dwellings","Switzerland","46.818188","8.227511999999933","","None","None","None","57","22","","","No patina","Smooth, copperish colour","3 x 2","","Bronze","","Well preserved.","","","Joellen mcGann","https://www.flickr.com/photos/115096994@N02/18154756410","https://farm8.staticflickr.com/7778/18154756410_0ded0a8706_m.jpg","superuser",8.2275,46.8182,"ForeignTools"
"40264","433","Fish Hook","","Horniman Museum,Forest Hill, SE,Bought from the Backhouse Collection","Switzerland,Swiss Lake Dwellings","Switzerland","46.818188","8.227511999999933","","None","None","None","23","30","","","No patina","Smooth + mostly bright golden colour","about 2","","Bronze","","Well preserved. Made of squarish wire.","","","Joellen mcGann","https://www.flickr.com/photos/115096994@N02/17719870614","https://farm9.staticflickr.com/8853/17719870614_37566b91a6_m.jpg","superuser",8.2275,46.8182,"ForeignTools"
"40265","433","Fish hook","","Christie's Sale, 14.7.24; 65/9,Late Earl of Northesk (Rosehill Collection)","Switzerland,Swiss Lakes","Switzerland","46.818188","8.227511999999933","","None","None","None","64","62","","","Grey green","","2, 2.5","","","","Made of bent wire with sharpened ends.","","","Joellen mcGann","https://www.flickr.com/photos/115096994@N02/18343952341","https://farm9.staticflickr.com/8868/18343952341_7f27328457_m.jpg","superuser",8.2275,46.8182,"ForeignTools"
"40266","433","Gouge","","Christie's Sale, 14.7.24,63/3,Late Earl of Northesk (Rosehill Collection)","Switzerland,Swiss Lakes","Switzerland","46.818188","8.227511999999933","","None","None","None","74","socket 17","15.75","","No patina, dark golden bronze","Smooth","socket 17","","","","","","","Joellen mcGann","https://www.flickr.com/photos/115096994@N02/18343952311","https://farm1.staticflickr.com/537/18343952311_90e15d5ca9_m.jpg","superuser",8.2275,46.8182,"ForeignTools"
"40267","433","Hammer","","Pitt Rivers Museum, Farnham","Switzerland,Neuchatel,Lake Neuchatel","Neuchâtel, Switzerland","46.99297929999999","6.931932500000016","","None","None","None","53","head 23; middle 22; socket 26","","113.39","Black + green patches","Rough","head 21; middle 22; socket 25","","","","","","","Joellen mcGann","https://www.flickr.com/photos/115096994@N02/18154644388","https://farm1.staticflickr.com/335/18154644388_517a1bc24d_m.jpg","superuser",6.9319,46.993,"ForeignTools"
"40268","433","Needle","","Mr. Bushnell, Cheltenham","Switzerland,Found in a lake","Switzerland","46.818188","8.227511999999933","","None","None","None","86","","","6","Light green patina","Smooth","","","Bronze","","","","","Joellen mcGann","https://www.flickr.com/photos/115096994@N02/18154755710","https://farm8.staticflickr.com/7757/18154755710_88ee45af40_m.jpg","superuser",8.2275,46.8182,"ForeignTools"
"40269","433","Needle","","Private Collection,Professor Sir Lucas White King, CSI, LLD, FSA,Late of Roebuck Hall, Co. Dublin,Sold by Auction at Sotheby's, 9.11.21,Lot 115","Switzerland,Swiss Lake Dwellings,Onnens,?Concise","Onnens, Switzerland","46.8396252","6.686404799999991","","None","None","None","82.5","","","","No patina","Smooth - dark golden bronze colour.","2, 2.5","","","","Round in section, splendidly preserved.","","","Joellen mcGann","https://www.flickr.com/photos/115096994@N02/18154755530","https://farm8.staticflickr.com/7777/18154755530_c54667f7da_m.jpg","superuser",6.6864,46.8396,"ForeignTools"
"40270","433","Pin","","Mr. Bushnell, Cheltenham","Switzerland,Bern,Morigen, by Lake Bienne,Found in the Lake,Label: ""Hairpin found in Morigen Lake in Switzerland""","Mörigen, Switzerland","47.0837781","7.2107687999999825","","None","None","None","","","","8","","Smooth + clean","","","Bronze","","The lines under head are not rings, but a spiral line, or rather a helical line.","","Nothing more known","Joellen mcGann","https://www.flickr.com/photos/115096994@N02/17719869504","https://farm8.staticflickr.com/7740/17719869504_df5e4d7dae_m.jpg","superuser",7.2108,47.0838,"ForeignTools"
"40271","433","Pin","","Mr. Bushnell, Cheltenham","Switzerland,Port-Alban on Lake Neuchatel,From a lake dwelling.,Bronze hairpin (perhaps gilt) from Swiss lake dwelling at Portalban","Portalban, 1568, Switzerland","46.91404","6.955010000000016","","None","None","None","178","","","11","","Smooth + clean","","","Bronze","","","","Nothing further known, the ""perhaps gilt"" appearance has quite the look of gold - in patches - but has not been tested.","Joellen mcGann","https://www.flickr.com/photos/115096994@N02/18343951601","https://farm9.staticflickr.com/8898/18343951601_96675eb5e7_m.jpg","superuser",6.955,46.914,"ForeignTools"
"40272","433","Pin","","Mr. Bushnell, Cheltenham","Switzerland,From a lake,""Found in Swiss lake""","Switzerland","46.818188","8.227511999999933","","None","None","None","105","","","7","Light","Smooth","","","Bronze","","","","Nothing more known","Joellen mcGann","https://www.flickr.com/photos/115096994@N02/18154644458","https://farm8.staticflickr.com/7734/18154644458_d0eb277fbd_m.jpg","superuser",8.2275,46.8182,"ForeignTools"
"40273","433","Pin","","Private Collection,Professor Sir Lucas White-King, CSI, LLD, FSA,Late of Roebuck Hall, Co. Dublin,Sold  by Auction at Sotheby's, 9.11.21,Lot 115","Switzerland,Swiss Lake Dwellings,Onnens,?Concise","Onnens, Switzerland","46.8396252","6.686404799999991","","None","None","None","126","head 12.5 x 13.5","","","No patina.","Smooth. Pin is dark golden bronze. Head is of lead - dark grey colour with earth adhering.","slightly over 2","","","","","","","Joellen mcGann","https://www.flickr.com/photos/115096994@N02/17719869204","https://farm8.staticflickr.com/7773/17719869204_7d3644bf94_m.jpg","superuser",6.6864,46.8396,"ForeignTools"
"40274","433","Pin","","Private Collection,Professor Sir Lucas White-King, CSI, LLD, FSA,Late of Roebuck Hall, Co. Dublin,Sold by auction at Sotheby's, 9.11.21,Lot 115","Switzerland,Swiss Lake Dwellings,Onnens,?Concise","Onnens, Switzerland","46.8396252","6.686404799999991","","None","None","None","163","coils 37","","","Traces of dull light green powdery patina on the coils.","Smooth. Dark golden bronze + dark brown stains.","3.5 stem, 5 coils","","","","The coils are pliable.","","","Joellen mcGann","https://www.flickr.com/photos/115096994@N02/18343951251","https://farm9.staticflickr.com/8810/18343951251_d945e1e935_m.jpg","superuser",6.6864,46.8396,"ForeignTools"
"40275","433","Badkin","","Private Collection,Professor Sir Lucas White-King, CSI, LLD, FSA,Late of Roebuck Hall, Co. Dublin,Sold by Auction at Sotheby's, 9.11.21, Lot 115.","Switzerland,Swiss Lake Dwgs.,Onnens,?Concise","Onnens, Switzerland","46.8396252","6.686404799999991","","None","None","None","52","","","","","Smooth - Slightly corroded. Dull greyish green, almost a brown - not patinated.","3.5","","","","A conical point at one end - the other, is rounded. Almost round in section.","","","Joellen mcGann","https://www.flickr.com/photos/115096994@N02/18316050016","https://farm8.staticflickr.com/7772/18316050016_70ac8675dd_m.jpg","superuser",6.6864,46.8396,"ForeignTools"
"40276","433","Pin","","Christie's Sale, 14.7.24, 52,Late Earl of Northesk (Rose Collection)","Switzerland,Swiss Lakes","Switzerland","46.818188","8.227511999999933","","None","None","None","147","","","","","Outer covering removed (where shaded) showing golden bronze.","","","","","","","","Joellen mcGann","https://www.flickr.com/photos/115096994@N02/18343950961","https://farm1.staticflickr.com/453/18343950961_65b32d8c79_m.jpg","superuser",8.2275,46.8182,"ForeignTools"
"40277","433","Pin","","Christie's Sale, 14.7.4; 52,Late Earl of Northesk (Rosehill Collection)","Switzerland,Swiss Lakes","Switzerland","46.818188","8.227511999999933","","None","None","None","62","head 6.5","","","No patina","Dull bronze, clean","","","","","About 3/4 of the pin is squarish + circular at end near head. Slightly bent at point end.","","","Joellen mcGann","https://www.flickr.com/photos/115096994@N02/18154754590","https://farm8.staticflickr.com/7770/18154754590_8728984667_m.jpg","superuser",8.2275,46.8182,"ForeignTools"
"40278","433","Pin","","Christie's Sale, 14/7/25; 52,Late Earl of Northesk (Rosehill Collection)","Switzerland,Swiss Lakes","Switzerland","46.818188","8.227511999999933","","None","None","None","102","head 3.5","","","","Clean dark golden bronze","","","","","","","","Joellen mcGann","https://www.flickr.com/photos/115096994@N02/18156294479","https://farm9.staticflickr.com/8830/18156294479_22964dff58_m.jpg","superuser",8.2275,46.8182,"ForeignTools"
"40279","433","Pin","","Horniman Museum, Forest HIll, SE,Bought of Gregory","Switzerland,Swiss Lake Dwellings","Switzerland","46.818188","8.227511999999933","","None","None","None","133","of head 18","","21.26","No patina.","Smooth, head half covered with whitish earth, holes are filled with this. There is also some on stem.","3","","Bronze","","Ball shaped head with 4 holes.","","","Joellen mcGann","https://www.flickr.com/photos/115096994@N02/18156294269","https://farm8.staticflickr.com/7799/18156294269_27412a769c_m.jpg","superuser",8.2275,46.8182,"ForeignTools"
"40280","433","Pin","","Horniman Museum,Forest Hill, SE,Bought from Gregory","Switzerland,Swiss Lake Dwellings","Switzerland","46.818188","8.227511999999933","","None","None","None","113","width of ball top 15.5","","21.26","No patina","Smooth - golden bronze colour","3","","Bronze","","Ball shaped head","","","Joellen mcGann","https://www.flickr.com/photos/115096994@N02/18156294179","https://farm8.staticflickr.com/7762/18156294179_e5244be8be_m.jpg","superuser",8.2275,46.8182,"ForeignTools"
"40281","433","Pin","","Horniman Museum,Forest Hill, SE,Bought from Gregory","Switzerland,Swiss Lake Dwellings","Switzerland","46.818188","8.227511999999933","","None","None","None","100","width of head 10","","","bight green patina on head only","Smooth, bronze colour","3","","Bronze","","","","","Joellen mcGann","https://www.flickr.com/photos/115096994@N02/18316049276","https://farm1.staticflickr.com/274/18316049276_b7c43c0ff9_m.jpg","superuser",8.2275,46.8182,"ForeignTools"
"40282","433","Pin","","Horniman Museum,Forest Hill, SE,Bought from Gregory","Switzerland,Swiss Lake Dwellings","Switzerland","46.818188","8.227511999999933","","None","None","None","190","width of head 7","","14.17","No patina","Smooth, golden bronze colour","4","","Bronze","","","","","Joellen mcGann","https://www.flickr.com/photos/115096994@N02/18156294009","https://farm8.staticflickr.com/7790/18156294009_a869b4ece1_m.jpg","superuser",8.2275,46.8182,"ForeignTools"
"40283","433","Pin","","Horniman Museum,Forest Hill, SE,Bought from Gregory","Switzerland,Swiss Lake Dwellings","Switzerland","46.818188","8.227511999999933","","None","None","None","202","of head 10","","7.08","No patina","Smooth, golden bronze colour","3.5","","Bronze","","","","","Joellen mcGann","https://www.flickr.com/photos/115096994@N02/18338495922","https://farm1.staticflickr.com/529/18338495922_419cd842c1_m.jpg","superuser",8.2275,46.8182,"ForeignTools"
"40284","433","Pin","","ex. R.W. Kennard's,Sotheby's Sale, 25-26.iii.30, Lot 43","Switzerland,Lake Dwellings","Switzerland","46.818188","8.227511999999933","","None","None","None","74","head 9","","","","","","","","","","Sotheby's Sale catalogue, p. 7","","Joellen mcGann","https://www.flickr.com/photos/115096994@N02/17719867754","https://farm1.staticflickr.com/325/17719867754_9d90039b23_m.jpg","superuser",8.2275,46.8182,"ForeignTools"
"40285","433","Pin","","ex-R.W. Kennard's,Sotheby's Sale, 25-26.iii.30, Lot 43","Switzerland,Lake Dwellings","Switzerland","46.818188","8.227511999999933","","None","None","None","124","head 6","","","","","","","","","","","","Joellen mcGann","https://www.flickr.com/photos/115096994@N02/18154753610","https://farm9.staticflickr.com/8854/18154753610_3d4e400c51_m.jpg","superuser",8.2275,46.8182,"ForeignTools"
"40286","433","Pin","","ex R. W. Kennard's,Sotheby's Sale, 25-26.iii.30, Lot 43","Switzerland,Lake Dwelling","Switzerland","46.818188","8.227511999999933","","None","None","None","125","central knob 8","","","","","","","","","","","","Joellen mcGann","https://www.flickr.com/photos/115096994@N02/18338495722","https://farm8.staticflickr.com/7739/18338495722_906262ed32_m.jpg","superuser",8.2275,46.8182,"ForeignTools"
"40287","433","Pin","","ex R.W. Kennard,Sotheby's Sale, 25-6.iii.30, Lot 43","Switzerland,Lake Dwellings","Switzerland","46.818188","8.227511999999933","","None","None","None","118","head 8","","","","","","","","","","","","Joellen mcGann","https://www.flickr.com/photos/115096994@N02/18316048556","https://farm8.staticflickr.com/7744/18316048556_f608324783_m.jpg","superuser",8.2275,46.8182,"ForeignTools"
"40288","433","Pin","","ex R. W. Kennard's,Sotheby's Sale, 25-6.iii.30, Lot 43","Switzerland,Lake Dwellings","Switzerland","46.818188","8.227511999999933","","None","None","None","130","head 8","","","","","","","","","","","","Joellen mcGann","https://www.flickr.com/photos/115096994@N02/17719867334","https://farm1.staticflickr.com/352/17719867334_4ebee55e6c_m.jpg","superuser",8.2275,46.8182,"ForeignTools"
"40289","433","Pin","","ex R. W. Kennard's,Sotheby's Sale, 25-6.iii.30, Lot 43","Switzerland,Lake Dwellings","Switzerland","46.818188","8.227511999999933","","None","None","None","124","head 7","","","","","","","","","","","","Joellen mcGann","https://www.flickr.com/photos/115096994@N02/18154641658","https://farm8.staticflickr.com/7799/18154641658_e6ae53024c_m.jpg","superuser",8.2275,46.8182,"ForeignTools"
"40290","433","Pin","","ex R. W. Kennard's,Sotheby's Sale, 25-6.iii.30, Lot 43","Switzerland,Lake Dwellings","Switzerland","46.818188","8.227511999999933","","None","None","None","146","head 4","","","","","","","","","","","","Joellen mcGann","https://www.flickr.com/photos/115096994@N02/18156293039","https://farm8.staticflickr.com/7763/18156293039_cf727f1230_m.jpg","superuser",8.2275,46.8182,"ForeignTools"
"40291","433","Pin","","ex R. W. Kennard's,Sotheby's Sale, 25-6.iii.30, Lot 43","Switzerland,Lake Dwellings","Switzerland","46.818188","8.227511999999933","","None","None","None","135","head 6","","","","","","","","","","","","Joellen mcGann","https://www.flickr.com/photos/115096994@N02/18154752940","https://farm1.staticflickr.com/487/18154752940_49f6717ff8_m.jpg","superuser",8.2275,46.8182,"ForeignTools"
"40292","433","Pin","","ex R. W. Kennard's,Sotheby's Sale, 25-6.iii.30, Lot 43","Switzerland,Lake Dwellings","Switzerland","46.818188","8.227511999999933","","None","None","None","70","head 6","","","","","","","","","","","","Joellen mcGann","https://www.flickr.com/photos/115096994@N02/17719866804","https://farm8.staticflickr.com/7790/17719866804_8e013a63ed_m.jpg","superuser",8.2275,46.8182,"ForeignTools"
"40293","433","2 Pins","","ex R. W. Kennard's,Sotheby's Sale, 25-6.iii.30, Lot 50","Switzerland,Lake Dwellings","Switzerland","46.818188","8.227511999999933","","None","None","None","253, 216","head 24, head 21","","","","","","","","","","Sotheby's Catalogue, 25.iii.30, p. 7","","Joellen mcGann","https://www.flickr.com/photos/115096994@N02/18154641058","https://farm8.staticflickr.com/7733/18154641058_0f8c71a883_m.jpg","superuser",8.2275,46.8182,"ForeignTools"
"40294","433","2 Pins","","ex R. W. Kennard's,Sotheby's Sale, 25-6.iii.30, Lot 50","Switzerland,Lake Dwellings","Switzerland","46.818188","8.227511999999933","","None","None","None","175, 118","heads 14","","","","","","","","","","","","Joellen mcGann","https://www.flickr.com/photos/115096994@N02/17721828643","https://farm9.staticflickr.com/8807/17721828643_afdc414aa6_m.jpg","superuser",8.2275,46.8182,"ForeignTools"
"40295","433","Pin","","Private Collection,F. Ransom Esq., Hitchin","Switzerland,Neuchatel","Neuchâtel, Switzerland","46.99297929999999","6.931932500000016","","None","None","None","129.5","8.5, 9, 8","","14","Only a little patina of dark green + thick - where indicated.","Smooth + dark golden bronze colour.","4","","","","There is another of similar design but is 154 mm long + built thinner, decorated in same way + with the 3 knobs (weighing 10.62 gms).","","","Joellen mcGann","https://www.flickr.com/photos/115096994@N02/18338494642","https://farm9.staticflickr.com/8852/18338494642_3f1990d879_m.jpg","superuser",6.9319,46.993,"ForeignTools"
"40296","433","Pin","","Private Collection,F. Ransom, Esq., Hitchin","Switzerland,Lake Neuchatel","Neuchâtel, Switzerland","46.99297929999999","6.931932500000016","","None","None","None","178.5","head 8.5 + 5.5","","7.08","No patina","Light bronze colour + smooth.","about 2.5","","","","Clay adheres corroded on to the pin itself.","","","Joellen mcGann","https://www.flickr.com/photos/115096994@N02/18338494292","https://farm8.staticflickr.com/7759/18338494292_dafa469089_m.jpg","superuser",6.9319,46.993,"ForeignTools"
"40297","433","Pin with Ring + another without","","Private Collecteion,F. Ransom, Esq., Hitchin","A. ,B. Neuchatel Lake, Switzerland","Neuchâtel, Switzerland","46.99297929999999","6.931932500000016","","None","None","None","A: 88; B: 114","Ring about 19 diameter","","A: 5.31; B: 3.54","No patina","Smooth + of golden copper colour.","A: 2.5; B: 2.5","","","","Both appear to have been treated with acid - to clean. Possibly all these pins have.","","","Joellen mcGann","https://www.flickr.com/photos/115096994@N02/18154752030","https://farm9.staticflickr.com/8777/18154752030_3e5e8c4481_m.jpg","superuser",6.9319,46.993,"ForeignTools"
"40298","433","Pin","","Private Collection,F. Ransom Esq., Hitchin","Switzerland,Vaud,Yverdon,1889","Yverdon-les-Bains, Switzerland","46.7782175","6.641489800000045","","None","None","1889","82.5","head 12 x 12","","8.9","No patina","Smooth, greyish copper colour. Tiny pittings.","3 to about 2","","","","Not decorated","","","Joellen mcGann","https://www.flickr.com/photos/115096994@N02/18156291689","https://farm1.staticflickr.com/362/18156291689_1ebc870c64_m.jpg","superuser",6.6415,46.7782,"ForeignTools"
"40299","433","Pin","","Brentford Public Library,Layton Collection, 1550","Switzerland,Swiss Lake Dwellings","Switzerland","46.818188","8.227511999999933","","None","None","None","154","diameter of head 12","","","Brown patina","","","","","","","","","Joellen mcGann","https://www.flickr.com/photos/115096994@N02/18156291609","https://farm8.staticflickr.com/7748/18156291609_f3d2e69bd6_m.jpg","superuser",8.2275,46.8182,"ForeignTools"
"40300","433","Pin","","Brentford Public Library,Layton Collection, 1547","Switzerland,Swiss Lake Dwelling","Switzerland","46.818188","8.227511999999933","","None","None","None","270; diameter of head 12","","","","Green patina, much decayed","","","","","","","","","Joellen mcGann","https://www.flickr.com/photos/115096994@N02/18316046736","https://farm8.staticflickr.com/7755/18316046736_6ae316677f_m.jpg","superuser",8.2275,46.8182,"ForeignTools"
"40301","433","Razor","","Formerly property of F. W. Lincoln; sold at Sotheby's May 2, 1932 [Lot 197]","Switzerland,Cortaillod","Cortaillod, Switzerland","46.94358","6.846270000000004","","None","None","None","127","84","","","","","","","","","","","","Joellen mcGann","https://www.flickr.com/photos/115096994@N02/18154639708","https://farm1.staticflickr.com/293/18154639708_9902637ae2_m.jpg","superuser",6.8463,46.9436,"ForeignTools"
"40302","433","Razor","","Farnham Museum, Dorset","Switzerland,Canton Neuchatel,St. Blaise (Lake of Neuchatel)","Saint-Blaise, Switzerland","47.016373","6.987094699999943","","None","None","None","89","blade 30; tang 14","","","","Rough green","","","","","Edge damaged","","","Joellen mcGann","https://www.flickr.com/photos/115096994@N02/18343947551","https://farm9.staticflickr.com/8846/18343947551_114e985707_m.jpg","superuser",6.9871,47.0164,"ForeignTools"
"40303","433","Razor","","Farnham Museum, Dorset","Switzerland,Canton Neuchatel,St. Blaise (Lake of Neuchatel)","Saint-Blaise, Switzerland","47.016373","6.987094699999943","","None","None","None","84","blade 33, 10; tang 8","","","","Smooth, ochre","","","","","Edge damaged.","","","Joellen mcGann","https://www.flickr.com/photos/115096994@N02/18154750940","https://farm1.staticflickr.com/309/18154750940_1b5f521533_m.jpg","superuser",6.9871,47.0164,"ForeignTools"
"40304","433","Razor","","Farnham Museum, Dorset","Switzerland,Canton Neuchatel,Cortaillod (Lake of Neuchatel)","Cortaillod, Switzerland","46.94358","6.846270000000004","","None","None","None","85","blade 9, 11, 20","","","","smooth, ochre","","","","","Edge slightly damaged.","","","Joellen mcGann","https://www.flickr.com/photos/115096994@N02/18156290909","https://farm8.staticflickr.com/7797/18156290909_9a70a3fd62_m.jpg","superuser",6.8463,46.9436,"ForeignTools"
"40305","433","Sickle","","Chadwick Museum, Bolton","Switzerland,Canton Berne,Nidau,Lake Bienne","Nidau, Switzerland","47.12441159999999","7.237288700000022","","None","None","None","82","blade 35","","36","","","","","Bronze","","","","","Joellen mcGann","https://www.flickr.com/photos/115096994@N02/18154750500","https://farm1.staticflickr.com/484/18154750500_11f9ee10c4_m.jpg","superuser",7.2373,47.1244,"ForeignTools"
"40306","433","Sickle","","Pitt Rivers Museum, Farnham","Switzerland,Berne,?Taraz, Lake of Bienne","Bern, Switzerland","46.9479222","7.444608499999958","","None","None","None","122","blade 35; tip 11; tang 20","","85.05","Green","Rough","6","","","","","","","Joellen mcGann","https://www.flickr.com/photos/115096994@N02/18154638528","https://farm9.staticflickr.com/8836/18154638528_1f771d823c_m.jpg","superuser",7.4446,46.9479,"ForeignTools"
"40307","433","Sickle","","Peabody Museum,Harvard University,6039,Cambridge, Mass.,Received by purchase 1871,Collected by Dr. Clement","Switzerland,Friburg,Estavayer,Lake Dwelling","Estavayer-le-Lac, Switzerland","46.8466059","6.84688749999998","","None","None","None","140","blade 41, 38; tang 21","","","","Natural, with some very dark patches.","7, 5","","","","","","","Joellen mcGann","https://www.flickr.com/photos/115096994@N02/18338491962","https://farm1.staticflickr.com/391/18338491962_3751a5b4a7_m.jpg","superuser",6.8469,46.8466,"ForeignTools"
"40308","433","Sickle","","Peabody Museum,Harvard University,3392,Cambridge, Mass.,Received by purchase 1868,Collected by G. de Mortillet","Switzerland,Neuchatel,Lake Neuchatel","Neuchâtel, Switzerland","46.99297929999999","6.931932500000016","","None","None","None","134","blade 37","","","","largely covered with encrustment, roughly cast with many pits","5, 2","","","","","","","Joellen mcGann","https://www.flickr.com/photos/115096994@N02/18156289579","https://farm1.staticflickr.com/510/18156289579_e374b4d60e_m.jpg","superuser",6.9319,46.993,"ForeignTools"
"40309","433","Sickle","","Peabody Museum,6501,Harvard University,Cambridge, Mass.,Received by purchase 1872, collected by Dr. Clement","Switzerland,Neuchatel,Lake Neuchatel,Lake dwelling","Neuchâtel, Switzerland","46.99297929999999","6.931932500000016","","None","None","None","108","blade 33; tang 16.5","","","Reverse dark with bright green patches.","Face is heavily encrusted with lime (?) deposit.","back 7","","","","","","","Joellen mcGann","https://www.flickr.com/photos/115096994@N02/17719864424","https://farm9.staticflickr.com/8810/17719864424_55ec127045_m.jpg","superuser",6.9319,46.993,"ForeignTools"
"40310","433","Sickle","","Private Collection,F. Ransom, Esq., Hitchin","Switzerland,Neuchatel","Neuchâtel, Switzerland","46.99297929999999","6.931932500000016","","None","None","None","138","98.5; blade 25, 34, 22","","116.93","No patina","Smooth. Dark golden bronze colour. Light coloured earth (almost white) adheres on back + round hole.","5","","","","Edge is sharp + preservation is good. (The edge is ground more on the back than the front.)","","","Joellen mcGann","https://www.flickr.com/photos/115096994@N02/18342493615","https://farm8.staticflickr.com/7755/18342493615_876526b384_m.jpg","superuser",6.9319,46.993,"ForeignTools"
"40311","433","Sickle Blade","","Horniman Museum,Forest Hill, SE,Bought from Backhouse collection.","Switzerland,Neuchatel,Neuchatel","Neuchâtel, Switzerland","46.99297929999999","6.931932500000016","","None","None","None","110","16, 37, 18","","70.8","No patina","Rather encrusted with whitish earth. Smooth brownish in places.","about 4","","Bronze","","","","","Joellen mcGann","https://www.flickr.com/photos/115096994@N02/18343946751","https://farm9.staticflickr.com/8847/18343946751_ce4652b029_m.jpg","superuser",6.9319,46.993,"ForeignTools"
"40312","433","Sickle","","Sotheby's Sale, 19.11.24, 813,Collection of W. J. Knowles, MRIA of Flixton Place, Ballymena","Switzerland,Neuchatel,Neuchatel","Neuchâtel, Switzerland","46.99297929999999","6.931932500000016","","None","None","None","127.5","Blade 28; tang 19.75","","","Traces blackish","Smooth. Dirty golden bronze","blade 8, 4.5","","","","Sharp edge. Very well preserved specimen.","","","Joellen mcGann","https://www.flickr.com/photos/115096994@N02/18342493025","https://farm9.staticflickr.com/8890/18342493025_63d520542d_m.jpg","superuser",6.9319,46.993,"ForeignTools"
"40313","433","Sickle","","Private Collection,Sir. B. Windle, 1924, CXC,St. Michael's Cottage, Toronto,Cotton Collection Bromsgrove","Switzerland,Neuchatel","Neuchâtel, Switzerland","46.99297929999999","6.931932500000016","","None","None","None","118","blade 33","","50","","","","","","","","","","Joellen mcGann","https://www.flickr.com/photos/115096994@N02/18154639398","https://farm9.staticflickr.com/8789/18154639398_b84c031281_m.jpg","superuser",6.9319,46.993,"ForeignTools"
"40314","433","Sickle","","Cheltenham Museum,Bushnell Collection","Switzerland,found in a lake,Label: ""bronze falv (sickle) found in a Swiss Lake""","Switzerland","46.818188","8.227511999999933","","None","None","None","","","","62","Complete light green patina","Fairly Smooth","","","Bronze","","","","Nothing more known","Joellen mcGann","https://www.flickr.com/photos/115096994@N02/17719862824","https://farm8.staticflickr.com/7754/17719862824_5d3cd0a491_m.jpg","superuser",8.2275,46.8182,"ForeignTools"
"40315","433","Sickle","","Pitt Rivers Museum, Farnham","Switzerland,From a lake","Switzerland","46.818188","8.227511999999933","","None","None","None","128","blade 40; tang 21","","56.7","","Rough, bronze colour.","","","","","Edges indented.","","","Joellen mcGann","https://www.flickr.com/photos/115096994@N02/17721824203","https://farm1.staticflickr.com/310/17721824203_8de0a7f85f_m.jpg","superuser",8.2275,46.8182,"ForeignTools"
"40316","433","Sickle","","Peabody Museum,E2165,Harvard University, cambridge, Mass.,Bequest of Prof. Hy. W. Haynes,1912","Switzerland?","Switzerland","46.818188","8.227511999999933","","None","None","None","144","blade 24","","","some patina on butt - remainder, of almost gilded appearance","","average Thickness of back 5","","","","","","","Joellen mcGann","https://www.flickr.com/photos/115096994@N02/17719861414","https://farm1.staticflickr.com/554/17719861414_35b462bd02_m.jpg","superuser",8.2275,46.8182,"ForeignTools"
"40317","433","Sickle","","Christie's Sale, 14.7.24; 56/3,Late Earl of Northesk (Rosehill Collection)","Switzerland,Swiss Lakes","Switzerland","46.818188","8.227511999999933","","None","None","None","111","blade 21","","","Dark green, encrusted with light green.","Is worn","5, 13","","","","Point of blade broken. Edge chipped.","","","Joellen mcGann","https://www.flickr.com/photos/115096994@N02/18156286989","https://farm9.staticflickr.com/8811/18156286989_3cdd40858f_m.jpg","superuser",8.2275,46.8182,"ForeignTools"
"40318","433","Sickle","","Christie's Sale,14.7.24; 56/III,Late Earl of Northesk (Rosehill Collection)","Switzerland,Swiss Lakes","Switzerland","46.818188","8.227511999999933","","None","None","None","138","blade 39","","","traces of patina dark green","dull bronze","blade 5","","","","","","","Joellen mcGann","https://www.flickr.com/photos/115096994@N02/18154633998","https://farm9.staticflickr.com/8877/18154633998_daf2f712bd_m.jpg","superuser",8.2275,46.8182,"ForeignTools"
"40319","433","Sickle","","Christie's Sale, 14.7.24; 56/3,Late Earl of Northesk (Rosehill Collection)","Switzerland,Swiss Lakes","Switzerland","46.818188","8.227511999999933","","None","None","None","190","blade 38","","","Dark green. Overlaid with light brown","","blade 4","","","","The blade is broken + mended with 4 modern rivets.","","","Joellen mcGann","https://www.flickr.com/photos/115096994@N02/18343940631","https://farm8.staticflickr.com/7746/18343940631_fd4b89460c_m.jpg","superuser",8.2275,46.8182,"ForeignTools"
"40320","433","Sickle","","ex R. W. Kennard's,Sotheby's Sale, 25-6.iii.30, Lot 48","Switzerland,Lake Dwelling","Switzerland","46.818188","8.227511999999933","","None","None","None","122","blade 35; height 85","","","","","","","","","","Sotheby's Catalogue, 35.iii.30, p. 7","","Joellen mcGann","https://www.flickr.com/photos/115096994@N02/17719857354","https://farm1.staticflickr.com/473/17719857354_f74aa4abbf_m.jpg","superuser",8.2275,46.8182,"ForeignTools"
"40321","433","Sickle","","ex R. W. Kennard's,Sotheby's Sale, 25-6.iii.30, Lot 48","Switzerland,Lake Dwellings","Switzerland","46.818188","8.227511999999933","","None","None","None","134","84 (height), blade 39","","","","","","","","","Groove, broad, following line of back.","Sotheby's Catalogue, 25.iii.30, p. 7","","Joellen mcGann","https://www.flickr.com/photos/115096994@N02/18316037266","https://farm8.staticflickr.com/7736/18316037266_b3fbc98c89_m.jpg","superuser",8.2275,46.8182,"ForeignTools"
"40322","433","Knife","","Brentford Public Library,Layton Collection, 01265","Switzerland (?),Lake Dwelling type","Switzerland","46.818188","8.227511999999933","","None","None","None","185.5","blade 17","","","","Mostly dark bronze, + golden brown.","blade 5.5","","","","The blade is hollow ground from about the middle to the broad end.","","","Joellen mcGann","https://www.flickr.com/photos/115096994@N02/18342485745","https://farm9.staticflickr.com/8779/18342485745_2abdc3dd5a_m.jpg","superuser",8.2275,46.8182,"ForeignTools"
"40323","433","Knife","","Brentford Public Library,Layton Collection, 01269","Switzerland(?),Lake Dwelling type","Switzerland","46.818188","8.227511999999933","","None","None","None","240","blade 19; socket 18.25","","","Brownish patina","Slightly encrusted with mud + oxide.","blade 5.5; socket 17.25","","","","","","","Joellen mcGann","https://www.flickr.com/photos/115096994@N02/18342484925","https://farm9.staticflickr.com/8775/18342484925_1e0f42d512_m.jpg","superuser",8.2275,46.8182,"ForeignTools"
"40324","433","Knife, tanged","","ex R. W. Kennard's,Sotheby's Sale, 25-6.iii.30, Lot 44","Switzerland,Lake Dwellings","Switzerland","46.818188","8.227511999999933","","None","None","None","168","22","","","","","","","","","Blade curved, with basal spur + short tang.","Sotheby's Catalogue, 25.iii.30, p.7","","Joellen mcGann","https://www.flickr.com/photos/115096994@N02/18343935831","https://farm8.staticflickr.com/7786/18343935831_087d7ae24a_m.jpg","superuser",8.2275,46.8182,"ForeignTools"
"40325","433","Knife, tanged","","ex R. W. Kennard's,Sotheby's Sale, 25-6.iii.30, Lot 49","Switzerland,Lake Dwellings","Switzerland","46.818188","8.227511999999933","","None","None","None","177","17","","","","","","","","","Curved back.","","","Joellen mcGann","https://www.flickr.com/photos/115096994@N02/17721813913","https://farm9.staticflickr.com/8821/17721813913_da5fdd384c_m.jpg","superuser",8.2275,46.8182,"ForeignTools"
"40326","433","Knife, tanged","","ex R. W. Kennard's,Sotheby's Sale, 25-6.iii.30, Lot 49","Switzerland,Lake Dwellings","Switzerland","46.818188","8.227511999999933","","None","None","None","178","19","","","","","","","","","Blde slightly curved, with basal spur.","Sotheby's Catalogue, 25.iii.30, p.","","Joellen mcGann","https://www.flickr.com/photos/115096994@N02/18154626108","https://farm1.staticflickr.com/509/18154626108_8cfb4d0251_m.jpg","superuser",8.2275,46.8182,"ForeignTools"
"40327","433","Knife","","Cheltenham Museum,Bushnell Collection","Switzerland,Found in a lake,Label: ""Leaf shape spear head with rivet found in a Swiss Lake""","Switzerland","46.818188","8.227511999999933","","None","None","None","133","40","","42","Light green with white encrustation, fairly smooth","Rough","","","Bronze","","","","Nothing more known","Joellen mcGann","https://www.flickr.com/photos/115096994@N02/18343932701","https://farm1.staticflickr.com/460/18343932701_42074bfa60_m.jpg","superuser",8.2275,46.8182,"ForeignTools"
"40328","433","Knife, tanged (broken)","","ex R. W. Kennard's,Sotheby's Sale, 25-6.iii.30, Lot 49","Switzerland,Lake Dwellings","Switzerland","46.818188","8.227511999999933","","None","None","None","89","23","","","","","","","","","Blade snapped across, upper part missing. End of tang hooked back.","","","Joellen mcGann","https://www.flickr.com/photos/115096994@N02/18338476102","https://farm1.staticflickr.com/342/18338476102_ce315c072e_m.jpg","superuser",8.2275,46.8182,"ForeignTools"
"40329","433","Knife","","Private Collection,F. Ransom, Esq., Hitchin","Switzerland,Neuchatel","Neuchâtel, Switzerland","46.99297929999999","6.931932500000016","","None","None","None","137.5","blade 18 (widest)","","30.12","No patina","Smooth, with slight light green encrustment. Dark golden bronze colour.","back of blade 6; back of handle end 8.5","","","","","","","Joellen mcGann","https://www.flickr.com/photos/115096994@N02/18154734720","https://farm1.staticflickr.com/317/18154734720_a75b8e621a_m.jpg","superuser",6.9319,46.993,"ForeignTools"
"40330","433","Knife","","Private Collection,F. Ransom, Esq., Hitchin","Switzerland,Neuchatel","Neuchâtel, Switzerland","46.99297929999999","6.931932500000016","","None","None","None","178","blade 21; stem 7 (widest)","","85.05","No patina","Smooth, appears to have been cleaned with acid. Dark golden bronze colour.","9.5 (greatest)","","","","Back + the rib along blade are decorated.","","","Joellen mcGann","https://www.flickr.com/photos/115096994@N02/18316026896","https://farm1.staticflickr.com/472/18316026896_7ebed56be7_m.jpg","superuser",6.9319,46.993,"ForeignTools"
"40331","433","Knife","","Private Collection,F. Ransom, Esq., Hitchin","Switzerland,Vaud,Yverdon,1889","Yverdon-les-Bains, Switzerland","46.7782175","6.641489800000045","","None","None","1889","115","point 7; widest part of blade 15","","24.8","some bright green patina, slightly rough. the remainder is dark bronze colour.","[?inedinmly] smooth","8","","","","","","","Joellen mcGann","https://www.flickr.com/photos/115096994@N02/18342475175","https://farm9.staticflickr.com/8844/18342475175_f83393c292_m.jpg","superuser",6.6415,46.7782,"ForeignTools"
