"taskID","userID","objectType","rightCorner","collection","site","toSearch","Lat","Lon","gridRef","dateDiscoveryDay","dateDiscoveryMonth","dateDiscoveryYear","length","width","edge","weight","patina","surface","thickness","other","composition","associations","description","publications","remarks","inputBy","imageURL","flickrURL","Processing","lon","lat","project"
"41334","433","Scabord end & Fragment of sword","","Herts Cty Museum, St. Albans,Ball Collection","Austria","Austria","47.516231","14.550072","","None","None","None","Ferrule: 63; blade 56","Ferrule 12, 37.5; Blade 23.5","","Ferrule 21.26 ; blade 21.26","Ferrule: some dark green; Blade: none","Ferrule: Rough; Blade: rough, green encrusted.","Ferrule 12; blade 8","","","","","","","Joellen mcGann","https://www.flickr.com/photos/115096994@N02/19008657050","https://farm4.staticflickr.com/3799/19008657050_f059747f2d_m.jpg","superuser",14.5501,47.5162,"ForeignSwordsMisc"
"41335","433","Sword","","London School of Economics,Houghton Street, WI 2,The property of Professor C. G. Seligman","China","China","35.86166","104.19539699999996","","None","None","None","483","blade 48, 43","","595.9","Dark jade green, mottled black, golden bronze shows, patina seems to have been cleaned all over.","Very slight patches of what appears to be thin copper, on the blade. Smooth","20, 7","","","","The hilt is round & hollow like a tube","","","Joellen mcGann","https://www.flickr.com/photos/115096994@N02/19190463122","https://farm1.staticflickr.com/422/19190463122_f2fbe1e73a_m.jpg","superuser",104.1954,35.8617,"ForeignSwordsMisc"
"41336","433","Sword","","Private Collection,11.4.24 (at S of A),Capt. W. H. Murray","China","China","35.86166","104.19539699999996","","None","None","None","533","blade 44 hilt 48.5, 13, 25.5, 25, 11, 36","","850.48","A rich marble like patina of jade green, medium shade & slightly mottled.","Smooth,  hilt rather pitted, very slight encrustment on one side of blade near hilt.","blade 10, 3; hilt 35, 36","","","","Cast marks show on sides of hilt. The hilt top is hollowed & has a central hole, but the top is nearly filled with encrustment.","","","Joellen mcGann","https://www.flickr.com/photos/115096994@N02/19008589960","https://farm1.staticflickr.com/357/19008589960_cd991ec2e4_m.jpg","superuser",104.1954,35.8617,"ForeignSwordsMisc"
"41337","433","Leaf Shaped Sword","","Private Collection,Professor Patrick Geddes","Cyprus,Exact site unknkown","Cyprus","35.126413","33.429858999999965","","None","None","None","278","hilt 42; blade 36","","265.78","","Rough, as though water worn. Yellow metal stained black.","blade 5","","","","Broken across blade - tang broken through rivet holes.","","","Joellen mcGann","https://www.flickr.com/photos/115096994@N02/19010117749","https://farm1.staticflickr.com/377/19010117749_17d5ee6b73_m.jpg","superuser",33.4299,35.1264,"ForeignSwordsMisc"
"41338","433","Sword","","Farnham Museum, Dorset","Cyprus","Cyprus","35.126413","33.429858999999965","","None","None","None","514","blade 36; hilt plate 43","","296.85","","Smooth light bronze","","","","","","","","Joellen mcGann","https://www.flickr.com/photos/115096994@N02/19169414416","https://farm1.staticflickr.com/457/19169414416_9e78e81e4c_m.jpg","superuser",33.4299,35.1264,"ForeignSwordsMisc"
"41339","433","Button","","Horniman Museum,Forest Hill SE,Bought from Hoffguard","Denmark","Denmark","56.26392","9.50178500000004","","None","None","None","Diameter 17","","","3.4","Dark green patina (dull) at top","Partly encrusted","10","","Bronze","","","","","Joellen mcGann","https://www.flickr.com/photos/115096994@N02/19169391466","https://farm1.staticflickr.com/427/19169391466_48fe3b951d_m.jpg","superuser",9.5018,56.2639,"ForeignSwordsMisc"
"41340","433","Button","","Horniman Museum,Forest HIll SE,Bought from Hoffguard","Denmark","Denmark","56.26392","9.50178500000004","","None","None","None","Diameter 24","","","3.2","Some light green patina","Rather rough, encrusted inside","10","","","","","","","Joellen mcGann","https://www.flickr.com/photos/115096994@N02/18572988674","https://farm1.staticflickr.com/332/18572988674_945788509d_m.jpg","superuser",9.5018,56.2639,"ForeignSwordsMisc"
"41341","433","Double Spiral","","Horniman Museum,Forest Hill, SE,This was bought from Backhouse Collection","Denmark","Denmark","56.26392","9.50178500000004","","None","None","None","105","53","","42.52","No patina bronze showing in places","Blackish & smooth slightly pocked","13","","Bronze","","A very regular design","","","Joellen mcGann","https://www.flickr.com/photos/115096994@N02/18574881293","https://farm1.staticflickr.com/413/18574881293_fed0ffbab9_m.jpg","superuser",9.5018,56.2639,"ForeignSwordsMisc"
"41342","433","Portion of Swords","","Brighton Museum,Presented by H. Willett Esq., FSA","Denmark","Denmark","56.26392","9.50178500000004","","None","None","None","A: 85; B: 105; C: 127","A: 29; B: 33; C: 30.5","","A: 60.24; B: 97.45; C: 56.7","A little polished patina, light + medium coloured green colour.","Smooth","A: 7.5; B: 9.5; C: 5.5","","","","These pieces do not appear to belong to the same sword.","","","Joellen mcGann","https://www.flickr.com/photos/115096994@N02/19198997961","https://farm1.staticflickr.com/307/19198997961_2d753d09c4_m.jpg","superuser",9.5018,56.2639,"ForeignSwordsMisc"
"41343","433","Sword Blade (portions)","","Brighton Museum,Presented by H. Willett, Esq., FSA","Denmark","Denmark","56.26392","9.50178500000004","","None","None","None","A: 99; B: 90; C: 88","A: 21 to 41; B: 22; C: 29","","A: 63.79; B: 58.47; C: 77.95","Scarcely any patina","All very rough & much encrusted with various shades of green.","A: 6.5; B: 6.75; C: 8","","","","","","","Joellen mcGann","https://www.flickr.com/photos/115096994@N02/19199089961","https://farm1.staticflickr.com/482/19199089961_85ce97f77b_m.jpg","superuser",9.5018,56.2639,"ForeignSwordsMisc"
"41344","433","Sword Blade (Portions)","","Brighton Museum,Presented by H. Willett Esq. FSA","Denmark","Denmark","56.26392","9.50178500000004","","None","None","None","A: 124; B: 115; C: 62","A: 22; B: 28; C: 25","","A: 61.24; B: 93.25; C: 40.35","Chiefly medium green patina.","Smooth in parts, but a little encrusted + very heavily pocked.","A: 6; B: 7.75; C: 7","","","","","","","Joellen mcGann","https://www.flickr.com/photos/115096994@N02/18572939554","https://farm1.staticflickr.com/338/18572939554_4f2e6332f1_m.jpg","superuser",9.5018,56.2639,"ForeignSwordsMisc"
"41345","433","Sword","","Peabody Museum,4697,Harvard University, Cambridge, Mass.,Received by purchase 1868,Collected by Wilmot J. Rose","Denmark,Fyen Island,Rugbocke Mill","Funen, Denmark","55.3290605","10.23529080000003","","None","None","None","191, 44, 103, 36","blade 36, 39, 37, 47; hilt 36, 52 x 47","","","Green","Considerably corroded, considerably encrusted.","blade 8.5 (average)","","","","","","","Joellen mcGann","https://www.flickr.com/photos/115096994@N02/19007877318","https://farm1.staticflickr.com/448/19007877318_f559251d3d_m.jpg","superuser",10.2353,55.3291,"ForeignSwordsMisc"
"41346","433","Sword","","Christie's Sale, 14.7.24; 471,Late Earl of Northesk (Rosehill Collection)","Denmark,Jutland,Viborg","8800 Viborg, Denmark","56.45202699999999","9.396346999999992","","None","None","None","637","30 blade; hilt 47","","","Dark green & sea green shaded.","Smooth. Patina slightly pocked & pitted.","blade 7.5","","","","Broken into 7 pieces. 4 broken rivet holes.","","","Joellen mcGann","https://www.flickr.com/photos/115096994@N02/18574807333","https://farm1.staticflickr.com/423/18574807333_a486b10305_m.jpg","superuser",9.3963,56.452,"ForeignSwordsMisc"
"41347","433","Sword","","Liverpool Museum, 2.10.90.206,Christian Collection","Denmark","Denmark","56.26392","9.50178500000004","","None","None","None","627","","","368.55","Black, with red patches (especially tang) from contact with iron.","Corroded at A from hilt.","","","","","Thickness at B 6mm, from here the decrease in thickness is very gradual. Tip of blade is missing.","","","Joellen mcGann","https://www.flickr.com/photos/115096994@N02/19184573652","https://farm1.staticflickr.com/336/19184573652_012dafb887_m.jpg","superuser",9.5018,56.2639,"ForeignSwordsMisc"
"41348","433","Leaf shaped sword","","Private Collection,1923,Mr. Henry Backhouse,Bournemouth","Denmark","Denmark","56.26392","9.50178500000004","","None","None","None","513","blade 35, 27; hilt 41, 36","","506","Dull putty & brown, with patches of olive green.","Rough + scaled in places.","7, 9","","","","","","","Joellen mcGann","https://www.flickr.com/photos/115096994@N02/19184536892","https://farm1.staticflickr.com/497/19184536892_f750085a5d_m.jpg","superuser",9.5018,56.2639,"ForeignSwordsMisc"
"41349","433","Sword","","Peabody Museum,Harvard University,Cambridge, Mass.,Received Decem. 1878,Collected by C. B. Moore","Denmark","Denmark","56.26392","9.50178500000004","","None","None","None","107 hilt; 297 blade","hilt 44, 43; blade 31","","","Green generally","Very slightly corroded","hilt 31; average thickness of blade 7","","","","","","","Joellen mcGann","https://www.flickr.com/photos/115096994@N02/19002751608","https://farm1.staticflickr.com/515/19002751608_a1db582c9a_m.jpg","superuser",9.5018,56.2639,"ForeignSwordsMisc"
"41350","433","Sword","C","Brighton Museum,Presented by H. Willett Esq., FSA","? Denmark","Denmark","56.26392","9.50178500000004","","None","None","None","242.5 & 121","30 to 48","","219.70 + 95.68","Some dull light green patina (on long portion); (Shorter) No patina.","(Long portion) fairly smooth, dark & golden bronze showing. (Shorter) smooth with golden bronze showing","5 to 6","","","","","","","Joellen mcGann","https://www.flickr.com/photos/115096994@N02/18569671953","https://farm4.staticflickr.com/3880/18569671953_4cc5244a7d_m.jpg","superuser",9.5018,56.2639,"ForeignSwordsMisc"
"41351","433","Sword","","Brighton Museum,Presented by H. Willett, Esq, FSA","?Denmark","Denmark","56.26392","9.50178500000004","","None","None","None","340","25 to 34","","343.74","No patina","Very rough encrusted all over & a little dark bronze showing.","8.5","","","","","","","Joellen mcGann","https://www.flickr.com/photos/115096994@N02/19004113999","https://farm1.staticflickr.com/335/19004113999_ccbb6dce6a_m.jpg","superuser",9.5018,56.2639,"ForeignSwordsMisc"
"41352","433","Sword","","Private Collection,Rev. Professor Sayce, 1921","Egypt,Abydos,from a grave","Abydos, Qesm Al Wahat Al Khargah, New Valley Governorate, Egypt","26.1837366","31.92272879999996","","None","None","None","468","blade 44.5","","","","","Blade 5.5","","","Found with pottery etc. of Rameses iii, 1200-1170","","","","Joellen mcGann","https://www.flickr.com/photos/115096994@N02/19190234325","https://farm1.staticflickr.com/544/19190234325_bab9e1400c_m.jpg","superuser",31.9227,26.1837,"ForeignSwordsMisc"
"41353","433","","","Private Collection,Late Lord Amherst of Hackney, FSA,Sotheby's 17.VI.21, Lot 827","Egypt,City of Akhenaten (Tell el Amarna)","Amarna, Tall Bani Omran, Deir Mawas, Menia Governorate, Egypt","27.661667","30.905555999999933","","None","None","1891","39.5","tang 4; edge 13","","2.7","","Rather rough - lightish green encrustment over all the surface & traces of earth & tiny stones.","tang 2 to 3","","","","The back of tang is a little hollowed.","","Discovered by Lord Amherst 1891/2","Joellen mcGann","https://www.flickr.com/photos/115096994@N02/19193795271","https://farm1.staticflickr.com/261/19193795271_03d82819a3_m.jpg","superuser",30.9056,27.6617,"ForeignSwordsMisc"
"41354","433","","","Private Collection,Late Lord Amherst of Hackney, FSA,Sotheby's, 17.vi.21, Lot 821","Egypt,City of Akhenaten (Tell el Amarna)","Amarna, Tall Bani Omran, Deir Mawas, Menia Governorate, Egypt","27.661667","30.905555999999933","","None","None","1891","96","6.25","","8.52","A browny green encrusted patina all over.","Rough","6.5, 5.5","","","","This is round except where the stem is flattened & bent.","","Discovered by Lord Amherst 1891/2","Joellen mcGann","https://www.flickr.com/photos/115096994@N02/19002513430","https://farm4.staticflickr.com/3754/19002513430_0f926a0d79_m.jpg","superuser",30.9056,27.6617,"ForeignSwordsMisc"
"41355","433","","","Private Collection,Late Lord Amherst of Hackney, FSA,Sotheby's, 17.vi.21, Lot 827","Egypt,City of Akhenaten (Tell el Amarna)","Amarna, Tall Bani Omran, Deir Mawas, Menia Governorate, Egypt","27.661667","30.905555999999933","","None","None","1891","26","22","","70.88","A dull encrusted sort of patina of medium green with traces of soil all over it.","A little rough","20, 17.5, 19","","","","","","Discovered by Lord Amherst 1891/2","Joellen mcGann","https://www.flickr.com/photos/115096994@N02/19164021686","https://farm1.staticflickr.com/461/19164021686_5301dae6b0_m.jpg","superuser",30.9056,27.6617,"ForeignSwordsMisc"
"41356","433","Earring","","Private Collection,Professor Sir Lucas White-King, CSI, LLD, FSA,Late of Roebuck Hall, Co. Dublin,Sold by Auction at Sotheby's 9.11.21, Lot 115","Switzerland,Swiss Lake Dwellings,Onnens,?Concise","Onnens, Switzerland","46.8396252","6.686404799999991","","None","None","None","39.5","19, 6","","","No patina.","Smooth, dark golden bronze colour.","2.5","","","","One side is decorated with drilled dots + incised lines.","","","Joellen mcGann","https://www.flickr.com/photos/115096994@N02/19184327482","https://farm4.staticflickr.com/3918/19184327482_91ddc9c91e_m.jpg","superuser",6.6864,46.8396,"ForeignSwordsMisc"
"41357","433","Earring","","Private Collection,Professor Sir Lucas White-King, CSI, LLD, FSA,Late of Roebuck Hall, Co. Dublin,Sold by Auction at Sotheby's, 9.11.21, Lot 115","Switzerland,Swiss Lake Dwellings,Onnens,?Concise","Onnens, Switzerland","46.8396252","6.686404799999991","","None","None","None","Hook 28","ring 15","","","","Smooth. Dark brown colour. A little light green powdery corrosion.","hook 1 3/4 x slt. over 1; ring 2.5","","","","Hook is made of D shaped wire, flat on the inside, 1 3/4 D 1mm slt over. Sharp point to hook","","","Joellen mcGann","https://www.flickr.com/photos/115096994@N02/19163984006","https://farm1.staticflickr.com/418/19163984006_7839bb26c2_m.jpg","superuser",6.6864,46.8396,"ForeignSwordsMisc"
"41358","433","Hilt","","Peabody Museum,3335,Harvard University,Cambridge, Mass,Received 1868 by purchase,Collected by G. de Mortillet","France,Somme,Abbeville (near)","Abbeville, France","50.105467","1.8368330000000697","","None","None","None","109","50, 84","","","Medium green","Rough in places, with polished patches on upper part of hilt (handle part).","40, 16","","","","2 rivet","","","Joellen mcGann","https://www.flickr.com/photos/115096994@N02/19163965826","https://farm1.staticflickr.com/318/19163965826_c7c71b6ed5_m.jpg","superuser",1.8368,50.1055,"ForeignSwordsMisc"
"41359","433","Hook","","Pitt Rivers Museum, Farnham","France,Seine & Oise,Paris (near),Label","Paris, France","48.856614","2.3522219000000177","","None","None","None","102","26","","28.35","Green","Rough","10","","","","","","","Joellen mcGann","https://www.flickr.com/photos/115096994@N02/19163948896","https://farm1.staticflickr.com/261/19163948896_99361a82c8_m.jpg","superuser",2.3522,48.8566,"ForeignSwordsMisc"
"41360","433","2 Mounts of Sword Scabbards","","Formerly M. de la Granciere,Sold at Sotheby's 23rd, July 1930,Lot 21, Nos. 87 [18], 88","France,Brittany,Morbihan,Couedic","Couédic, 56160, France","48.046404","-3.1914239999999836","","None","None","None","No. 87[18]: 42; No. 88: 38","","","","","","","","","Hoard, comprising also 4 pieces of sword blade, 1 point, 3 spear-heads, 5 winged celts & 2 fragments, 2 gouges, 2 pieces of bracelets, 1 coiled ring, 1 lump of metal. 21 small fragments, 12 potsherds, 2 fragments of soketed axe.","","Bull. Soc. Polym. Morbihan (Marsille, ""Inventaire des Depots de Bronze du Morbihan""),Not in 1913 list.","","Joellen mcGann","https://www.flickr.com/photos/115096994@N02/19193668051","https://farm1.staticflickr.com/476/19193668051_906dacbacd_m.jpg","superuser",-3.1914,48.0464,"ForeignSwordsMisc"
"41361","433","Spiral Ornament","","Musee Miln, Carnac,No. 30 (Le Rouzic)","France,Britanny,Morbihan,The Allee Couverte, Luffang, Crach, excavated Jan. 1898, Contained this little bronze spiral. Also a fragment of lead (there is no lead found in Brittany).,One of the supporters bears an incised shield (alias stylised octupus Z le R.) ""Signes"" fig. 1, p. 19, Carnac Musee.","Morbihan, France","47.8852929","-2.900186500000018","","None","1","1898","","","","","","","","","","","","","","Joellen mcGann","https://www.flickr.com/photos/115096994@N02/19002390460","https://farm1.staticflickr.com/495/19002390460_0b02f8a760_m.jpg","superuser",-2.9002,47.8853,"ForeignSwordsMisc"
"41362","433","Spiral Ornament","","Musee Miln, Carnac,(Bronze implements Case)","France,Brittany,Morbihan,Ploemel (N of Carnac, W. of Auray)","Ploemel, France","47.65102","-3.071643999999992","","None","None","None","","Approx. 41 x 45","","","","","14","","Heavy bronze","There is also a rough lump of copper 5 x 3 1/2 ins. from Ploemel (Z le Rouzic) (no further details).","","","","Joellen mcGann","https://www.flickr.com/photos/115096994@N02/19184227242","https://farm1.staticflickr.com/256/19184227242_11a562b049_m.jpg","superuser",-3.0716,47.651,"ForeignSwordsMisc"
"41363","433","Sword 4 fragments of blades","","Formerly M. de la Granciere,Sold at Sotheby's, 23rd July 1930,Lot 21, Nos. 82-5[13-16]","France,Brittany,Morbihan,Couedic","Couédic, 56160, France","48.046404","-3.1914239999999836","","None","None","None","","","","","","","","","","Hoard, comprising also 2 pieces of socketed axe, 1 point, 3 spear-heads, 2 mounts, 5 winged axes & 2 fragments, 2 gouges, 2 pieces of bracelets, 1 coiled ring, 1 lump of metal, 21 small fragments, 12 potsherds.","","Bull. Soc. Polym. Morbihan, date? ref? Not 1913 list.","","Joellen mcGann","https://www.flickr.com/photos/115096994@N02/19190031325","https://farm4.staticflickr.com/3864/19190031325_643caf5d7b_m.jpg","superuser",-3.1914,48.0464,"ForeignSwordsMisc"
"41364","433","Leaf-shaped sword","","Blackmoor Museum,15 on face","France,Lot et Garonne,Agen","Agen, France","44.203142","0.6163629999999785","","None","None","None","668","hilt 24, 37; blade 31","","604.5","pale green, olive in places","","blade 10","","","","","","","Joellen mcGann","https://www.flickr.com/photos/115096994@N02/18567484364","https://farm4.staticflickr.com/3668/18567484364_f5100bf45e_m.jpg","superuser",0.6164,44.2031,"ForeignSwordsMisc"
"41365","433","Leaf shaped sword","","Peabody Museum,16.469,Harvard University,Cambridge, Mass.,Received Dec. 1878,Collected by Clarence B. Moore","France,Seine & Oise,Paris,(Dredged)","Paris, France","48.856614","2.3522219000000177","","None","None","None","254","blade 33, hilt 43, 28, 8","","","Light patina on other side.","One side almost covered with encrustment.","9,8,2","","","","Below hilt, on blade, is a piece of bone adhering. 7 rivets & 1 hole without rivet. Rivets about 20mm long.","","","Joellen mcGann","https://www.flickr.com/photos/115096994@N02/19184153472","https://farm4.staticflickr.com/3677/19184153472_b36362369c_m.jpg","superuser",2.3522,48.8566,"ForeignSwordsMisc"
"41366","433","","","Lukis Museum, Guernsey","France","France","46.227638","2.213749000000007","","None","None","None","74","34","","238.41","Green brown. Green grey in the pits.","Deeply pitted. A little mud in the hollow.","34","","","","","","","Joellen mcGann","https://www.flickr.com/photos/115096994@N02/19189948485","https://farm4.staticflickr.com/3878/19189948485_dfc68200bf_m.jpg","superuser",2.2137,46.2276,"ForeignSwordsMisc"
"41367","433","Sword","","Pitt-Rivers Museum, Farnham","Greece,Corinth","Corinth, Greece","37.9386365","22.932238299999995","","None","None","None","693","hilt 63, 52; blade 31","","737.1","Some patina - green.","Rough - dark bronze","blade 6","","","","Edges damaged.","","","Joellen mcGann","https://www.flickr.com/photos/115096994@N02/18567401184","https://farm1.staticflickr.com/498/18567401184_07a4da73ae_m.jpg","superuser",22.9322,37.9386,"ForeignSwordsMisc"
"41368","433","Short Sword","","Private Collection,Thos. Allworthy, 16 Graysdun Rd., WL,31.5.20","Greece,Ionian Isles,Corfu","Corfu, Greece","39.6249838","19.922346100000027","","None","None","None","391","about 30","","283.5","Black + dark brown patina, bronze showing in places.","Smooth","about 5","","","","Raised concentric lines running down blade.","","","Joellen mcGann","https://www.flickr.com/photos/115096994@N02/19002323108","https://farm1.staticflickr.com/490/19002323108_fcfc099166_m.jpg","superuser",19.9223,39.625,"ForeignSwordsMisc"
"41369","433","Sword","","Private Collection,1923,Lord Howard de Walden,Belgrave Square, SW","Greece,Aegean,Rhodes,(said to have come from)","Rhodes, Greece","36.4349631","28.21748290000005","","None","None","None","382","blade 31.5, 35.5; hilt 43.5, 40","","240.97","Polished dark green (some blue) earth near hilt.","Slightly rough & a little encrusted.","blade 7; rivets 18.5","","","","Good preservation. The hilt appears to be of ivory & on one side what looks like pale greenish enamel, not at all damaged. End of hilt is capped with a dome of bronze with a ball top. Hilt is fastened with 4 dome headed rivets (A, B, C, & D) with a raised ring of ivory round each, on both sides. E & F are raised rings of ivory with drilled centres, E slightly corroded","","","Joellen mcGann","https://www.flickr.com/photos/115096994@N02/18569243233","https://farm1.staticflickr.com/283/18569243233_d702964811_m.jpg","only good record",28.2175,36.435,"ForeignSwordsMisc"
"41370","433","Pommel","","Liverpool Museum, 4603","Hungary,Locality unknown","Hungary","47.162494","19.50330400000007","","None","None","None","140","42, 29, 27","","333.11","Greyish green, unbroken.","Ornamented on alternate channels, with chevrons, etc. formed by double rows of dotted lines.","","","","","","","","Joellen mcGann","https://www.flickr.com/photos/115096994@N02/19163695036","https://farm1.staticflickr.com/309/19163695036_57102979d3_m.jpg","only good record",19.5033,47.1625,"ForeignSwordsMisc"
"41371","433","Rapier Blade Sword","","Cambridge Antiquarian Museum","Hungary","Hungary","47.162494","19.50330400000007","","None","None","None","540","hilt plate 42.5; blade 40, 21, 10","","264","Dark brown patina, some dark green, dust colour & in some places all mixed up & speckly.","Fairly smooth, slightly corroded.","7.5, 5","","","","The incised decoration is quite clean & very even.","Foster Bequest Catalogue: ""Rapier blade of elegant form, long + swelling gradually near hilt end + tapering again to a waist: hilt plate rounded above + with a short square tang below. Each side perforated with three rivet holes, set close to one another, cutting edge defined by a broad groove, faces sharply ridged down centre. In the swelling part of the blade are 3 grooves in each side of the central rib, starting from a point in the rib + parallel to the edges of the blade, converging on the hilt plate towards the bordering groove: between their extremities are 2 [volutes?] on line with the 2 sets of rivet holes.""","","Joellen mcGann","https://www.flickr.com/photos/115096994@N02/19002250538","https://farm4.staticflickr.com/3702/19002250538_14ba8a3cbc_m.jpg","superuser",19.5033,47.1625,"ForeignSwordsMisc"
"41372","433","Leaf shaped sword","","Hertfordshire County Museum, St. Albans,Lent by Capt. J. H. Ball, R.A.F","Hungary","Hungary","47.162494","19.50330400000007","","None","None","None","692","blade 47; hilt plate 53.5, 30, 22","","772.53","Dark olive green & shows in places.","Almost covered with a thin medium green encrustment: one side a much lighter shade","8, 10","","","","This is supposed to be 2 inches longer than any known specimens (vide Capt. Ball). The mid-rib extends right along blade. The arcs below hilt plate are incised. Edges are sharpened, this does not show very distinctly. No rivets.","","","Joellen mcGann","https://www.flickr.com/photos/115096994@N02/19193358911","https://farm1.staticflickr.com/486/19193358911_edafe70a5a_m.jpg","superuser",19.5033,47.1625,"ForeignSwordsMisc"
"41373","433","Sword","","Herts. Cty. Mus., St. Albans,Ball Collection","Hungary,Transylvania,Kronstadt,Seibenburgen","Brașov, Romania","45.666667","25.616667000000007","","None","None","None","391.5","blade 31; hilt 47, 33, 53","","198.44","Greeny brown matt.","Smooth, but somewhat encrusted.","4, 4.5, 2","","","","Pierced for 4 rivets, of which 2 remain.","","","Joellen mcGann","https://www.flickr.com/photos/115096994@N02/19183913142","https://farm4.staticflickr.com/3913/19183913142_715e836db6_m.jpg","superuser",25.6167,45.6667,"ForeignSwordsMisc"
"41374","433","Sword","","Farnham Museum, Dorset","Hungary","Hungary","47.162494","19.50330400000007","","None","None","None","467","blade 29; hilt 51, 25","","453.6","Black patina","Smooth","blade 5","","","","Edges slightly indented.","","","Joellen mcGann","https://www.flickr.com/photos/115096994@N02/19193290651","https://farm1.staticflickr.com/263/19193290651_19204a1eca_m.jpg","superuser",19.5033,47.1625,"ForeignSwordsMisc"
"41375","433","Sword","","Liverpool Museum, 4640M","Hungary,Locality unknown","Hungary","47.162494","19.50330400000007","","None","None","None","467.5; length of hilt 115","","","503.21","Blue green patina","","blade at hilt 7; hilt 40, 26","","","","Hilt made in two sections, joined in middle, the one half slightly overlaps the other. Channellings etc., on hilt, almost hidden by corrosion. Blade very slightly bent.","","","Joellen mcGann","https://www.flickr.com/photos/115096994@N02/19189676275","https://farm1.staticflickr.com/511/19189676275_d726f718f8_m.jpg","superuser",19.5033,47.1625,"ForeignSwordsMisc"
"41376","433","Sword","","Liverpool Museum, 4626","Hungary,Locality unknown","Hungary","47.162494","19.50330400000007","","None","None","None","654","blade 48","","1041.85","Dark green patina","","blade 10","","","","On blade are two bands of 8 incised lines. Edge slightly damaged, also tip of blade. Hilt through hilt top. Excellent preservation.","","","Joellen mcGann","https://www.flickr.com/photos/115096994@N02/18567121974","https://farm1.staticflickr.com/481/18567121974_37c79fcc1f_m.jpg","superuser",19.5033,47.1625,"ForeignSwordsMisc"
"41377","433","Mycenaean Sword","","Hertfordshire County Museum, St. Albans,Lent by Capt. Ball, RAF","Hungary","Hungary","47.162494","19.50330400000007","","None","None","None","668","blade 79; hilt 18.5, 48","","836.32","Medium to dark green.","Smooth. A little golden bronze shows. Traces of light earth.","blade up to 9; where hilt begins 15; hilt 4 (thickest)","","","","The hilt is flanged each side. Just below hilt, are two hollowed kidney shapes. Sharp edges - splendid preservation.","","","Joellen mcGann","https://www.flickr.com/photos/115096994@N02/19002046508","https://farm1.staticflickr.com/488/19002046508_ff54c259d3_m.jpg","superuser",19.5033,47.1625,"ForeignSwordsMisc"
"41378","433","Sword","","Liverpool Museum, 4627","Hungary,Locality unknown","Hungary","47.162494","19.50330400000007","","None","None","None","660","blade 42; hilt plate 65","","708.75","Light green patina mottled with gray & brown.","","blade 9.5 (max)","","","","Perfect preservation.","","","Joellen mcGann","https://www.flickr.com/photos/115096994@N02/19001999908","https://farm4.staticflickr.com/3720/19001999908_5affeb0b77_m.jpg","superuser",19.5033,47.1625,"ForeignSwordsMisc"
"41379","433","Sword","","Liverpool Museum,4628 M","Hungary,Locality unknown","Hungary","47.162494","19.50330400000007","","None","None","None","546.5","blade 47.5","","418.14","Black patina","","blade 8","","","","5 Rivets remain","","","Joellen mcGann","https://www.flickr.com/photos/115096994@N02/19193116501","https://farm1.staticflickr.com/346/19193116501_b0cff725a4_m.jpg","superuser",19.5033,47.1625,"ForeignSwordsMisc"
"41380","433","Sword","","Liverpool Museum 4629","Hungary,Locality unknown","Hungary","47.162494","19.50330400000007","","None","None","None","457","blade 32","","255.15","Black","","blade 5","","","","Hilt chipped. 1 rivet. Good preservation.","","","Joellen mcGann","https://www.flickr.com/photos/115096994@N02/19001824560","https://farm1.staticflickr.com/438/19001824560_75d8876147_m.jpg","superuser",19.5033,47.1625,"ForeignSwordsMisc"
"41381","433","Bronze Bar Spiral Design","","Horniman Museum,Forest Hill, SE,Bought from G.F. Lawrence","Italy","Italy","41.87194","12.567379999999957","","None","None","None","137","10","","42.5","No patina","Roughish light green - one end corroded.","6","","","","","","","Joellen mcGann","https://www.flickr.com/photos/115096994@N02/19001799740","https://farm4.staticflickr.com/3909/19001799740_355b3f15e2_m.jpg","superuser",12.5674,41.8719,"ForeignSwordsMisc"
"41382","433","Double Spiral","","Horniman Museum,Forest Hill, SE,Bought from G.F. Lawrence","Italy,Umbria,Lake Trasimeno","Lago Trasimeno, Province of Perugia, Italy","43.1295911","12.09468179999999","","None","None","None","55","34","","14.17","No patina","Smooth of light green rather corroded","3","","Bronze","","","","","Joellen mcGann","https://www.flickr.com/photos/115096994@N02/19193039161","https://farm1.staticflickr.com/520/19193039161_c2d737bc97_m.jpg","superuser",12.0947,43.1296,"ForeignSwordsMisc"
"41383","433","Ferrule","","Canterbury Museum,2079,Copeland Collection","Italy","Italy","41.87194","12.567379999999957","","None","None","None","121","socket 25","","85","Light green polished patina which is a little chipped near point.","Smooth","24.5 socket","","","","Octagonal in shape. 2 Rivet holes.","","","Joellen mcGann","https://www.flickr.com/photos/115096994@N02/19183615502","https://farm1.staticflickr.com/329/19183615502_8395fa8287_m.jpg","superuser",12.5674,41.8719,"ForeignSwordsMisc"
"41384","433","Sword","","Private Collection,1923,Lord Howard de Walden,Belgrave Square, SW","Italy","Italy","41.87194","12.567379999999957","","None","None","None","681","blade 114","","2693.25","Dark green patina a good deal covered with clay.","Smooth","tang 21, blade 37","","","","End of tang is hammer marked & slightly bent. End of blade is very slightly bent.","","","Joellen mcGann","https://www.flickr.com/photos/115096994@N02/19193000471","https://farm1.staticflickr.com/464/19193000471_6290f22e4d_m.jpg","superuser",12.5674,41.8719,"ForeignSwordsMisc"
"41385","433","Ferrale of Spear","","Herts Cty. Museum, St. Albans,Ball Collection","Rumania,Transylvania,Mohlbach","Sebeș, Romania","45.96","23.569999999999936","","None","None","None","178.5","socket 21.5","","141.75","Dark brown matt","smooth","socket 22","","","","Tubular in construction. 2 Rivet holes.","","","Joellen mcGann","https://www.flickr.com/photos/115096994@N02/18568753083","https://farm1.staticflickr.com/349/18568753083_777fa59671_m.jpg","superuser",23.57,45.96,"ForeignSwordsMisc"
"41386","433","Sword","","The late Edward Dent,Sold at Sotheby's, 23.vii.30,Lot 8","?Russia,?Baltic Provinces","Russia","61.52401","105.31875600000001","","None","None","None","","","","","","Blue-green colour, much decayed.","","","","","In 3 pieces. Lower part of blade missing. Strong ribbed below hilt. Broad semicircular pommel with 7 faint circular depressions. Flanged grip with 3 rivets remaining.","","","Joellen mcGann","https://www.flickr.com/photos/115096994@N02/18566825724","https://farm1.staticflickr.com/437/18566825724_e8e84336f1_m.jpg","superuser",105.3188,61.524,"ForeignSwordsMisc"
"41387","433","Cup?","","""Planes"" Mallorca.","Spain,Balearic Islands (Majorca),near Felanitx,Santany","Santañy, 07659 Se Torre Nova, Illes Balears, Spain","39.327484","3.150567899999942","","None","None","None","118","88","","","","","","","","","Thin, no edge - apparently section of a cup.","","","Joellen mcGann","https://www.flickr.com/photos/115096994@N02/19001761798","https://farm1.staticflickr.com/292/19001761798_13748589a5_m.jpg","superuser",3.1506,39.3275,"ForeignSwordsMisc"
"41388","433","Leaf Shaped Sword","","""Planes"", Mallorca","Spain,Balearic Islands,Mallorca,?(San Horne de Son Sunyer)","Majorca, Spain","39.613498","2.911651500000062","","None","None","None","750","hilt plate 59; blade 51","","","Rich green","Corroded","","","","","Hilt is a separate casting & a very good fit & not so corroded as blade.","","There are portions of 2 other swords. The sketch shows part with similar hilt. The other is a blade only. Also a dagger blade.","Joellen mcGann","https://www.flickr.com/photos/115096994@N02/19001743038","https://farm1.staticflickr.com/382/19001743038_4683eb383a_m.jpg","superuser",2.9117,39.6135,"ForeignSwordsMisc"
"41389","433","Bronze Leaf Sword","Cast Bronze Hilted","Moyses Hall Museum,Bury St. Edmunds,F 31,(Acton Collection),PUrchase of J. D. Cowen, Esq.,35 Argyle Road, W.8,January 1958","Believed Suffolk","Suffolk, UK","52.1872472","0.9707800999999563","","None","None","None","616","Blade 41","","630.78","Blade pited patina green all over.","Fair","blade 7","Weight: 22.1/4 oz = 630.78 gms","Bronze","","Blade Bronze, Bevel if any? now gone. Hilt also of Bronze, two rivets, decorated. Bronze Pommel decorated  (May be blade terminal) (Repaired by plates.)","","While appears original except for repair plates on blade below handle","Joellen mcGann","https://www.flickr.com/photos/115096994@N02/19003122879","https://farm1.staticflickr.com/488/19003122879_a5dc4b06a4_m.jpg","superuser",0.9708,52.1872,"ForeignSwordsMisc"
"41390","433","Ferrule","","ex. R.W. Kennerd's,Sotheby's Sale, 25-6.iii.30,Lot 48","Switzerland,Lake Dwellings","Switzerland","46.818188","8.227511999999933","","None","None","None","47","27","","","","","socket 13","","","","","Sotheby's Catalogue, 25.iii.30; p. 7","","Joellen mcGann","https://www.flickr.com/photos/115096994@N02/18568634223","https://farm1.staticflickr.com/390/18568634223_7372161c27_m.jpg","superuser",8.2275,46.8182,"ForeignSwordsMisc"
"41391","433","Pendant","","Private Collection,Professor Sir Lucas White-King, CSI, LLD, FSA,Late of Roebuck Hall, Co. Dublin,Sold by auction at Sotheby's, 9.11.21,Lot 115","Switzerland,Swiss Lake Dwellings,Onnens,?Concise","Onnens, Switzerland","46.8396252","6.686404799999991","","None","None","None","70","47.5, 16","","","No patina","Greyish black colour","4 to 5","","","","Looks like lead.","","","Joellen mcGann","https://www.flickr.com/photos/115096994@N02/18566706494","https://farm1.staticflickr.com/267/18566706494_29d8737c73_m.jpg","superuser",6.6864,46.8396,"ForeignSwordsMisc"
"41392","433","Leaf Shaped Sword","","Christie's Sale, 14.7.24,60/3,Late Earl of Northesk (Rosehill Collection)","Switzerland,Swiss Lakes","Switzerland","46.818188","8.227511999999933","","None","None","None","220","blade 27","","","Almost black, with brown patches.","Very rough","blade 7","","","","","","","Joellen mcGann","https://www.flickr.com/photos/115096994@N02/19003070759","https://farm1.staticflickr.com/377/19003070759_4895cdf273_m.jpg","superuser",8.2275,46.8182,"ForeignSwordsMisc"
"41393","433","Sword, Fragment of blade","","ex R. W. Kennard's,Sotheby's Sale, 25-6.iii.30,Lot 48","Switzerland,Lake Dwellings","Switzerland","46.818188","8.227511999999933","","None","None","None","83","39","","","","","8","","","","","Sotheby's Catalogue, 25.iii.30, p. 7","","Joellen mcGann","https://www.flickr.com/photos/115096994@N02/19183383122","https://farm1.staticflickr.com/356/19183383122_79aa7c66e5_m.jpg","superuser",8.2275,46.8182,"ForeignSwordsMisc"
"41394","433","Sword","","Christie's Sale,14.7.24, 60,Late Earl of Northesk,(Rosehill Collection)","Switzerland,Swiss Lakes","Switzerland","46.818188","8.227511999999933","","None","None","None","435","blade 38, 47","","","Almost black, covering a very thick green, rust brown on reverse.","Much flaked & worn","blade 9","","","","Point broken off.","","","Joellen mcGann","https://www.flickr.com/photos/115096994@N02/19183360412","https://farm1.staticflickr.com/330/19183360412_baafe0907d_m.jpg","superuser",8.2275,46.8182,"ForeignSwordsMisc"
"41395","580","Leaf shaped sword","","Christie's Sale, 14. 7. 24.,Rosehill Collection 58. 45/1.,late Earl of Northesk","Switzerland,Swiss Lakes","Suisse","46.818188","8.227511999999933","considered a fake","None","None","None","592","hilt 64; 51,blade 48","","","thick patina, dark green","smooth","blade 6","","","","The rivets are fastened into dome shaped heads, which are dark golden bronze. The hilt is decorated with rings of raised small bosses. Hilt plates of metal rivetted to blade. the joins show along the edges.","","considered a fake","Denis Antoine","https://www.flickr.com/photos/115096994@N02/19003000029","https://farm1.staticflickr.com/486/19003000029_5c3569256b_m.jpg","superuser",8.2275,46.8182,"ForeignSwordsMisc"
"41396","580","Sword","","Christie's Sale, 14. 7. 24. 60.,late Earl of Northesk. (Rosehill Collection)","Switzerland,Swiss Lakes","Suisse","46.818188","8.227511999999933","","None","None","None","296; 218","blade 23; 28","","","very dark green with brown patches on reverse, & brighter green.","smooth & slightly pitted.","blade 4; 7","","","","In two pieces. each is mended.","","","Denis Antoine","https://www.flickr.com/photos/115096994@N02/18568463173","https://farm4.staticflickr.com/3842/18568463173_2d43c76400_m.jpg","superuser",8.2275,46.8182,"ForeignSwordsMisc"
"41397","580","","","Chadwick Museum, Bolton.","Switzerland,Canton Friburg,Montellier (Lake Morat)","Montilier, Suisse","46.9352217","7.123741800000062","","None","None","None","","50; aperture 24","","136","","","17","","Bronze","","","","","Denis Antoine","https://www.flickr.com/photos/115096994@N02/19183184842","https://farm1.staticflickr.com/357/19183184842_51e9e2a2a8_m.jpg","superuser",7.1237,46.9352,"ForeignSwordsMisc"
"41398","580","","","Christie's Sale, 14. 7. 24.,late Earl of Northesk (Rosehill Collection) 55/3.","Switzerland,Swiss Lakes.","Suisse","46.818188","8.227511999999933","","None","None","None","160","40; 62","","","very dark brown & some light grey patina.","","6; 12","","","","The blade & the broken blade, are like parts of leaf shaped swords. End of blade, tapers to an edge apparently. Burred over at the thick end. The edges are notched. Some look like modern cust.","","","Denis Antoine","https://www.flickr.com/photos/115096994@N02/18568351853","https://farm1.staticflickr.com/512/18568351853_3ef15706f3_m.jpg","superuser",8.2275,46.8182,"ForeignSwordsMisc"
"41399","580","Javelin?","","Private Collection,Professor Sir Lucas White-King, CSI, LLD, FSA,late of Roebuck Hall, Co Dublin.,Sold by Auction at Sotheby's. 9. 11. 21. Lot 115.","Swiss Lake Dwellings,Onnens,? Concise","Onnens, Suisse","46.8396252","6.686404799999991","","None","None","None","144.5","blade 16.5,stem 7; 6","","","","smooth. dull dark golden bronze.","3.25; 8.5; 6","","","","","","","Denis Antoine","https://www.flickr.com/photos/115096994@N02/18566427784","https://farm1.staticflickr.com/312/18566427784_062e1995d1_m.jpg","only good record",6.6864,46.8396,"ForeignSwordsMisc"
"41400","580","Sword","","H.S. Cooper Collection, Hawkshead.,bought D. Marc. Samos. 1901.","Turkey,Aegean Sea,Samos I,Castania","Turquie","38.963745","35.243322000000035","","None","None","None","604","blade 31; 42","","357.37","dark green","","7; 8","","","? found with Bronze Statuette.","Condition good","Journ. Hellenic Studies XXIX 194.","","Denis Antoine","https://www.flickr.com/photos/115096994@N02/19001363598","https://farm1.staticflickr.com/431/19001363598_e89f9ec01e_m.jpg","superuser",35.2433,38.9637,"ForeignSwordsMisc"
"41401","433","Hilt Top","","Peabody Museum,E2318,Harvard University,Cambridge, Mass.,Bequest of Prof. Hy. W. Haynes.,1912","Locality unknown","",,,"","None","None","None","47","top 45 x 50","","","Green - giving it the appearance of jade","Smooth. Some breccia spots","","","","","","","","Joellen mcGann","https://www.flickr.com/photos/115096994@N02/18568260223","https://farm1.staticflickr.com/407/18568260223_bfcbbb19f4_m.jpg","superuser",,,"ForeignSwordsMisc"
"41402","433","Pommel","","Private Collection,1924,H. Mothersole Esq.,Warren House, Roxwell Road, Chelmsford","Locality unknown","",,,"","None","None","None","54.5","27","","57.58","Medium olive green.","Smooth. Clay adheres.","15","","","","At the top is a circular hole which joins an opening 40mm long at the edge, + 7mm at widest point.","","Bought from a Marine Stores, Chelmsford. In white paint: Essex","Joellen mcGann","https://www.flickr.com/photos/115096994@N02/18566332384","https://farm1.staticflickr.com/262/18566332384_0544231ccf_m.jpg","superuser",,,"ForeignSwordsMisc"
"41403","433","Sword Pommel","","Pitt Rivers Museum, Farnham,From the Graffenried + Egger Collection","Locality unknown","",,,"","None","None","None","31","55 x 52","","113.39","","","16, 23; socket 23, 12","","Bronze","","Surface dark bronze","","","Joellen mcGann","https://www.flickr.com/photos/115096994@N02/19183030272","https://farm1.staticflickr.com/550/19183030272_0fd20b922b_m.jpg","superuser",,,"ForeignSwordsMisc"
"41404","433","Sword","","Herts Cty. Museum, St. Albans,Ball Collection","Yugoslavia,Carniola,Sittich (E. of Laibach)","1295 Stična, Slovenia","45.956148","14.807107299999984","","None","None","None","470","blade 37.5, 45; hilt 32.5, 58","","403.96","Patches of green","Rough, very encrusted","blade 6.5; hilt 8, 4","","","","Rivet lengths: A: 4mm; B: 4.5mm; C: 7mm; D: 11mm. Each side of central rib is decorated with incised lines. Four iron Rivets in hilt.","","","Joellen mcGann","https://www.flickr.com/photos/115096994@N02/19188820235","https://farm1.staticflickr.com/389/19188820235_0451dedb37_m.jpg","superuser",14.8071,45.9561,"ForeignSwordsMisc"
