"taskID","userID","objectType","rightCorner","collection","site","toSearch","Lat","Lon","gridRef","dateDiscoveryDay","dateDiscoveryMonth","dateDiscoveryYear","length","width","edge","weight","patina","surface","thickness","other","composition","associations","description","publications","remarks","inputBy","imageURL","flickrURL","Processing","lon","lat","project"
"44898","580","Hatchet-shaped Socketed Axe","","Sotheby's Sale, 19. 11. 24. 625.,Collection of W.J. Knowles, MRIA, of Flixton Place, Ballymena.","Ireland,Antrim,Ballymoney,label ""got 30 years ago when draining ? Basin Mr. Banory.""","Ballymoney, Ballymoney, Ballymoney BT53, Royaume-Uni","55.0704888","-6.517370799999981","","None","None","None","79","socket 47","78","","","smooth, dark brown bronze, with black stains.","socket 31","","","","Heavy cast marks.","","","Denis Antoine","https://www.flickr.com/photos/115096994@N02/20845014163","https://farm6.staticflickr.com/5727/20845014163_90810617be_m.jpg","superuser",-6.5174,55.0705,"IrishAxesPt2"
"44899","580","Hatchet-shaped Socketed Axe","Hatchet II3","Herts County Museum, St. Albans,lent by Capt. J.H. Ball, RAF","Ireland,Co Antrim,Belfast,River Lagan,1900","Belfast, Belfast, Royaume-Uni","54.59728500000001","-5.930119999999988","","None","None","1900","64","socket 40","52.5","113","traces of patina dark green round loop & on the other side.","smooth, golden bronze colour. (cleaned) Probably filed.","socket 29","","","","","","","Denis Antoine","https://www.flickr.com/photos/115096994@N02/21455124212","https://farm1.staticflickr.com/563/21455124212_ca4691686f_m.jpg","superuser",-5.9301,54.5973,"IrishAxesPt2"
"44900","580","Socketed Celt","UII3","Bishop Collection,B39,The University, Glasgow","Ireland,Co Antrim","Antrim, Royaume-Uni","54.666248","-6.286465899999939","","None","None","None","77","socket 33","30","113.1","","deeply encrusted","31","","","","Poor condition","","","Denis Antoine","https://www.flickr.com/photos/115096994@N02/21278053600","https://farm6.staticflickr.com/5656/21278053600_8ee8453a45_m.jpg","superuser",-6.2865,54.6662,"IrishAxesPt2"
"44901","580","Socketed Celt","UII3","Sotheby's Sale, 19. 11. 24. 628.,Collection of W.J. Knowles, MRIA, of Flixton Place, Ballymena.","Ireland,Co Antrim","Antrim, Antrim, Royaume-Uni","54.7195338","-6.2072498","","None","None","None","74","socket 23","41","","polished patina dark emerald green","smooth. Corner of edge, back of loop & rim of socket are powdery light green","socket 26","","","","Very square socket","","","Denis Antoine","https://www.flickr.com/photos/115096994@N02/21455123922","https://farm6.staticflickr.com/5773/21455123922_89df148696_m.jpg","superuser",-6.2072,54.7195,"IrishAxesPt2"
"44902","580","Socketed Celt","UII-frag","Sotheby's Sale, 19. 11. 24. 619.,Collection of W.J. Knowles, MRIA, of Flixton Place, Ballymena.","Ireland,Antrim,Armoy, near,label","Armoy, Ballymoney, Moyle BT53, Royaume-Uni","55.13087849999999","-6.3270751999999675","","None","None","None","42","socket 23","26","","thin patina dark green, & golden bronze on one side. On other side patina is a lighter green, partly through corrosion.","fairly smooth, very slightly corroded.","below loop 11","","","","","","","Denis Antoine","https://www.flickr.com/photos/115096994@N02/20845014343","https://farm1.staticflickr.com/754/20845014343_3df77d68d5_m.jpg","superuser",-6.3271,55.1309,"IrishAxesPt2"
"44903","580","Socketed Celt","UI3","Herts County Museum, St. Albans,lent by Capt. J.H. Ball, RAF,74","Ireland,Co Antrim,Portglenone","Portglenone, Ballymena, Ballymena BT44, Royaume-Uni","54.8730813","-6.474459600000046","","None","None","None","70","socket 39","52.5","141.75","pale light green, with golden bronze showing.","slightly rough, caused by close pittings nearly all over.","socket 35","","","","Decorated with two thin bands & a raised centre band between these, but this is very indistinct.","","","Denis Antoine","https://www.flickr.com/photos/115096994@N02/21279195149","https://farm6.staticflickr.com/5715/21279195149_ebd629998d_m.jpg","superuser",-6.4745,54.8731,"IrishAxesPt2"
"44904","580","Socketed Celt","UI3","Sotheby's Sale, 19. 11. 24. 623.,Collection of W.J. Knowles, MRIA, of Flixton Place, Ballymena.","Ireland,Antrim? (label)","Irlande","53.41291","-8.243889999999965","","None","None","None","92.5","socket 48","59","","dirty pale green.","very pitted with large holes all over. matte surface in consequence.","socket 46","","","","At bottom of socket (inside) is a rib on each side.","","","Denis Antoine","https://www.flickr.com/photos/115096994@N02/21439881136","https://farm6.staticflickr.com/5641/21439881136_7a0cfd5479_m.jpg","superuser",-8.2439,53.4129,"IrishAxesPt2"
"44905","433","Socketed Celt","UI3","Sotheby's Sale, 19.11.24,628,Collection of W. J. Knowles, MRIA of Flixton Place, Ballymena","Ireland,Co. Antrim","Antrim, Antrim, UK","54.7195338","-6.2072498","","None","None","None","96","socket 41","49","","dull aptina medium gree. Dark golden bronze shows.","a little rough","socket 35","","","","","","","Joellen mcGann","https://www.flickr.com/photos/115096994@N02/21279194809","https://farm6.staticflickr.com/5723/21279194809_c3ac4bf2b0_m.jpg","superuser",-6.2072,54.7195,"IrishAxesPt2"
"44906","433","Socketed Celt","UI3","Sotheby's Sale, 19.11.24,620,Collection of W. J. Knowles, MRIA, of Flixton Place, Ballymena","Ireland,Co. Antrim,Kells","Kells, Ballymena, Ballymena BT42, UK","54.8082636","-6.221372599999995","","None","None","None","90.5","socket 40.5","55.5","","Thick patina dark green on one side. The other side if lighter green at edge and then darker.","slightly pitted","socket 37.5","","","","","","","Joellen mcGann","https://www.flickr.com/photos/115096994@N02/21474678751","https://farm6.staticflickr.com/5690/21474678751_937300c9b9_m.jpg","superuser",-6.2214,54.8083,"IrishAxesPt2"
"44907","433","Unlooped Socketed Celt","","British Museum, W.G. 1585","Ireland,Antrim,Clough","Clough, Ballymena, Ballymena BT44, UK","54.96622","-6.289160000000038","","None","None","None","72","socket 30","38","81.21","Dark brown.","Much broken away.","socket 23","","","","Edge chipped. Top of socket is fluted.","","","Joellen mcGann","https://www.flickr.com/photos/115096994@N02/20843396074","https://farm6.staticflickr.com/5807/20843396074_c441aed601_m.jpg","superuser",-6.2892,54.9662,"IrishAxesPt2"
"44908","433","Socketed Celt","UII3","Manchester Museum,L56,Bought of G. C. yates,(ex Glenny Collection)","Ireland,Co. Armagh,Newry","Newry, Newry, Newry and Mourne, UK","54.1751024","-6.34022989999994","","None","None","None","75","socket 36","40","134.65","Slight olive green patina with dark golden bronze showing a good deal on the smoother side.","Fairly smooth. Fairly large pock holes - mostly on one side.","socket 31.5","","","","","","","Joellen mcGann","https://www.flickr.com/photos/115096994@N02/21439880756","https://farm1.staticflickr.com/726/21439880756_5246106050_m.jpg","superuser",-6.3402,54.1751,"IrishAxesPt2"
"44909","433","Socketed Celt","UIII2","Museum of Archaeology & Ethnology, Cambridge,Read Gift,1289","Ireland,Co. Armagh,near Armagh,Navan Rath","Armagh, Armagh, Armagh, UK","54.3502798","-6.652791999999977","","None","None","None","71","socket 33","37","92.13","No patina","Rough dark brown","","","","","","","","Joellen mcGann","https://www.flickr.com/photos/115096994@N02/21278052800","https://farm1.staticflickr.com/577/21278052800_24ffb912bd_m.jpg","superuser",-6.6528,54.3503,"IrishAxesPt2"
"44910","433","Socketed Axe","UI3","Carlisle Museum,No. R39","Ireland,Armagh","Armagh, Armagh, Armagh, UK","54.3502798","-6.652791999999977","","None","None","None","74","socket 38","49","160","Black patina; white marks","Fairly rough","socket 31","","","","","","","Joellen mcGann","https://www.flickr.com/photos/115096994@N02/21278052790","https://farm6.staticflickr.com/5651/21278052790_9bc7edde75_m.jpg","superuser",-6.6528,54.3503,"IrishAxesPt2"
"44911","433","Socketed Celt","UI3","Carlisle Museum, R39, 236","Ireland,Armagh","Armagh, Armagh, Armagh, UK","54.3502798","-6.652791999999977","","None","None","None","75.5","socket 38","50","150","Black patina white marks","Fairly rough","socket 31","","","","","","","Joellen mcGann","https://www.flickr.com/photos/115096994@N02/21474677961","https://farm6.staticflickr.com/5751/21474677961_31c0dc43cd_m.jpg","superuser",-6.6528,54.3503,"IrishAxesPt2"
"44912","433","Socketed Celt","UII1","Borough of Newbury Museum,Donor Mr. W. D. Smith","Ireland,Co. Carlow,exact site unknown","Carlow, Ireland","52.8365072","-6.934135900000001","","None","None","None","117","socket 46","66","453.6","","Eaten away near loop. Part of surface is cork like and has probably been exposed to water. Black on one side, dull bronze colour on the other.","socket 40","","","","Has been crushed at centre.","","","Joellen mcGann","https://www.flickr.com/photos/115096994@N02/21279194099","https://farm1.staticflickr.com/587/21279194099_70ca67a568_m.jpg","superuser",-6.9341,52.8365,"IrishAxesPt2"
"44913","433","Socketed Celt","UII2","Salisbury, S. Wilts. and Blackmore Museum,426 Brackstone Collection,31 on face, B426 on side.","Ireland,Co. Clare","Co. Clare, Ireland","52.86245280000001","-9.047164500000008","","None","None","None","75","socket 37","42","113.75","brown","","socket 34","","","","","","","Joellen mcGann","https://www.flickr.com/photos/115096994@N02/21278052810","https://farm6.staticflickr.com/5758/21278052810_65be20983c_m.jpg","superuser",-9.0472,52.8625,"IrishAxesPt2"
"44914","433","Dirk/Dagger","?A","British Museum, 1905.11-6.2","Wales,Clwyd,Wrexham","Wrexham, Wrexham, Wrexham, UK","53.04304","-2.992493999999965","SJ3350","None","None","None","","","","","","","","","","","Trapezoid butt + 4 rivet holes. Sharp","","CI","Joellen mcGann","https://www.flickr.com/photos/115096994@N02/21278266158","https://farm1.staticflickr.com/602/21278266158_2e7db8fb6e_m.jpg","superuser",-2.9925,53.043,"IrishAxesPt2"
"44915","433","Spearhead (Socketed)","O","British Museum, W. G. 2008","Wales,Clwyd,Llantisilio","Llantysilio, Llangollen, Denbighshire LL20, UK","52.983603","-3.2017530000000534","SJ 19 43","None","None","None","","","","","","","","","","","","","CI","Joellen mcGann","https://www.flickr.com/photos/115096994@N02/21279193749","https://farm1.staticflickr.com/645/21279193749_d1baaea5c6_m.jpg","superuser",-3.2018,52.9836,"IrishAxesPt2"
"44916","433","Socketed Celt","UI2","Herts. County Museum, St. Albans,Ball Collection","Ireland,Co. Cork,Blackrock","Blackrock, Cork, Ireland","51.8939598","-8.403280399999971","","None","None","None","70.5","socket 35","47","155.92","Faint patina","Smooth, slightly pocked","socket 33.5","","","","","","","Joellen mcGann","https://www.flickr.com/photos/115096994@N02/21455122792","https://farm1.staticflickr.com/635/21455122792_499e6549ac_m.jpg","superuser",-8.4033,51.894,"IrishAxesPt2"
"44917","433","Socketed Celt","UI3","Horniman Museum,Forest Hill SE,Bought from the Backhouse Collection","Ireland,Co. Cork","Co. Cork, Ireland","51.9884699","-8.764363099999969","","None","None","None","75","socketed end 33","41","127.57","No patina","smooth, mostly golden bronze","socketed end 25","","","","","","","Joellen mcGann","https://www.flickr.com/photos/115096994@N02/21439880096","https://farm1.staticflickr.com/678/21439880096_e310e174c0_m.jpg","superuser",-8.7644,51.9885,"IrishAxesPt2"
"44918","433","Chisel ? Cast Fragment","","Sotheby's Sale, 19.11.24,667,Collection of W. J. Knowles, MRIA of Flixton Place, Ballymena","Ireland,Co. Derry,Glenone (supposed),Label","Londonderry, Londonderry, Derry, UK","54.9966124","-7.308574799999974","","None","None","None","116.5","","29","","Thin patina dark green","Smooth","20","","","","Filed at edge. A hollow on face and a deeper one on other side.","","","Joellen mcGann","https://www.flickr.com/photos/115096994@N02/21279193509","https://farm1.staticflickr.com/741/21279193509_c6aa3d360e_m.jpg","superuser",-7.3086,54.9966,"IrishAxesPt2"
"44919","433","Socketed Celt","UII3","Museum of Archaeology & Ethnology, Cambridge,41.154.28 (on implement)","Ireland,Co. Donegal,Castlefinn","Castlefinn, Co. Donegal, Ireland","54.802999","-7.589581400000043","","None","None","None","56","socket 35.5","43","111","Grey-brown patina.","Smooth + dull.","socket 30","","","","Ornamented with screw-like pattern around the socket. 5-6 ridges with grooves between. Square evenly finished sides. Sharp cutting edge. Loop is also square in section.","No. 41, Foster Bequest Catalogue,No. 78 Prehistoric Bronzes - catalogue is lost","","Joellen mcGann","https://www.flickr.com/photos/115096994@N02/21278265928","https://farm1.staticflickr.com/578/21278265928_531e009b6f_m.jpg","superuser",-7.5896,54.803,"IrishAxesPt2"
"44920","580","Socketed Celt","Other","Horniman Museum,Forest Hill, SE.,bought from the Backhouse collection","Ireland,Co Down","Comt√© de Down, Royaume-Uni","54.3412911","-5.748485399999936","","None","None","None","65","socket 34","40","99.22","no patina","fairly smooth, dark brown colour.","socket 28","","","","very well preserved","","Recalls Nordic type of M. F. Spreckhop, Hortfunde V, [...]. 6, 1, 3; [...]. 9, 10; Broholm Danmarks [...] IV, 72-3, pt16, 93 [...] Sweden Antiquities [...] 1125, 1129, a are less simple.","Denis Antoine","https://www.flickr.com/photos/115096994@N02/21278051780","https://farm6.staticflickr.com/5763/21278051780_5d91d0b0c9_m.jpg","superuser",-5.7485,54.3413,"IrishAxesPt2"
"44921","580","Socketed Celt","UI1","British Museum,WG. 1558.","Ireland,Co Down,Dromore","Dromore, Dromore, Banbridge BT25, Royaume-Uni","54.41449660000001","-6.149396499999966","","None","None","None","94","socket 46","72","330.52","","dull bronze, with black marks.","socket 40","","","","","","","Denis Antoine","https://www.flickr.com/photos/115096994@N02/21278051720","https://farm1.staticflickr.com/604/21278051720_87700a4e96_m.jpg","superuser",-6.1494,54.4145,"IrishAxesPt2"
"44922","580","Sockted Celt","UI3","National Museum, Dublin,Collection of the Royal Irish Academy,54:1916","Ireland,Rossconor,Drumballymoney,Co Down,Doron,Drumballymoney,Rossconor","Rossconor Cl, Downpatrick, County Down BT30 9DY, Royaume-Uni","54.36366409999999","-5.774034000000029","","None","None","None","126","at mouth of socket 40; breadth at centre 37","","","","","","","bronze","","","","","Denis Antoine","https://www.flickr.com/photos/115096994@N02/20845012003","https://farm1.staticflickr.com/659/20845012003_f610ed22ba_m.jpg","superuser",-5.774,54.3637,"IrishAxesPt2"
"44923","580","Socketed Celt","UII1","Herts County Museum, St. Albans,lent by Capt. J.H. Ball, RAF,79.,(from the Day Sale, Lot 245).","Ireland,Co Fermanagh,Lough Erne","Lough Erne","54.4790631","-7.79528700000003","","None","None","None","79","socket 42.25","45.5","198.44","polished patina dark green.","smooth","socket 33","","","","Well preserved. Decorated with 4 strands of twisted ccord pattern.","","","Denis Antoine","https://www.flickr.com/photos/115096994@N02/21466091515","https://farm1.staticflickr.com/650/21466091515_dd7bd41366_m.jpg","superuser",-7.7953,54.4791,"IrishAxesPt2"
"44924","580","Socketed Axe","UII2","The Duke of Westminster, The Grosvenor Office, 53 Davies Street, London, W.1.","Ireland,Co Fermanagh,Gillies River.","Fermanagh, Royaume-Uni","54.4513524","-7.712501800000041","","None","None","1964","81","","4.5","","","","","","","","","","Found in 1964. Remains of wood in socket.","Denis Antoine","https://www.flickr.com/photos/115096994@N02/21455121972","https://farm6.staticflickr.com/5677/21455121972_abca6b360a_m.jpg","superuser",-7.7125,54.4514,"IrishAxesPt2"
"44925","580","Socketed Celt","UI2","British Museum,68 8 5 11,given by A.W. Franks 1868.","Ireland,Fermanagh,Ballynamall","Fermanagh, Royaume-Uni","54.4513524","-7.712501800000041","","None","None","None","104","socket 50","60","455.6","greenish brown.","rough. Large patch eaten away below socket collar & smaller patch above, on reverse.","socket 47","Found it there ! ""The Socketed Bronze Axes in Ireland"" Par George Eogan - p. 38, No. 166. Just type ""ballynamall, fermanagh"" in google.","","","Cast marks on socket.","","","Denis Antoine","https://www.flickr.com/photos/115096994@N02/21439879426","https://farm1.staticflickr.com/711/21439879426_324d813bfe_m.jpg","superuser",-7.7125,54.4514,"IrishAxesPt2"
"44926","433","Socketed Celt","UII2","British Museum, 66.6-27.78","Ireland,Co. Galway,near Tuam,1811","Tuam, Co. Galway, Ireland","53.51798789999999","-8.855627499999969","","None","None","1811","114","socket 46","71.5","377.63","Some dark green patina","Corroded in places.","socket 41","","","","The loop is worn, the ends are splayed. Ribs inside socket. Top of socket worn.","","","Joellen mcGann","https://www.flickr.com/photos/115096994@N02/21474676431","https://farm1.staticflickr.com/586/21474676431_fe59440e72_m.jpg","superuser",-8.8556,53.518,"IrishAxesPt2"
"44927","433","Socketed Celt","UII3","Private Collection,1923,Miss Evelyn Portal,Freemantle, Over-Wallop, Hampshire,Given to her father by Lord Clonbrock","Ireland,Galway,Ahascragh,on the Clonbrock estate,1850-1860","Ahascragh, Co. Galway, Ireland","53.3976127","-8.334631800000011","","None","None","1850","79","37 socket","48","155.92","Brown patina slightly rubbed in one place: faint green stains","","32 socket","","","","","","","Joellen mcGann","https://www.flickr.com/photos/115096994@N02/21278265208","https://farm6.staticflickr.com/5759/21278265208_780ea2e410_m.jpg","superuser",-8.3346,53.3976,"IrishAxesPt2"
"44928","433","Hatchet-Shaped Socketed Axe","3","Alnwick Castle, No. 361","Ireland","Ireland","53.41291","-8.243889999999965","","None","None","None","68","socket 28 x 40","66","203.7","Bronze & brown patina","Smooth","","","","","Ornamented with raised lines.","","","Joellen mcGann","https://www.flickr.com/photos/115096994@N02/20845011573","https://farm6.staticflickr.com/5694/20845011573_d0ebb85414_m.jpg","superuser",-8.2439,53.4129,"IrishAxesPt2"
"44929","433","Hatchet Shaped Socketed Axe","Hatchet 3","Sotheby's Sale, 19.11.24,624,Collection of W. J. Knowles, MRIA of Flixton Place, Ballymena","Ireland,Label: Mile from Battery on Larne Road","Larne Rd, Ballynure, Ballyclare BT39 9UD, UK","54.7945461","-5.9330413000000135","","None","None","None","58","socket 38.5","48.5","","Thick pale olive green","Smooth. Slightly pocked.","socket 26.5","","","","Cast marks show.","","","Joellen mcGann","https://www.flickr.com/photos/115096994@N02/21278264918","https://farm1.staticflickr.com/703/21278264918_7bebe364f9_m.jpg","superuser",-5.933,54.7945,"IrishAxesPt2"
"44930","433","Hatchet-Shaped Socketed Axe","Hatchet 2","British Museum, 73.2-10.7","Ireland","Ireland","53.41291","-8.243889999999965","","None","None","None","86","socket 41","71","239.63","Dull brown with black patches","Slightly rough","socket 32","","","","Small groove round socket. Remains of splayed loop.","","","Joellen mcGann","https://www.flickr.com/photos/115096994@N02/21278264808","https://farm6.staticflickr.com/5808/21278264808_ba361d2c7f_m.jpg","superuser",-8.2439,53.4129,"IrishAxesPt2"
"44931","433","Hatchet-shaped Socketed Axe","","British Museum, 90.11-13.3,(In Irish case),Purchased 1890","Ireland (probably)","Ireland","53.41291","-8.243889999999965","","None","None","None","86","socket 47","66","287.25","No patina","Smooth, dull bronze","socket 40","","","","Sharp beading round collar.","","","Joellen mcGann","https://www.flickr.com/photos/115096994@N02/21455121422","https://farm6.staticflickr.com/5633/21455121422_4cae337946_m.jpg","superuser",-8.2439,53.4129,"IrishAxesPt2"
"44932","433","Hatched Shaped Socketed Axe","Hatchet 3","British Museum, 63.1-22.74,Transferred from Mus. of Practical Geology, 1863","Ireland (probably)","Ireland","53.41291","-8.243889999999965","","None","None","None","63","socket 33.5","53","112.06","Dull green","Pitted.","socket 28","","","","Points of edge much worn, points squared. Lower end of loop splayed. Sides fluted.","","","Joellen mcGann","https://www.flickr.com/photos/115096994@N02/20843393794","https://farm6.staticflickr.com/5771/20843393794_213396704a_m.jpg","superuser",-8.2439,53.4129,"IrishAxesPt2"
"44933","433","Hatchet Shaped Socketed Axe","2","Pitt Rivers Museum, Oxford,1461","Ireland","Ireland","53.41291","-8.243889999999965","","None","None","None","74.5","socket 34","edge 60","","","Good casting, fairly smooth & not much the worse for use.","socket 30","","","","","","","Joellen mcGann","https://www.flickr.com/photos/115096994@N02/21466090815","https://farm6.staticflickr.com/5650/21466090815_024f2f565d_m.jpg","superuser",-8.2439,53.4129,"IrishAxesPt2"
"44934","433","Hatchet-shaped Socketed Axe","Hatchet 3","Salisbury, S. Wilts, and Blackmore Museum,36 on face","Ireland","Ireland","53.41291","-8.243889999999965","","None","None","None","58","socket 35","46","125.45","Dull green","","socket 30","","","","An inverted V on each face of socket inside.","","","Joellen mcGann","https://www.flickr.com/photos/115096994@N02/21474676051","https://farm6.staticflickr.com/5780/21474676051_e34661c149_m.jpg","superuser",-8.2439,53.4129,"IrishAxesPt2"
"44935","433","Socketed Celt","Frag.","Collection of Royal Irish Academy, National Museum, Dublin. W371","Ireland","Ireland","53.41291","-8.243889999999965","","None","None","None","","","","","","","","","","","Much worn and pitted, the greater portion of one side broken away.","Wilde's Catalogue of the Royal Irish Academy Collection, p. 419, No. 371.,""Long, imperfect, wanting loop and part of socket. Hatchet faced, plain slightly corroded 4 1/8 by 2 3/8.""","","Joellen mcGann","https://www.flickr.com/photos/115096994@N02/21455120852","https://farm6.staticflickr.com/5678/21455120852_138b031ebf_m.jpg","superuser",-8.2439,53.4129,"IrishAxesPt2"
"44936","433","Socketed Celt","Other","Private Collection,W. C. Wells, Esq. Sudbury, Harrow, 21.6.20","Ireland","Ireland","53.41291","-8.243889999999965","","None","None","None","97","socket 32","43","134.65","Light green patina.","Rather rough, some light earth adhering.","31 socket","","","","","","Appears ""Swiss Lake Dwelling"" type unless and elongated variant of a Nordic type: see card for example from Co. Doven in Horniman Museum ex. Backhouse Collection. For Swiss see Mukru's Lake Dwellings, p. 62, fig. 12.17","Joellen mcGann","https://www.flickr.com/photos/115096994@N02/21279191989","https://farm6.staticflickr.com/5827/21279191989_08dca8f477_m.jpg","superuser",-8.2439,53.4129,"IrishAxesPt2"
"44937","433","Socketed Celt","UI - frag.","Private Collection,A. Henderson Bishop,Thornton Hall, Lanarkshire, CC.11","Ireland","Ireland","53.41291","-8.243889999999965","","None","None","None","67","","49","109.85","","Pitted. Metallic bronze colour, black stained.","","","","","Socket broken.","","Ink mark. KD/","Joellen mcGann","https://www.flickr.com/photos/115096994@N02/20845010783","https://farm6.staticflickr.com/5812/20845010783_1980476e11_m.jpg","superuser",-8.2439,53.4129,"IrishAxesPt2"
"44938","433","Socketed Celt","UII2","Alnwick Castle, no. 362","Ireland","Ireland","53.41291","-8.243889999999965","","None","None","None","117","Dia. of socket 46","73","562","Dark brown patina.","Fairly smooth.","","","","","Ornamented with raised lines down the sides.","","","Joellen mcGann","https://www.flickr.com/photos/115096994@N02/21455120662","https://farm6.staticflickr.com/5619/21455120662_f9f58d788d_m.jpg","superuser",-8.2439,53.4129,"IrishAxesPt2"
"44939","433","Socketed Celt","UII2","Alnwick Castle, No. 363","Ireland","Ireland","53.41291","-8.243889999999965","","None","None","None","111","socket 42 x 49","70","413.5","Green patina","Smooth","","","","","The interior of the socket is ridged and the sides are ornamented with raised lines.","","","Joellen mcGann","https://www.flickr.com/photos/115096994@N02/21279191719","https://farm6.staticflickr.com/5777/21279191719_abf67503f9_m.jpg","superuser",-8.2439,53.4129,"IrishAxesPt2"
"44940","433","Socketed Celt","UII2","Peabody Museum,48365,Harvard University,Cambridge, Mass.,Received 1890,Presented by F. W. Putnam","Ireland","Ireland","53.41291","-8.243889999999965","","None","None","None","75","socket 34","33","","Greenish olive. Bronze shows on face","","below loop 25","","","","","","","Joellen mcGann","https://www.flickr.com/photos/115096994@N02/21455120422","https://farm1.staticflickr.com/602/21455120422_ac48afae7c_m.jpg","superuser",-8.2439,53.4129,"IrishAxesPt2"
"44941","433","Socketed Celt","UII2","Museum, Leeds Phil. & Hist. Society","Ireland","Ireland","53.41291","-8.243889999999965","","None","None","None","77","32 socket","45","120","","","31 socket","","","","Expanding trumpet shaped towards the mouth, small ring encircling neck below mouth, sides slightly splayed.","","","Joellen mcGann","https://www.flickr.com/photos/115096994@N02/21278263818","https://farm6.staticflickr.com/5831/21278263818_33390388b4_m.jpg","superuser",-8.2439,53.4129,"IrishAxesPt2"
"44942","433","Socketed Celt","UII2","Museum, Leeds Phil. & Hist. Society","Ireland","Ireland","53.41291","-8.243889999999965","","None","None","None","105","socket 40","40","262","Other, green patina","Smooth brown one side.","43","","","","Socket nearby square & blade long and narrow. Rough from mould.","","","Joellen mcGann","https://www.flickr.com/photos/115096994@N02/20843392724","https://farm1.staticflickr.com/765/20843392724_7acb241ccb_m.jpg","superuser",-8.2439,53.4129,"IrishAxesPt2"
"44943","433","Socketed Celt","UII2","Lewes Museum","Ireland","Ireland","53.41291","-8.243889999999965","","None","None","None","109.5","socket 39.5","41.5","191.36","No patina","Rough dark brown","socket 39","","","","","","","Joellen mcGann","https://www.flickr.com/photos/115096994@N02/21278049500","https://farm6.staticflickr.com/5730/21278049500_4419c047ee_m.jpg","superuser",-8.2439,53.4129,"IrishAxesPt2"
"44944","433","Socketed Axe","UII2","Ex. Collection F.W. Lincoln,Sold at Sotheby's May 2, 1932, Lot 184","Ireland (probably)","Ireland","53.41291","-8.243889999999965","","None","None","None","","","","","Slight greenish","Pitted","","","","","","","","Joellen mcGann","https://www.flickr.com/photos/115096994@N02/21466089545","https://farm6.staticflickr.com/5632/21466089545_2bd2b6d2c0_m.jpg","superuser",-8.2439,53.4129,"IrishAxesPt2"
"44945","433","Socketed Celt","UII3","Alnwick Castle, No. 378","Ireland","Ireland","53.41291","-8.243889999999965","","None","None","None","107","dia. of socket 36","74","482.5","Brown patina","Corroded","","","","","","","","Joellen mcGann","https://www.flickr.com/photos/115096994@N02/21439877216","https://farm6.staticflickr.com/5657/21439877216_bcfb0803a3_m.jpg","superuser",-8.2439,53.4129,"IrishAxesPt2"
"44946","433","Socketed Celt","UII3","Bishop Collection, B36,The University, Glasgow","Ireland","Ireland","53.41291","-8.243889999999965","","None","None","None","70","socket 36.5","40","241","","Deeply encrusted.","socket 31","","","","Poor condition.","","","Joellen mcGann","https://www.flickr.com/photos/115096994@N02/21279190999","https://farm6.staticflickr.com/5643/21279190999_f7d3c710f6_m.jpg","superuser",-8.2439,53.4129,"IrishAxesPt2"
"44947","433","Socketed Celt","UII3","Ethnological Museum, cambridge,1275,Read Gift","Ireland","Ireland","53.41291","-8.243889999999965","","None","None","None","59","socket 35","33","77.96","No patina","Rough dark green","socket 31","","","","","","","Joellen mcGann","https://www.flickr.com/photos/115096994@N02/21278263148","https://farm1.staticflickr.com/631/21278263148_d87bed9fd2_m.jpg","superuser",-8.2439,53.4129,"IrishAxesPt2"
"44948","433","Socketed Celt","UII3","Museum of Archaeology & Ethnology, Cambridge,presented by Mrs. Lawrence Humphrey,Annual Records, 1911.7 (the numbers do not always correspond)","Ireland","Ireland","53.41291","-8.243889999999965","","None","None","None","72","socket 39","41","107","Dark brown flakes on pale green & brown","Rough & flaky","socket 32","","","","Socket broken - square mouth, pieces of wood inside.","","","Joellen mcGann","https://www.flickr.com/photos/115096994@N02/20845009423","https://farm6.staticflickr.com/5813/20845009423_abae46e242_m.jpg","superuser",-8.2439,53.4129,"IrishAxesPt2"
"44949","433","Socketed Celt","UII3","Museum of Archaeology & Ethnology, Cambridge,54/7","Ireland","Ireland","53.41291","-8.243889999999965","","None","None","None","92","socket 45","55","295","Black patina & metal showing through.","Smooth","socket 43.5","","","","Round socket. Boldly projecting rim, sides rounded. Loops widens broadly where it joins the sides. Blunt edge. A hole 10mm across on one face near rim. Faint traces of a collar.","Foster Bequest, 33, catalogue.,Prehistoric Bronzes, 64, Catalogue is lost.","","Joellen mcGann","https://www.flickr.com/photos/115096994@N02/21278048660","https://farm1.staticflickr.com/621/21278048660_090e068587_m.jpg","superuser",-8.2439,53.4129,"IrishAxesPt2"
"44950","433","Socketed Celt","UII3","Godalsring,Charterhouse Museum, No. 31","Ireland","Ireland","53.41291","-8.243889999999965","","None","None","None","92","socket 43.5","56","","Deep brown patina.","","socket 38.5","","","","Edge slightly damaged by use.","","","Joellen mcGann","https://www.flickr.com/photos/115096994@N02/21455119412","https://farm1.staticflickr.com/624/21455119412_917a35f174_m.jpg","superuser",-8.2439,53.4129,"IrishAxesPt2"
"44951","433","Socketed Celt","UII3","Private Collection,Thos. H. Knowles,49, Shakespear Road, Hanswell, W.7,From the late Sir Hercules Read, 1912","Ireland,North of","Ireland","53.41291","-8.243889999999965","","None","None","None","64","socket 35","40","113.4","","Golden colour.","30","Weight: 4 oz = 113.4 gms","","","Rectangular section.","","","Joellen mcGann","https://www.flickr.com/photos/115096994@N02/20845009223","https://farm1.staticflickr.com/574/20845009223_65a7e6328e_m.jpg","superuser",-8.2439,53.4129,"IrishAxesPt2"
"44952","433","Socketed Celt","UII3","Lewes Museum","Ireland","Ireland","53.41291","-8.243889999999965","","None","None","None","109","socket 39.5","41.5","219.7","Dark brown","Rough","socket 39","","","","","","","Joellen mcGann","https://www.flickr.com/photos/115096994@N02/21474673651","https://farm1.staticflickr.com/672/21474673651_894a94b4fa_m.jpg","superuser",-8.2439,53.4129,"IrishAxesPt2"
"44953","433","Socketed Celt","UII3","Museum, Leeds Phil. & Hist. Society","Ireland","Ireland","53.41291","-8.243889999999965","","None","None","None","72","socket 41","36","45","","","socket 13","","","","Very much crushed & flattened out.","","","Joellen mcGann","https://www.flickr.com/photos/115096994@N02/21474673581","https://farm6.staticflickr.com/5683/21474673581_d1883ff737_m.jpg","superuser",-8.2439,53.4129,"IrishAxesPt2"
"44954","433","Socketed Axe","UII3","Ex. Collection F. W. Lincoln,Sold at Sotheby's May 2, 1932, Lot 184","Ireland (probably)","Ireland","53.41291","-8.243889999999965","","None","None","None","","","","","Greeny brown","","","","","","","","","Joellen mcGann","https://www.flickr.com/photos/115096994@N02/21466088445","https://farm6.staticflickr.com/5641/21466088445_e171e97320_m.jpg","superuser",-8.2439,53.4129,"IrishAxesPt2"
"44955","433","Socketed Axe","UII3","Ex. Collection F. W. Lincoln,Sold at Sotheby's May 2, 1932, Lot 184","Ireland (probably)","Ireland","53.41291","-8.243889999999965","","None","None","None","","","","","Smooth green","","","","","","","","","Joellen mcGann","https://www.flickr.com/photos/115096994@N02/21278262508","https://farm6.staticflickr.com/5623/21278262508_2874e0f2bf_m.jpg","superuser",-8.2439,53.4129,"IrishAxesPt2"
"44956","433","Socketed Celt","UII3","Ashmolean Museum, Oxford,1886 No. 5762,Antrim Collection,Given to the University by Lord Antrim","Ireland (north of)","Ireland","53.41291","-8.243889999999965","","None","None","None","72","","47","123.46","Dark bronze, mottled green and brown patina.","","30.5","","","","Loop broken.","","","Joellen mcGann","https://www.flickr.com/photos/115096994@N02/21279190249","https://farm6.staticflickr.com/5692/21279190249_9996eb11aa_m.jpg","superuser",-8.2439,53.4129,"IrishAxesPt2"
"44957","433","Socketed Celt","UII3","Ashmolean Museum, Oxford,1886 No. 5763,Antrim Collection,Given to he University by Lord Antrim","Ireland (north of)","Ireland","53.41291","-8.243889999999965","","None","None","None","64","","39","73.99","Yellow bronze, with slight grey patina? dirt.","","26","","","","Apparently a miscast speciment; there are big hols in both large sides from the bottom of handle upwards, the surrounding surfaces, being very thin, as is one side of the collar, which is cracked through.","","","Joellen mcGann","https://www.flickr.com/photos/115096994@N02/21278262338","https://farm1.staticflickr.com/578/21278262338_efaee720ee_m.jpg","superuser",-8.2439,53.4129,"IrishAxesPt2"
"44958","433","Socketed Celt","UII3","Salisbury, S. Wilts and Blackmore Museum,680  Brackstone Collection,B680 on side,69 on face","Ireland","Ireland","53.41291","-8.243889999999965","","None","None","None","98","socket 43","65","312","Very dark brown","Pitted","socket 37","","","","On the inside of socket are 2 ribs.","","","Joellen mcGann","https://www.flickr.com/photos/115096994@N02/20845008623","https://farm6.staticflickr.com/5620/20845008623_4690a3e8ff_m.jpg","superuser",-8.2439,53.4129,"IrishAxesPt2"
"44959","433","Socketed Celt","UII3","Royal Ontario Museum, Toronto,Bought at Christie's 26.3.25, 112/11,Probably from the Jas. Burton Collection dispersed in London July 1836 and acquired by the then Marquis of Breadalbane.,The property of Lieut-Col. The Hon. T. G. Breadalbane Morgan-Grenville-Gavin D.S.O., M.C.","Ireland,Old label: Castleton (almost unreadable)","Ireland","53.41291","-8.243889999999965","","None","None","None","89","socket 42.5","50","","thick patina dirty very dark browny green, lighter in colour and greener beneath surface.","smooth","socket 37.5","","","","","","","Joellen mcGann","https://www.flickr.com/photos/115096994@N02/21279189779","https://farm6.staticflickr.com/5833/21279189779_a6406f69c4_m.jpg","superuser",-8.2439,53.4129,"IrishAxesPt2"
"44960","433","Socketed Celt","UII frag","Vize Collection, no. 14,Sotheby's No. 70/3","Ireland","Ireland","53.41291","-8.243889999999965","","None","None","None","100.5","socket 21","41.5","194.9","Some dark green patina rather chipped.","Smooth","socket 31","","","","Remains of halting in socket. Socket is filled with a clay coloured rusty earth or clay.","","","Joellen mcGann","https://www.flickr.com/photos/115096994@N02/21474672991","https://farm1.staticflickr.com/602/21474672991_0a97e27802_m.jpg","superuser",-8.2439,53.4129,"IrishAxesPt2"
"44961","433","Socketed Celt","UI1","Liverpool Museum, 7117M","Ireland (probably),label","Ireland","53.41291","-8.243889999999965","","None","None","None","79","socket 34","50","120.47","Brown patina","","socket 28","","","","5 parallel ridges round socket. Moulding ridges on the edges and on the inner faces near the cutting edges (as in section of socket). Possibly moulded in 4 pieces.","","","Joellen mcGann","https://www.flickr.com/photos/115096994@N02/21466087935","https://farm6.staticflickr.com/5624/21466087935_e4efc45339_m.jpg","superuser",-8.2439,53.4129,"IrishAxesPt2"
"44962","433","Socketed Celt","UI1","Horniman Museum, Forest Hill, SE,20.150, 645,Presented by the British Museum (25/-)","Ireland","Ireland","53.41291","-8.243889999999965","","None","None","None","82","socket 43","57.5","262.25","No patina","Smooth. Small pittings all over, one side dark gold bronze colour. The other is more cleaned and of bright golden colour.","socket 39","","","","Ridges caused by casting are very visible on both sides. In good condition. There are three raised bands beneath the mouth.","","","Joellen mcGann","https://www.flickr.com/photos/115096994@N02/21278262378","https://farm6.staticflickr.com/5699/21278262378_b38ee35a76_m.jpg","superuser",-8.2439,53.4129,"IrishAxesPt2"
"44963","433","Socketed Celt","UI2","Lewes Museum","Ireland","Ireland","53.41291","-8.243889999999965","","None","None","None","85.5","socket 36.5","40","141.75","Patches of bright brown","Rough dark green","socket 35.5","","","","","","","Joellen mcGann","https://www.flickr.com/photos/115096994@N02/20845008073","https://farm6.staticflickr.com/5761/20845008073_db288dd51b_m.jpg","superuser",-8.2439,53.4129,"IrishAxesPt2"
"44964","433","Socketed Celt","UI2","Lewes Museum","Ireland","Ireland","53.41291","-8.243889999999965","","None","None","None","86","socket 36","38.5","148.83","No patina","Rough, greeny brown.","socket 34","","","","","","","Joellen mcGann","https://www.flickr.com/photos/115096994@N02/21279189269","https://farm6.staticflickr.com/5704/21279189269_d3bc19cf9f_m.jpg","superuser",-8.2439,53.4129,"IrishAxesPt2"
"44965","433","Socketed Celt","UI2","Rugby School Museum, 511","Ireland","Ireland","53.41291","-8.243889999999965","","None","None","None","59","socket 33","46","98","","Polished - dark bronze colour.","socket 30","","","","Edge nearly perfect.","","","Joellen mcGann","https://www.flickr.com/photos/115096994@N02/21279189359","https://farm1.staticflickr.com/676/21279189359_7c45124db0_m.jpg","superuser",-8.2439,53.4129,"IrishAxesPt2"
"44966","433","Socketed Celt","UI3","Powysland Museum, Welshpool,Given by Morris C. Jones, Esq.","Ireland","Ireland","53.41291","-8.243889999999965","","None","None","None","52","socket 35","34","101","Brown patina","","socket 30","","","","Good condition","","","Joellen mcGann","https://www.flickr.com/photos/115096994@N02/20843390464","https://farm6.staticflickr.com/5670/20843390464_03ae084379_m.jpg","superuser",-8.2439,53.4129,"IrishAxesPt2"
"44967","433","Socketed Celt","UI2","Sotheby's Sale, 19.11.24,629,Collection of W. J. Knowles MRIA of Flixton Place, Ballymena","Ireland,Kilewry (label)","Ireland","53.41291","-8.243889999999965","","None","None","None","43","socket 22","26","","Polished thick patina medium browny green, filed at edge of both sides.","Smooth. Rust marks round socket.","socket 18","","","Label: This and large one got together.","","","","Joellen mcGann","https://www.flickr.com/photos/115096994@N02/21278046890","https://farm1.staticflickr.com/676/21278046890_89fd532474_m.jpg","superuser",-8.2439,53.4129,"IrishAxesPt2"
"44968","433","Socketed Celt","UI3","Private Collection,A. Henderson Bishop,1923,Thornton Hall, Lanarkshire,Now in Glasgow, The Hunterian Museum","Ireland","Ireland","53.41291","-8.243889999999965","","None","None","None","74","socket 40","60","180.73","Brown patina rubbed and flaked off showing deep yellowish green.","","socket 35","","","","","","Label 83","Joellen mcGann","https://www.flickr.com/photos/115096994@N02/21279188949","https://farm6.staticflickr.com/5640/21279188949_ed64d7694c_m.jpg","superuser",-8.2439,53.4129,"IrishAxesPt2"
"44969","433","Socketed Celt","UI3","Private Collection,1923,A. Henderson Bishop,Thornton Hall, Lanarkshire,Now in Glasgow, The Hunterian Museum","Ireland","Ireland","53.41291","-8.243889999999965","","None","None","None","89","socket 43","48","265.77","","Bronze colour, water worn. One face somewhat corroded.","socket 35","","","","Perfect","","Label 84","Joellen mcGann","https://www.flickr.com/photos/115096994@N02/21439874886","https://farm6.staticflickr.com/5629/21439874886_e86421df52_m.jpg","superuser",-8.2439,53.4129,"IrishAxesPt2"
"44970","433","Socketed Celt","UI3","Lewes Museum","Ireland","Ireland","53.41291","-8.243889999999965","","None","None","None","95","socket 30.5","47.5","155.92","No patina","Rough green","socket 28.5","","","","","","","Joellen mcGann","https://www.flickr.com/photos/115096994@N02/21466086885","https://farm6.staticflickr.com/5661/21466086885_425eb2a0df_m.jpg","superuser",-8.2439,53.4129,"IrishAxesPt2"
"44971","433","Socketed Celt","UI3","Taunton Castle Museum,Presented by Mr. J. H. Payne","Ireland","Ireland","53.41291","-8.243889999999965","","None","None","None","64","socket 34","45","100","","","socket 28","","","","Rim of socket decorated with rope pattern.","","","Joellen mcGann","https://www.flickr.com/photos/115096994@N02/21439874716","https://farm6.staticflickr.com/5693/21439874716_10af36df9c_m.jpg","superuser",-8.2439,53.4129,"IrishAxesPt2"
"44972","433","Socketed Axe","UI3","Black Gate Museum, Newcastle-on-Tyne [1932.50]","Unknown,?Ireland","Ireland","53.41291","-8.243889999999965","","None","None","None","","","","85.05","","Dull brown matt","","Weight: 3 oz. = 85.05 gms","","","","Proc. Soc. Ant. N/C, 4 V.300","","Joellen mcGann","https://www.flickr.com/photos/115096994@N02/21455117672","https://farm6.staticflickr.com/5672/21455117672_39ae06e3f2_m.jpg","superuser",-8.2439,53.4129,"IrishAxesPt2"
"44973","433","Socketed Celt","UI3","Herts. County Museum, St. Albans,Lent by Capt. J. H. Ball, RAF","Ireland","Ireland","53.41291","-8.243889999999965","","None","None","None","77","socket 31","37","102.76","No patina - dark bronze with golden bronze just showing.","Smooth, but pitted all over except for 20mm each side of edge.","socket 29","","","","","","","Joellen mcGann","https://www.flickr.com/photos/115096994@N02/21278046400","https://farm1.staticflickr.com/689/21278046400_6b642b80da_m.jpg","superuser",-8.2439,53.4129,"IrishAxesPt2"
"44974","433","Socketed Celt","UI3","Powysland Museum, Welshpool,Presented by Morris C. Jones, Esq.","Ireland","Ireland","53.41291","-8.243889999999965","","None","None","None","85","socket 46","74","327.9","","Rich green patina","socket 35","","","","Good condition","","","Joellen mcGann","https://www.flickr.com/photos/115096994@N02/21466086405","https://farm6.staticflickr.com/5794/21466086405_39757aa406_m.jpg","superuser",-8.2439,53.4129,"IrishAxesPt2"
"44975","433","Unlooped Socketed Celt","","Private Collection,Sir. B. Windle (1924), CCI,St. Michael's College Toronto,Cotton Collection Bronsgrove","Ireland?","Ireland","53.41291","-8.243889999999965","","None","None","None","68","socket 38","45","121","","Pitted, bronze colour, black stains.","socket 30","","","","No loop.","","","Joellen mcGann","https://www.flickr.com/photos/115096994@N02/21278046180","https://farm6.staticflickr.com/5707/21278046180_7dced1be8a_m.jpg","superuser",-8.2439,53.4129,"IrishAxesPt2"
"44976","433","Unlooped Socketed Axe","","Alnwick Castle, No. 358","Ireland","Ireland","53.41291","-8.243889999999965","","None","None","None","62","socket 35 by 30","35","92.4","Brown patina","Rough","","","","","Piece has been cut out of socket.","","","Joellen mcGann","https://www.flickr.com/photos/115096994@N02/21466086205","https://farm6.staticflickr.com/5761/21466086205_c6a22d36ec_m.jpg","superuser",-8.2439,53.4129,"IrishAxesPt2"
"44977","433","Socketed Unlooped","","Royal Scottish Museum, Edinburgh,Reg. No. 1890.515","Ireland","Ireland","53.41291","-8.243889999999965","","None","None","None","91","butt 48","65","282","Light and dark green patina with traces of original bronze colour showing in places.","Fair","48","","","","Celt, bronze with round socket and without a loop; edge expanded & curved.","","","Joellen mcGann","https://www.flickr.com/photos/115096994@N02/21278046200","https://farm1.staticflickr.com/703/21278046200_b8795e5796_m.jpg","superuser",-8.2439,53.4129,"IrishAxesPt2"
"44978","433","Unlooped Socketed Celt","","British Museum, 63.1-22.76","Ireland (probably)","Ireland","53.41291","-8.243889999999965","","None","None","None","62","socket 34","41","94.63","Grey green. Patch of bronze on face. Some chocolate brown patina remains on other side, at socket.","","socket 28","","","","","","","Joellen mcGann","https://www.flickr.com/photos/115096994@N02/21439874166","https://farm1.staticflickr.com/584/21439874166_9046e181f1_m.jpg","superuser",-8.2439,53.4129,"IrishAxesPt2"
"44979","433","Unlooped Socketed Celt","","Salisbury, S. Wilts and Blackmore Museum,677 Brackstone Collection,B677 on side,23 on face","Ireland","Ireland","53.41291","-8.243889999999965","","None","None","None","73","socket 23","43","65","Apple green","","socket 22","","","","","","","Joellen mcGann","https://www.flickr.com/photos/115096994@N02/21455116742","https://farm6.staticflickr.com/5617/21455116742_257b6dbc01_m.jpg","superuser",-8.2439,53.4129,"IrishAxesPt2"
"44980","433","Double Axe","","Acc. No. 44:45,Keighley Museum, Yorkshire,Purchased from T. A. Glenn (the Late), Garthowen, St. George's Road, Abergele, Denbighshire, N. Wales","Ireland,Kildare,Bog of Allen (possibly)","Kildare, Ireland","53.1589342","-6.909568300000046","","None","None","None","150.876","73.66","","935.534","Nil","Smooth","25.4","Length: 5 15/16"" = 150.876 mm,Width: 2 9/10"" = 73.66mm,Thickness: 1"" = 25.4 mm,Weight: 2 lb 1 oz = 935.534 gms","Bronze","?","Double Axe with one blade removed by cold chisel technique","""Bronze Double Axes in the British Isles"", Piggot, Stuart.,""Proc. Prehistoric Society, 1953, Vol. XIX, Part 2""","G. Ogden, Curator.,Formerly purchased at sale of effects of Lord W. Vertree's Irish racing estate. The axe was with specimens of modern tools. Family had no knowledge of its discovery or source; but suggested that it came out of the Bog of Allen.","Joellen mcGann","https://www.flickr.com/photos/115096994@N02/20843389134","https://farm6.staticflickr.com/5664/20843389134_ef23feab32_m.jpg","superuser",-6.9096,53.1589,"IrishAxesPt2"
"44981","433","Unlooped Socketed Celt","","British Museum, W. G. 1584","Ireland,Co. Kildare,Moone","Moone, Co. Kildare, Ireland","52.98429369999999","-6.850423599999999","","None","None","None","86","socket 33","64","112.06","Brown with light green patches, metal shows.","Smooth, small dent on reverse side below centre.","socket 25","","","","Right point of edge bent. Hexagonal below socket.","","","Joellen mcGann","https://www.flickr.com/photos/115096994@N02/21278260188","https://farm6.staticflickr.com/5630/21278260188_282e795501_m.jpg","superuser",-6.8504,52.9843,"IrishAxesPt2"
"44982","433","Hatched Shaped Socketed Axe","Hatchet 3","Museum of Archaeology & Ethnology, Cambridge,No. 135 Murray Collection","Ireland,Kings Co.,Edenderry","Edenderry, Co. Offaly, Ireland","53.34328430000001","-7.0505832000000055","","None","None","None","78","socket 46.5","71.5","260","Shades of brown patina & green metal showing through more or less all over.","Fairly smooth","socket 40","","? Copper","","Very massive, with wide expanding blade. Socket is oval and large with heavy overhanging moulding round the rim. Loop unusually large and wide, its expanding bases crossing the entire side, faces flat sharply defined. That without loop is faintly faceted. Some one has filed the patina away above and below the loop. The edge chipped.","","","Joellen mcGann","https://www.flickr.com/photos/115096994@N02/20843389154","https://farm6.staticflickr.com/5742/20843389154_6e7bb5de69_m.jpg","superuser",-7.0506,53.3433,"IrishAxesPt2"
"44983","433","Socketed Celt","UII1","Museum of Archaeology & Ethnology, Cambridge,No. 134 Murray Collection","Ireland,Kings Co.,Edenderry","Edenderry, Co. Offaly, Ireland","53.34328430000001","-7.0505832000000055","","None","None","None","63","socket 35","36","136","Dark brown patina almost black.","Smooth & shiny","socket 34","","","","Ornamented with four mouldings, below 2 plain above 2 rope pattern. Round socket & sides.","","","Joellen mcGann","https://www.flickr.com/photos/115096994@N02/21455116252","https://farm1.staticflickr.com/691/21455116252_b428bf122e_m.jpg","superuser",-7.0506,53.3433,"IrishAxesPt2"
"44984","433","Socketed Celt","UII2","Museum of Archaeology & Ethnology, Cambridge,No. 132, Murray Collection","Ireland,King's Co.,Edenderry","Edenderry, Co. Offaly, Ireland","53.34328430000001","-7.0505832000000055","","None","None","None","74","socket 36","44","125","Black patina","Smooth & dull","socket (broken) 26","","","","Treble moulding round socket, one larger, flanked by two smaller.","","","Joellen mcGann","https://www.flickr.com/photos/115096994@N02/21466085435","https://farm1.staticflickr.com/601/21466085435_e9eb724d4e_m.jpg","superuser",-7.0506,53.3433,"IrishAxesPt2"
"44985","433","Socketed Celt","UII3","Museum of Archaeology & Ethnology, Cambridge,No. 117, Murray Collection","Ireland,Kings Co.,Edenderry","Edenderry, Co. Offaly, Ireland","53.34328430000001","-7.0505832000000055","","None","None","None","105","socket 44","68","303","Green patina mostly & brown, metal shows through on one face.","Fairly smooth","socket 40","","","","Oval socket & section. Hammer marks very plain on the sides.","","","Joellen mcGann","https://www.flickr.com/photos/115096994@N02/21474670381","https://farm1.staticflickr.com/644/21474670381_013151e809_m.jpg","superuser",-7.0506,53.3433,"IrishAxesPt2"
"44986","433","Socketed Celt","UII3","Museum of Archaeology & Ethnology, Cambridge,No. 137 Murray Collection","Ireland,Kings Co.,Edenderry","Edenderry, Co. Offaly, Ireland","53.34328430000001","-7.0505832000000055","","None","None","None","80","socket 30","55","114","Dark brown patina","Smooth - possibly filed about the cutting edge.","socket 27","","","","Square socket with the sides more square than rounded.","","","Joellen mcGann","https://www.flickr.com/photos/115096994@N02/21455115852","https://farm6.staticflickr.com/5715/21455115852_c8602b713d_m.jpg","superuser",-7.0506,53.3433,"IrishAxesPt2"
"44987","433","Unlooped Socketed Celt","","Museum of Archaeology & Ethnology, Cambridge,No. 140, Murray Collection","Ireland,Kings Co.,Edenderry","Edenderry, Co. Offaly, Ireland","53.34328430000001","-7.0505832000000055","","None","None","None","67.5","socket 26","42","84","Dark green patina - pits are pale green.","Smooth & spaced lines round the base.","socket 22.5","","","","Without a loop (possibly a chisel) socket mouth is oval. Ornamented with four irregularly spaced lines round the base.","","","Joellen mcGann","https://www.flickr.com/photos/115096994@N02/20843388424","https://farm1.staticflickr.com/595/20843388424_dae2c5bdc9_m.jpg","superuser",-7.0506,53.3433,"IrishAxesPt2"
"44988","433","Socketed Celt","UII1","Sotheby's Sale, 19.11.24,626,Collection of W. J. Knowles MRIA of Flixton Place, Ballymena","Irealnd,Londonderry,Portglenone","Portglenone, Ballymena, Ballymena BT44, UK","54.8730813","-6.474459600000046","","None","None","None","87","socket 45.5","60","","Traces of thin patina green, over brownish bronze.","Fairly smooth and mostly dark brown bronze.","socket 41","","","","There are four ribs at the bottom of socket. Corroded at edge, but more at the back (other side)","","","Joellen mcGann","https://www.flickr.com/photos/115096994@N02/21278259348","https://farm1.staticflickr.com/669/21278259348_67bd094f13_m.jpg","superuser",-6.4745,54.8731,"IrishAxesPt2"
"44989","433","Socketed Celt","UII3","Museum of Archaeology & Ethnology, Cambridge,38 Dungiven, 28, 154 (on label)","Ireland,Londonderry,Dungiven","Dungiven, Londonderry, Limavady BT47, UK","54.9258611","-6.921175700000049","","None","None","None","118","socket 55","77","560","Shades of green to brown patina","Lines & besides not very even","44.5","","","","Socket halfway between oval & square with projecting rim, under which is cut a bevelled groove encircling the base. The faces & sides are streaked with long lines, so that the sides are almost rounded.","Foster Bequest 38, catalogue,Prehistoric Bronzes 74, catalogue is lost","","Joellen mcGann","https://www.flickr.com/photos/115096994@N02/20845005663","https://farm1.staticflickr.com/780/20845005663_26ed88872d_m.jpg","superuser",-6.9212,54.9259,"IrishAxesPt2"
"44990","433","Hatchet-Shaped Socketed Axe","Hatchet 3","Salisbury, S. Wilts, and Blackmore Museum,24 on face","Ireland,Co. Longford","Co. Longford, Ireland","53.7275564","-7.7931089999999585","","None","None","None","82","socket 47","76","248.95","Brown","","socket 35","","","","","","","Joellen mcGann","https://www.flickr.com/photos/115096994@N02/20845005513","https://farm6.staticflickr.com/5633/20845005513_41ffe76e6c_m.jpg","superuser",-7.7931,53.7276,"IrishAxesPt2"
"44991","433","Socketed Celt","UII1","Pitt Rivers Museum, Oxford,Lent from the Tower Armoury, 1915,129","Ireland,Co. Mayo","Co. Mayo, Ireland","53.93458099999999","-9.351645599999983","","None","None","None","52","socket 41","34","","","Fairly good & smooth casting, only slightly bruised","socket 25","","","","","","","Joellen mcGann","https://www.flickr.com/photos/115096994@N02/21474669741","https://farm6.staticflickr.com/5830/21474669741_ab91bcd869_m.jpg","superuser",-9.3516,53.9346,"IrishAxesPt2"
"44992","433","Socketed Celt","UII3","Museum of Archaeology & Ethnology, Cambridge,Banks Collection","Ireland,Co. Mayo,Ballina","Ballina, Co. Mayo, Ireland","54.1149482","-9.155069300000036","","None","None","None","93","socket 37","47","194","Black patina","Fairly smooth.","socket 31","","","","Square socket ornament with a wide collar. The edge has been reground in modern times.","Foster Bequest, No. 37, catalogue,Prehistoric Bronzes, No. 73, catalogue is lost.","","Joellen mcGann","https://www.flickr.com/photos/115096994@N02/20843387814","https://farm1.staticflickr.com/642/20843387814_16a46dc3ce_m.jpg","superuser",-9.1551,54.1149,"IrishAxesPt2"
"44993","433","Socketed Celt","UII3","Liverpool Museum, 7042M","Ireland,Monaghan,Castleblaney,Labelled: Castleblaney Co. D. 24","Castleblayney, Co. Monaghan, Ireland","54.120659","-6.739737399999967","","None","None","None","86","socket 40","49.5","184.27","Green patina","","socket 36","","","","Loop broken off & the whole is obviously patched together.","","","Joellen mcGann","https://www.flickr.com/photos/115096994@N02/21466084325","https://farm1.staticflickr.com/753/21466084325_c58c5fd3e4_m.jpg","superuser",-6.7397,54.1207,"IrishAxesPt2"
"44994","433","Socketed Celt","UII2","Herts County Museum, St. Albans,Lent by Capt. J. H. Ball, RAF 83","Ireland,Co. Roscommon","Co. Roscommon, Ireland","53.784398","-8.375655499999993","","None","None","None","74.5","socket 39","50","230.34","Some patina of very light green & corrosive.","One side very rough, through metal being eaten away. The remainder is smoother dark bronze.","socket 40","","","Label ""Co. Roscommon Hoard""","","","","Joellen mcGann","https://www.flickr.com/photos/115096994@N02/21278258508","https://farm6.staticflickr.com/5725/21278258508_465b33e427_m.jpg","superuser",-8.3757,53.7844,"IrishAxesPt2"
"44995","433","Socketed Punch","","Sotheby's Sale, 19.11.24,661,Collection of W. J. Knowles, MRIA of Flixton Place, Ballymena","Ireland,Fermanagh,Co. Tyrone,Label: Fermagh, Peti s (torn), Co. Tyrone, 85","Fermanagh, UK","54.4513524","-7.712501800000041","","None","None","None","194","socket 21.5; blade 8","","","No patina","Dark & golden bronze","blade 6, socket 21","","","","In good preservation","","","Joellen mcGann","https://www.flickr.com/photos/115096994@N02/20843387234","https://farm1.staticflickr.com/637/20843387234_8c248c9ac4_m.jpg","superuser",-7.7125,54.4514,"IrishAxesPt2"
"44996","433","Socketed Celt","UII1","British Museum, W.G. 1557","Ireland,Tyrone,Arboc","Tyrone, Omagh, Omagh BT79, UK","54.60296","-7.094100000000026","","None","None","None","95","socket 40","66.5","354.37","Slight patina olive green","","socket 39","","","","10 beadings round socket. Inside socket are 2 very short ribs. Slightly chipped.","Evan's Bronze Age, p. 142","","Joellen mcGann","https://www.flickr.com/photos/115096994@N02/21474669641","https://farm1.staticflickr.com/707/21474669641_3eca4f2ed2_m.jpg","superuser",-7.0941,54.603,"IrishAxesPt2"
"44997","433","Socketed Celt","UI3","Museum of Archaeology & Ethnology, Cambridge,Read Gift,1287","Ireland,Co. Westmeath,Mulligar","Mullingar, Co. Westmeath, Ireland","53.5259334","-7.338137800000027","","None","None","None","58","socket 37","40.5","99.22","Dark brown matt","Smooth","socket 32","","","","","","","Joellen mcGann","https://www.flickr.com/photos/115096994@N02/21278258768","https://farm1.staticflickr.com/763/21278258768_9f78d5453a_m.jpg","superuser",-7.3381,53.5259,"IrishAxesPt2"
"44998","433","Hatchet-Shaped Socketed Celt","Hatchet 3","Private Collection,Professor Sir Lucas White-King, CSI, LLD, FSA,Late of Roebuck Hall, Co. Dublin,Sold by Auction at Sotheby's 9.11.21, Lot 137","Ireland,Co. Wicklow","Co. Wicklow, Ireland","53.0000259","-6.410363999999959","","None","None","None","66.5","socket 42.5","55.5","","No patina","Smooth - dark brown bronze","socket 30","","","","Sharp edge","","","Joellen mcGann","https://www.flickr.com/photos/115096994@N02/20843387444","https://farm1.staticflickr.com/722/20843387444_2eb10c2686_m.jpg","superuser",-6.4104,53,"IrishAxesPt2"
"44999","433","Socketed Celt","UII3","Private Collection,Professor Sir Lucas White-King, CSI, LLD, FSA,Late of Roebuck Hall, Co. Dublin,Sold by Auction at Sotheby's 9.11.21, Lot 138,Resold Sotheby's 31.5.27, Lot 313","Ireland,Co. Wicklow,Glendalough","Glendalough, Co. Wicklow, Ireland","53.01197999999999","-6.32983999999999","","None","None","None","95","socket 36, 39","53","","No patina","Smooth  - dark brown bronze.","socket 36, 37","","","","The rim of socket is hammer marked all round.","","","Joellen mcGann","https://www.flickr.com/photos/115096994@N02/21474668941","https://farm1.staticflickr.com/688/21474668941_02e77fd3df_m.jpg","superuser",-6.3298,53.012,"IrishAxesPt2"
