"taskID","userID","objectType","rightCorner","collection","site","toSearch","Lat","Lon","gridRef","dateDiscoveryDay","dateDiscoveryMonth","dateDiscoveryYear","length","width","edge","weight","patina","surface","thickness","other","composition","associations","description","publications","remarks","inputBy","imageURL","flickrURL","Processing","lon","lat","project"
"44059",,,,,,,,,,,,,,,,,,,,,,,,,,,"https://www.flickr.com/photos/115096994@N02/20355374381",,"merged",,,"IrishPalstavesPt1"
"44060",,,,,,,,,,,,,,,,,,,,,,,,,,,"https://www.flickr.com/photos/115096994@N02/20340805052",,"merged",,,"IrishPalstavesPt1"
"44061",,,,,,,,,,,,,,,,,,,,,,,,,,,"https://www.flickr.com/photos/115096994@N02/20162642839",,"merged",,,"IrishPalstavesPt1"
"44062",,,,,,,,,,,,,,,,,,,,,,,,,,,"https://www.flickr.com/photos/115096994@N02/20323034016",,"merged",,,"IrishPalstavesPt1"
"44063",,,,,,,,,,,,,,,,,,,,,,,,,,,"https://www.flickr.com/photos/115096994@N02/20161224000",,"merged",,,"IrishPalstavesPt1"
"44064",,,,,,,,,,,,,,,,,,,,,,,,,,,"https://www.flickr.com/photos/115096994@N02/20355374031",,"merged",,,"IrishPalstavesPt1"
"44065",,,,,,,,,,,,,,,,,,,,,,,,,,,"https://www.flickr.com/photos/115096994@N02/20161269978",,"merged",,,"IrishPalstavesPt1"
"44066",,,,,,,,,,,,,,,,,,,,,,,,,,,"https://www.flickr.com/photos/115096994@N02/20323033616",,"merged",,,"IrishPalstavesPt1"
"44067",,,,,,,,,,,,,,,,,,,,,,,,,,,"https://www.flickr.com/photos/115096994@N02/20162642299",,"merged",,,"IrishPalstavesPt1"
"44068",,,,,,,,,,,,,,,,,,,,,,,,,,,"https://www.flickr.com/photos/115096994@N02/20340804352",,"merged",,,"IrishPalstavesPt1"
"44069",,,,,,,,,,,,,,,,,,,,,,,,,,,"https://www.flickr.com/photos/115096994@N02/20340804252",,"merged",,,"IrishPalstavesPt1"
"44070",,,,,,,,,,,,,,,,,,,,,,,,,,,"https://www.flickr.com/photos/115096994@N02/20323033396",,"merged",,,"IrishPalstavesPt1"
"44071",,,,,,,,,,,,,,,,,,,,,,,,,,,"https://www.flickr.com/photos/115096994@N02/20355373541",,"merged",,,"IrishPalstavesPt1"
"44072",,,,,,,,,,,,,,,,,,,,,,,,,,,"https://www.flickr.com/photos/115096994@N02/20355373471",,"merged",,,"IrishPalstavesPt1"
"44073",,,,,,,,,,,,,,,,,,,,,,,,,,,"https://www.flickr.com/photos/115096994@N02/20161222930",,"merged",,,"IrishPalstavesPt1"
"44074",,,,,,,,,,,,,,,,,,,,,,,,,,,"https://www.flickr.com/photos/115096994@N02/20323033006",,"merged",,,"IrishPalstavesPt1"
"44075",,,,,,,,,,,,,,,,,,,,,,,,,,,"https://www.flickr.com/photos/115096994@N02/19728334693",,"merged",,,"IrishPalstavesPt1"
"44076",,,,,,,,,,,,,,,,,,,,,,,,,,,"https://www.flickr.com/photos/115096994@N02/20161222670",,"merged",,,"IrishPalstavesPt1"
"44077",,,,,,,,,,,,,,,,,,,,,,,,,,,"https://www.flickr.com/photos/115096994@N02/20161269148",,"merged",,,"IrishPalstavesPt1"
"44078",,,,,,,,,,,,,,,,,,,,,,,,,,,"https://www.flickr.com/photos/115096994@N02/20162641379",,"merged",,,"IrishPalstavesPt1"
"44079",,,,,,,,,,,,,,,,,,,,,,,,,,,"https://www.flickr.com/photos/115096994@N02/20349291835",,"merged",,,"IrishPalstavesPt1"
"44080",,,,,,,,,,,,,,,,,,,,,,,,,,,"https://www.flickr.com/photos/115096994@N02/20161268788",,"merged",,,"IrishPalstavesPt1"
"44081",,,,,,,,,,,,,,,,,,,,,,,,,,,"https://www.flickr.com/photos/115096994@N02/20349291765",,"merged",,,"IrishPalstavesPt1"
"44082","580","Looped Palstave","I i N","Private collection,1924,J.S. Hamilton, Brownhall, Ballintra, Co. Donegal","Ireland,Donegal,Ballintra,Brownhall Estate,probably on the bog above Lough Rath","Ballintra, Co. Donegal, Irlande","54.57884989999999","-8.12432339999998","","None","None","None","118","edge 53; middle 29.5; butt 29.5","","269.33","no patina","smooth. probably cleaned, slightly pitted. Dark & golden bronze.","4; 4.5; 38.5","","","A flat celt was (probably) found on the same part of the estate.","Very good preservation. Fairly sharp edge.","","","Denis Antoine","https://www.flickr.com/photos/115096994@N02/20162641109","https://farm1.staticflickr.com/325/20162641109_0d175218d4_m.jpg","superuser",-8.1243,54.5788,"IrishPalstavesPt1"
"44083","580","Palstave","I i A","Herts County Museum, St. Albans,lent by Capt. J.H. Ball, RAF,51","Ireland,Co Donegal,Raphoe","Raphoe, Co. Donegal, Irlande","54.8738705","-7.599437899999998","","None","None","None","116","edge 51; middle 31; butt 28","","290.58","dark brown, much chipped. light green & bronze beneath.","rather rough","5; 30; 4.75; 29","","","","","","","Denis Antoine","https://www.flickr.com/photos/115096994@N02/20162641089","https://farm1.staticflickr.com/484/20162641089_9647bba70d_m.jpg","superuser",-7.5994,54.8739,"IrishPalstavesPt1"
"44084","580","Palstave","I i G","National Museum, Dublin,Coll. of the Royal Irish Academy,53:1916","Ireland,Co Down,Clanduff,Lisnamulligan","Lisnamulligan, Co. Donegal, Irlande","54.7841253","-7.619676799999979","","None","None","None","174","breadth at centre: 82; width of wings: 29","","","","","","","Bronze","","The palstave has a slight shield shaped ornament below the stop-ridge.","","","Denis Antoine","https://www.flickr.com/photos/115096994@N02/20161268608","https://farm1.staticflickr.com/562/20161268608_9d195a76f3_m.jpg","superuser",-7.6197,54.7841,"IrishPalstavesPt1"
"44085","580","Palstave","I 4 A","Herts County Museum, St. Albans,Capt. Ball Collection","Ireland,Down,Currodore Bog","Comté de Down, Royaume-Uni","54.3412911","-5.748485399999936","","None","None","None","107","edge 52.5; middle 33.5; butt 30","","304.77","remains of patina dark green & blackish; reddy brown patches on one side; golden bronze shows. On reverse of blade, from stop, to near the edge, is a bluish black metallic covering like a patina.","smooth, pitted, a few surface holes","4; 30.5","","","","","","","Denis Antoine","https://www.flickr.com/photos/115096994@N02/20349291375","https://farm1.staticflickr.com/527/20349291375_6219925596_m.jpg","superuser",-5.7485,54.3413,"IrishPalstavesPt1"
"44086","580","Palstave","I 1 D","The Priory, Prittlewell (Southend-on-Sea),1/25","Ireladn,Co Dublin","Co. Dublin, Irlande","53.3824769","-6.313367400000061","","None","None","None","92","edge 50.5; middle 25.5; butt 26","","178.95","remains of thick blackish brown, over dark brown.","smooth","3.5; 31","","","","Sharp edges.","","Old label ""Co Dublin,W.S.S.""","Denis Antoine","https://www.flickr.com/photos/115096994@N02/20161221830","https://farm1.staticflickr.com/382/20161221830_f8215e1abf_m.jpg","superuser",-6.3134,53.3825,"IrishPalstavesPt1"
"44087","580","Palstave","I 1 M","National Museum, Dublin,Collection of the Royal Irish Academy,39:1916","Ireland,Swords,Co Dublin,Dublin,Swords","Swords, Co. Dublin, Irlande","53.4557467","-6.219740600000023","","None","None","None","112","breadth at centre 27; width of side flanges 25","","","","","","","Bronze","","There is a raised Y-shaped ornament below the stop-ridge.","","","Denis Antoine","https://www.flickr.com/photos/115096994@N02/19728333953","https://farm1.staticflickr.com/362/19728333953_645f130ca7_m.jpg","superuser",-6.2197,53.4557,"IrishPalstavesPt1"
"44088","580","Palstave","I 4 A","British Museum,43 12 26 7,purchased from Flanagan /43","Ireland,Fermanagh,1 mile on road from Enniskillen to Florence Court","Enniskillen, Enniskillen, Fermanagh BT74, Royaume-Uni","54.34382429999999","-7.631533600000012","","None","None","None","113","edge 54; middle 36; butt 29","","364.71","dull reddish brown.","smooth except for a few flakes & scratches","6; 31","","","","","","","Denis Antoine","https://www.flickr.com/photos/115096994@N02/20162640659","https://farm1.staticflickr.com/353/20162640659_f2d7a2a600_m.jpg","superuser",-7.6315,54.3438,"IrishPalstavesPt1"
"44089","580","Palstave","I 1 A","Private Collection,1923,Miss Evelyn Portal, Freemantle, Over-Wallop, Hampshire,given to her father by Lord Clonbrock","Ireland,Galway,Ahascragh,on the Clonbrock estate,1850-1860","Ahascragh, Co. Galway, Irlande","53.3976127","-8.334631800000011","","None","None","None","84","edge 46; middle 28; butt 27","","219.7","brownpatina rubbed off in one or two places.","","28; 4","","","","Butt is hammered. On the septum are rough scratches, apparently old, which have been read XI+I = G.A.N.A.","","","Denis Antoine","https://www.flickr.com/photos/115096994@N02/20161221640","https://farm4.staticflickr.com/3800/20161221640_b14408a489_m.jpg","superuser",-8.3346,53.3976,"IrishPalstavesPt1"
"44090","580","Looped Palstave","","British Museum,54 7 14 211,from Collection of Mr. Cooke of Parsonstown.","Ireland (probably)","Irlande","53.41291","-8.243889999999965","","None","None","None","113","dege 46; middle 25; butt 22","","174.6","rusty brown, a few green patches.","","3.5; 27","","","","Edges of wings are rough. Loop not cleaned out after casting, & cracked.","","","Denis Antoine","https://www.flickr.com/photos/115096994@N02/20161268068","https://farm1.staticflickr.com/560/20161268068_3d3dcc591c_m.jpg","superuser",-8.2439,53.4129,"IrishPalstavesPt1"
"44091","580","Looped Palstave","I 1 N","Salisbury S. Wilts and Blackmore Museum.,7 on face.,667 Brackstone Collection,B 667 on side.","Ireland","Irlande","53.41291","-8.243889999999965","","None","None","None","119","edge 53; middle 30; butt 23","","299","dark green","","29; 8","","","","Stop slopes inwards towards edge.","","","Denis Antoine","https://www.flickr.com/photos/115096994@N02/20161267948","https://farm1.staticflickr.com/285/20161267948_e4e851f65a_m.jpg","superuser",-8.2439,53.4129,"IrishPalstavesPt1"
"44092",,,,,,,,,,,,,,,,,,,,,,,,,,,"https://www.flickr.com/photos/115096994@N02/20349290865",,"merged",,,"IrishPalstavesPt1"
"44093",,,,,,,,,,,,,,,,,,,,,,,,,,,"https://www.flickr.com/photos/115096994@N02/20161267928",,"merged",,,"IrishPalstavesPt1"
"44094","580","Looped Palstave","II 1 A","The Pitt Rivers Museum, Farnham, Dorset.","Ireland","Irlande","53.41291","-8.243889999999965","","None","None","None","152","edge 65; middle 27; butt 20","","510.3","","smooth bronze colour.","34","","","","Slightly indented edge.","","","Denis Antoine","https://www.flickr.com/photos/115096994@N02/20161267818","https://farm1.staticflickr.com/329/20161267818_7160a499f0_m.jpg","superuser",-8.2439,53.4129,"IrishPalstavesPt1"
"44095",,,,,,,,,,,,,,,,,,,,,,,,,,,"https://www.flickr.com/photos/115096994@N02/20355371921",,"merged",,,"IrishPalstavesPt1"
"44096","580","Looped Palstave","III 1 N","Alnwick Castle No. 357","Ireland","Irlande","53.41291","-8.243889999999965","","None","None","None","102","edge 40; centre 24; butt 23","","141.5","Green.","Fairly smooth.","28","","","","Handle broken off.","","","Denis Antoine","https://www.flickr.com/photos/115096994@N02/20323031506","https://farm1.staticflickr.com/295/20323031506_f313946a9a_m.jpg","superuser",-8.2439,53.4129,"IrishPalstavesPt1"
"44097","580","Looped Palstave","III 1 O","Brentford Public Library.,Layton Collection 0 1200,formerly the property of J. Petrie Esq.,Now in The London Museum.","Ireland","Irlande","53.41291","-8.243889999999965","","None","None","None","159","edge 59; middle 33; butt 30","","","Thick medium green. golden bronze shows.","pitted. Scratched.","27; 7; 26.5; 37","","","","Butt broken.","","Inacc.","Denis Antoine","https://www.flickr.com/photos/115096994@N02/20161221180","https://farm1.staticflickr.com/296/20161221180_4aa725a2dc_m.jpg","superuser",-8.2439,53.4129,"IrishPalstavesPt1"
"44098","580","Looped Palstave","III 1 U","Private Collection,F. Ransom Esq., Hitchin.,from Dr. G. Roots Collection.","Ireland","Irlande","53.41291","-8.243889999999965","","None","None","None","148","edge 46; middle 25.5, butt 18","","345.51","thick brown polished patina all chipped off blade on one side. Slightly corroded dark green on the other side of blade.","smooth","29; 8.25","","","","In good consition.","","","Denis Antoine","https://www.flickr.com/photos/115096994@N02/20161267448","https://farm1.staticflickr.com/509/20161267448_56bc4fa512_m.jpg","superuser",-8.2439,53.4129,"IrishPalstavesPt1"
"44099","580","Palstave","III 3 A","(Chadwick Museum)? Bolton. Museum.","Ireland","Irlande","53.41291","-8.243889999999965","","None","None","None","128","edge 46; middle 27; butt 25","","253","","","5.5; 31","","bronze","","","","","Denis Antoine","https://www.flickr.com/photos/115096994@N02/20161267298","https://farm1.staticflickr.com/386/20161267298_f77616e741_m.jpg","superuser",-8.2439,53.4129,"IrishPalstavesPt1"
"44100","580","Looped Palstave,High flanged shaped","IV 1 K","British Museum,54 7 14 210,Collection of Cooke, Parsonstown 1854.","Ireland (probably)","Irlande","53.41291","-8.243889999999965","","None","None","None","160","edge 45; middle 23; butt 20","","367.46","grey, green & brown.","much corroded. full of pits. (roughly cast)","9; 29","","","","Butt broken, edge & point worn. Wings badly worn on one side. Raised decoration below stop, much worn.","","","Denis Antoine","https://www.flickr.com/photos/115096994@N02/20340801822","https://farm4.staticflickr.com/3817/20340801822_a0f129d2dc_m.jpg","superuser",-8.2439,53.4129,"IrishPalstavesPt1"
"44101","580","Looped Palstave","IV 3 A","Lewes Museum.","Ireland","Irlande","53.41291","-8.243889999999965","","None","None","None","103.5","edge 31; butt 22.5 & 20.5","","212.61","no patina","rough, green","22; 10.5; 27","","","","","","","Denis Antoine","https://www.flickr.com/photos/115096994@N02/19726618374","https://farm1.staticflickr.com/282/19726618374_fe83db72e0_m.jpg","superuser",-8.2439,53.4129,"IrishPalstavesPt1"
"44102","580","Palstave","I 1 A","Alnwick Castle No. 352","Ireland","Irlande","53.41291","-8.243889999999965","","None","None","None","116","edge 50; centre 29; butt 26","","283","brown.","Rather rough, edge polished & bronze coloured.","25","","","","","","","Denis Antoine","https://www.flickr.com/photos/115096994@N02/20349290065","https://farm1.staticflickr.com/424/20349290065_10d2332251_m.jpg","superuser",-8.2439,53.4129,"IrishPalstavesPt1"
"44103","580","Palstave","I 1 A","Brighton Museum,presented by H. Willett Esq., FSA","probably Ireland","","53.41291","-8.243889999999965","","None","None","None","115","edge 47; butt 28","","329.56","brownish green","smooth. heavily pocked all over","28 & 8 to 10","","Bronze","","","","","Denis Antoine","https://www.flickr.com/photos/115096994@N02/20323030976","https://farm4.staticflickr.com/3713/20323030976_2dcf282d38_m.jpg","superuser",-8.2439,53.4129,"IrishPalstavesPt1"
"44104","580","Palstave","I 1 A","Private Collection 1923,Lr. Hy. Backhouse, Bournemouth,5","Ireland","Irlande","53.41291","-8.243889999999965","","None","None","None","150","edge 50; middle 27; butt 23","","325","dark olive green.","rough & dull","8; 7; 19","","","","","","","Denis Antoine","https://www.flickr.com/photos/115096994@N02/20349289875","https://farm4.staticflickr.com/3822/20349289875_68307c1ea0_m.jpg","superuser",-8.2439,53.4129,"IrishPalstavesPt1"
"44105","580","Palstave","I 1 A","Bristol Museum,7854,acquired at Auction Sale 1924 with others.","Ireland?","","53.41291","-8.243889999999965","","None","None","None","approx. 81","edge 48; middle 26; butt 26.5","","155.92","","","30","","","","","","","Denis Antoine","https://www.flickr.com/photos/115096994@N02/19728332343","https://farm1.staticflickr.com/404/19728332343_7f26b84bc6_m.jpg","superuser",-8.2439,53.4129,"IrishPalstavesPt1"
"44106","580","Palstave","I 1 A","Royal Scottish Museum, Edinburg.,Reg. No. 1890.507.","Ireland","Irlande","53.41291","-8.243889999999965","","None","None","None","89","47; centre 26; butt 26","","181","dark brown","slightly pitted","30","","","","bronze, winged with stop, median ridge along sides; lunette edge.","","","Denis Antoine","https://www.flickr.com/photos/115096994@N02/20161220330","https://farm1.staticflickr.com/362/20161220330_2a4212ddd1_m.jpg","superuser",-8.2439,53.4129,"IrishPalstavesPt1"
"44107","580","Palstave","I 1 A","British Museum,54 7 14 205,from Collection of Mr. Cooke of Parsonstown.","Ireland","Irlande","53.41291","-8.243889999999965","","None","None","None","99","edge 43; middle; butt 23","","184.27","dark brown","very rough. One side of butt & edge are worn away.","5; 32","","","","","","","Denis Antoine","https://www.flickr.com/photos/115096994@N02/20349289675","https://farm1.staticflickr.com/473/20349289675_fb766fe1d2_m.jpg","superuser",-8.2439,53.4129,"IrishPalstavesPt1"
"44108","580","Palstave","I 1 A","Maidstone Museum,from collection of James Espinassi Esq.,May 15th 1867","Ireland","Irlande","53.41291","-8.243889999999965","","None","None","None","99","edge 47; butt 25","","240.97","very slight dark patina","smooth dark bronze colour","8; 29","","","","","","","Denis Antoine","https://www.flickr.com/photos/115096994@N02/20161220020","https://farm1.staticflickr.com/414/20161220020_cbaed677f4_m.jpg","superuser",-8.2439,53.4129,"IrishPalstavesPt1"
"44109","580","Palstave","I 1 A","Pitt Rivers Museum, Oxford.,1450","Ireland","Irlande","53.41291","-8.243889999999965","","None","None","None","74.5","edge 34; middle 22; butt 18","","","","fairly smooth casting.","4; 19; 26","","","","","","","Denis Antoine","https://www.flickr.com/photos/115096994@N02/19728333053","https://farm1.staticflickr.com/285/19728333053_3d8ab82f43_m.jpg","superuser",-8.2439,53.4129,"IrishPalstavesPt1"
"44110","580","Palstave","I 1 A","Salisbury, S. Wilts and Blackmore Museum,660 Brackstone Collection,29 on face, B660 on side.","Ireland","Irlande","53.41291","-8.243889999999965","","None","None","None","80","edge 28; middle 18; butt 16","","89.05","","golden brown.","17","","","","A heavy implement for its size. Flanges are slight but socket is concave.","","","Denis Antoine","https://www.flickr.com/photos/115096994@N02/19728331933","https://farm1.staticflickr.com/527/19728331933_fa26014356_m.jpg","superuser",-8.2439,53.4129,"IrishPalstavesPt1"
"44111","580","Palstave","I 1 A","Rugby School Museum, No. 7","Ireland","Irlande","53.41291","-8.243889999999965","","None","None","None","72","edge 29; butt 20","","121","green","rough","11; 19; 24; 8","","","","Irregular edge.","","","Denis Antoine","https://www.flickr.com/photos/115096994@N02/20349289425","https://farm1.staticflickr.com/311/20349289425_3ee32f27da_m.jpg","superuser",-8.2439,53.4129,"IrishPalstavesPt1"
"44112","580","Palstave","I 1 C","Sold to the Museum of Newport, Mon. 1923","Ireland","Irlande","53.41291","-8.243889999999965","","None","None","None","96","edge 36; middle 27; butt 24","","240","Dark green patina (thin) with bronze showing nearly all over.","smooth. Filed on the side where hole is, & pocked on the other.","7; 27","","","","The edge has one corner broken off & the other appears to have been cut off.","","","Denis Antoine","https://www.flickr.com/photos/115096994@N02/20161219900","https://farm1.staticflickr.com/515/20161219900_a530af5a3a_m.jpg","superuser",-8.2439,53.4129,"IrishPalstavesPt1"
"44113","580","Palstave","I 1 C","Pitt Rivers Museum, Oxford.","Ireland","Irlande","53.41291","-8.243889999999965","","None","None","None","119","edge 57; middle 30; butt 26","","","","fairly smooth","34; 6.5","","","","Flanges badly damaged.","","see orig.","Denis Antoine","https://www.flickr.com/photos/115096994@N02/20349289245","https://farm1.staticflickr.com/298/20349289245_4930e7e2c0_m.jpg","superuser",-8.2439,53.4129,"IrishPalstavesPt1"
"44114","580","Palstave","I 1 C","Salisbury, S. Wilts and Blackmore Museum,86 Brackstone Collection.,13 on face, B86 on side.","Ireland","Irlande","53.41291","-8.243889999999965","","None","None","None","92","edge 56; middle 25; butt 25","","182","dark brown","","4; 29","","","","The stop slopes inwards towards edge, & has a ridge below on the faces/","","","Denis Antoine","https://www.flickr.com/photos/115096994@N02/20162638679","https://farm1.staticflickr.com/356/20162638679_50db78436b_m.jpg","superuser",-8.2439,53.4129,"IrishPalstavesPt1"
"44115","580","Palstave","I 1 D","British Museum,54 7 14 209,Collection of Cooke of Parsonstown.","Ireland (probably)","",,,"","None","None","None","68","edge 38; middle 23; butt 23","","119.39","slight patina, dark green.","smooth below stop, finely mottled above. Edge flaked. Butt broken.","6; 26.5","","","","A broad rib, below stop, with a hollow on either side of it.","","","Denis Antoine","https://www.flickr.com/photos/115096994@N02/20355370351","https://farm1.staticflickr.com/404/20355370351_a8610a567f_m.jpg","superuser",,,"IrishPalstavesPt1"
"44116","580","Palstave","I 1 D","London, Horniman Museum.,Forest Hill, S.E.,bought from Miss Lecky, a collector.","Ireland","Irlande","53.41291","-8.243889999999965","","None","None","None","116","49","","318.93","greenish brown","fairly smooth","28; thinnest part 12 (5)","","","","","","","Denis Antoine","https://www.flickr.com/photos/115096994@N02/20340800392","https://farm4.staticflickr.com/3696/20340800392_5271209ed6_m.jpg","superuser",-8.2439,53.4129,"IrishPalstavesPt1"
"44117","580","Palstave","I 1 D","Chichester Museum (at the Institute),sold to Newport, Mon., Museum 1923","Ireland","Irlande","53.41291","-8.243889999999965","","None","None","None","122","edge 48.5; middle 27.5; butt 26","","255","the patina appears to have been cleaned off. The remains of a dark yellowish green patina on the septum.","smooth, but pocked all over","27; 22; 11","","Bronze","","","","","Denis Antoine","https://www.flickr.com/photos/115096994@N02/20161265818","https://farm1.staticflickr.com/379/20161265818_0eff6113bf_m.jpg","superuser",-8.2439,53.4129,"IrishPalstavesPt1"
"44118","580","Palstave","I 1 D","Salisbury, S. Wilts and Blackmore Museum,228 Brackstone Collection.,B228 on side, 12 on face.","Ireland","Irlande","53.41291","-8.243889999999965","","None","None","None","113","edge 45; middle 25; butt 23","","180.05","black","","5; 26.5","","","","Stop slopes in, towards the edge.","","","Denis Antoine","https://www.flickr.com/photos/115096994@N02/20323029816","https://farm1.staticflickr.com/458/20323029816_8045ef2431_m.jpg","superuser",-8.2439,53.4129,"IrishPalstavesPt1"
"44119","580","Palstave","I 1 E","Private Collection[.]1923 15[.]From the Collection of the late Geo. Shaw, Esq. of St. Chad's, Saddleworth.[.]Now in possession of Mr. Chadderton of Greenfiels.[.]Collected about 1850.","Ireland","Irlande","53.41291","-8.243889999999965","","None","None","None","149","edge 52; middle 23; butt 20","","425","","","25; 8","","","","","","Painted label: ""Bronze Celt. paalstab. 6 inches long ...nd in Ireland""","Denis Antoine","https://www.flickr.com/photos/115096994@N02/19728331243","https://farm1.staticflickr.com/479/19728331243_6e9b8ae8ca_m.jpg","superuser",-8.2439,53.4129,"IrishPalstavesPt1"
"44120","580","Palstave","I 1 E","Salisbury, S. Wilts and Blackmore Museum,248 Brackstone Collection,B248 on side; 30 on face.","Ireland","Irlande","53.41291","-8.243889999999965","","None","None","None","148","edge 62; middle 30; butt 25","","487.5","mottled green & brown","","9; 38","","","","","","","Denis Antoine","https://www.flickr.com/photos/115096994@N02/20340800142","https://farm1.staticflickr.com/336/20340800142_fe11978e24_m.jpg","superuser",-8.2439,53.4129,"IrishPalstavesPt1"
"44121","580","Palstave","I 1 F","Salisbury, S. Wilts and Blackmore Museum.,208 Brackstone Collection,B208 on side, 9 on side.","Ireland","Irlande","53.41291","-8.243889999999965","","None","None","None","113","edge 47; middle 25; butt 25","","237.25","brown & green.","","26; 4","","","","Below the stop is a concave V.","","","Denis Antoine","https://www.flickr.com/photos/115096994@N02/20349288685","https://farm4.staticflickr.com/3688/20349288685_fe0c99f163_m.jpg","superuser",-8.2439,53.4129,"IrishPalstavesPt1"
"44122","580","Palstave","I 1 F","Private Collection,1926,The Lord Braybrooke, Audley End, Saffron Walden, 22","Ireland,R. Barrow (taken out of the)","Barrow, Irlande","52.2333333","-6.966666700000019","","None","None","None","147","edge 57; middle 29;  butt 27","","402.8","dirty green","","22","","","","Measurements except 'Edge' & 'Centre' are approx.,Badly broken","","","Denis Antoine","https://www.flickr.com/photos/115096994@N02/20161265568","https://farm1.staticflickr.com/438/20161265568_1cc4a90e96_m.jpg","superuser",-6.9667,52.2333,"IrishPalstavesPt1"
"44123","580","Palstave","I 1 G","Alnwick Castle No. 349.","Ireland","Irlande","53.41291","-8.243889999999965","","None","None","None","117","edge 53; centre 26; butt 23","","275.6","Dark bronze.","Smooth","26","","","","","","","Denis Antoine","https://www.flickr.com/photos/115096994@N02/19728330893","https://farm1.staticflickr.com/379/19728330893_73511760cd_m.jpg","superuser",-8.2439,53.4129,"IrishPalstavesPt1"
"44124","580","Palstave","I 1 G","Salisbury, S. Wilts and Blackmore Museum.,666 Brackstone Collection,B666 on side, 32 on face.","Ireland","Irlande","53.41291","-8.243889999999965","","None","None","None","131","edge 60; butt 25; middle 30","","474.5","brown.","","33; 5","","","","","","","Denis Antoine","https://www.flickr.com/photos/115096994@N02/20340799972","https://farm1.staticflickr.com/301/20340799972_68a7476c93_m.jpg","superuser",-8.2439,53.4129,"IrishPalstavesPt1"
"44125","580","Palstave","I 1 H","British Museum,54 7 14 208,Collection of Cooke of Parsonstown.","Ireland (probably)","","53.41291","-8.243889999999965","","None","None","None","124","edge 60; middle 29; butt 26","","363.71","dull green, bronze shows.","mottled","6; 34","","","","Raised decoration.","","","Denis Antoine","https://www.flickr.com/photos/115096994@N02/19728330613","https://farm4.staticflickr.com/3675/19728330613_7737a16413_m.jpg","superuser",-8.2439,53.4129,"IrishPalstavesPt1"
"44126","580","Palstave","I 1 O","Salisbury, S. Wilts and Blackmore Museum,467 Bracstone Collection.,4 on face, B467 on side.","Ireland","Irlande","53.41291","-8.243889999999965","","None","None","None","110","edge 43; middle 27; butt 24","","172.9","green & brown","","3","","","","Flange damaged by plough? Pronounced stop, sloping downwards in direction of edge.","","","Denis Antoine","https://www.flickr.com/photos/115096994@N02/20355369451","https://farm1.staticflickr.com/384/20355369451_92c33a587b_m.jpg","superuser",-8.2439,53.4129,"IrishPalstavesPt1"
"44127","580","Looped Palstave","I 1 N","Royal Scottish Museum, Edinburgh,Reg. No. 1890.510.","Ireland","Irlande","53.41291","-8.243889999999965","","None","None","None","113","47; centre 28; butt 28","","201","Brown patina, green where pitted.","pitted; edges rather uneven.","32","","Bronze","","Celt., bronze, winged with V-shaped pocket stop and broken loop.","","","Denis Antoine","https://www.flickr.com/photos/115096994@N02/20340799602","https://farm1.staticflickr.com/453/20340799602_4181c3c83d_m.jpg","superuser",-8.2439,53.4129,"IrishPalstavesPt1"
"44128","580","Palstave","B9,I 1 N","Rochester Museum,Donor Lt. Col. Copeland F.S.A.","Ireland","Irlande","53.41291","-8.243889999999965","","None","None","None","107","edge 39; butt 27","","","slight green patina, remainder dark rust colour","a little rough","34; 6","","","","","","","Denis Antoine","https://www.flickr.com/photos/115096994@N02/20161264838","https://farm1.staticflickr.com/547/20161264838_21c43f179a_m.jpg","superuser",-8.2439,53.4129,"IrishPalstavesPt1"
"44129","580","Palstave","I 1 U","Lukis Museum, St. Peter Port, Guernsey.","Ireland","Irlande","53.41291","-8.243889999999965","","None","None","None","77","edge 41; middle 24; butt 25","","123.72","dark grey.","very pitted","7; 29","","Copper 89.38 + Tin 9.18 + Iron 0.34 + Sulphur 0.24 = 99.14","","Faint remains of a design. There is a circular hole in septum, about 7mm deep, this does not pass completely through. Edge is very uneven.","Quarterly journal Chemical Society, Vol. 4.","","Denis Antoine","https://www.flickr.com/photos/115096994@N02/20161265468","https://farm1.staticflickr.com/336/20161265468_3619d2a6f9_m.jpg","superuser",-8.2439,53.4129,"IrishPalstavesPt1"
"44130","580","Palstave","I 2 A","Rugby School Museum, P.2.","Ireland","Irlande","53.41291","-8.243889999999965","","None","None","None","154","edge 60; middle 30; butt 23","","450","patches of green patina, & dark bronze.","smooth","8; 34","","","","","","","Denis Antoine","https://www.flickr.com/photos/115096994@N02/19726615844","https://farm1.staticflickr.com/464/19726615844_c87d0898f4_m.jpg","superuser",-8.2439,53.4129,"IrishPalstavesPt1"
"44131","580","Palstave","I 2 A","British Museum,63 1 22 45,Mus. Pract. Geol. /63.","Ireland (probably)","","53.41291","-8.243889999999965","","None","None","None","122","edge 46; middle 30; butt 30","","377.63","","dull bronze with black stains. Corroded just below centre.","6; 38","","","","","","","Denis Antoine","https://www.flickr.com/photos/115096994@N02/20161217980","https://farm1.staticflickr.com/495/20161217980_264dc54069_m.jpg","superuser",-8.2439,53.4129,"IrishPalstavesPt1"
"44132","580","Palstave","I 2 C","British Museum,63 1 22 44,Mus. Pract. Geol. 63","Ireland (probably)","","53.41291","-8.243889999999965","","None","None","None","136","edge 57; middle 29; butt 25","","343.45","dark brown","fairly smooth. Small pit under left side of ridge.","5; 34","","","","Rib beneath stop.","","","Denis Antoine","https://www.flickr.com/photos/115096994@N02/19728330333","https://farm4.staticflickr.com/3724/19728330333_16d933d8ba_m.jpg","superuser",-8.2439,53.4129,"IrishPalstavesPt1"
"44133","580","Palstave (flanges hammered over)","I 2 D","Museum, Leeds Phil. & Lit. Society.","Ireland","Irlande","53.41291","-8.243889999999965","","None","None","None","129","edge 55","","332","","","31","","","","The wings almost meeting at base, triangular raised platform below stop-ridge from which midrib continues down centre of blade, edges hammered or cast into slight flange down each side of blade.","","","Denis Antoine","https://www.flickr.com/photos/115096994@N02/20355368751","https://farm1.staticflickr.com/444/20355368751_fedaa91e94_m.jpg","superuser",-8.2439,53.4129,"IrishPalstavesPt1"
"44134","580","Palstave","I 2 F","Pitt Rivers Museum, Oxford.","Ireland","Irlande","53.41291","-8.243889999999965","","None","None","None","108","edge 55; middle 28; butt 22","","","","","4; 32.5","","","","","","","Denis Antoine","https://www.flickr.com/photos/115096994@N02/20161217890","https://farm4.staticflickr.com/3698/20161217890_c9e5405361_m.jpg","superuser",-8.2439,53.4129,"IrishPalstavesPt1"
"44135","580","Palstave","I 2 F","British Museum 63 1 22 43,Mus. Pract. Geol. 1863","Ireland (probably)","",,,"","None","None","None","98","edge 49; middle 30; butt 28","","284","light green","fairly smooth","9; 35","","","","Butt is broken. Slightly hollowed ornament below stop.","","","Denis Antoine","https://www.flickr.com/photos/115096994@N02/20161217740","https://farm1.staticflickr.com/346/20161217740_15ffcc8ac0_m.jpg","superuser",,,"IrishPalstavesPt1"
"44136","580","Palstave","I 4 A","Bristol Museum,7856,acquired at an Auction Sale 1924","Ireland?","",,,"","None","None","None","108","edge 46; middle 24; butt 18","","170.1","","","5; 24","","","","","","","Denis Antoine","https://www.flickr.com/photos/115096994@N02/20323028276","https://farm1.staticflickr.com/530/20323028276_90dc2d4e4f_m.jpg","superuser",,,"IrishPalstavesPt1"
"44137","580","Palstave","I 4 A","Bristol Museum & Art Gallery,E1737,Pease Collection","Ireland","Irlande","53.41291","-8.243889999999965","","None","None","None","130","butt 26; centre 32; edge 71","","508","dark green","","35","","Bronze","","","","","Denis Antoine","https://www.flickr.com/photos/115096994@N02/20340798772","https://farm1.staticflickr.com/493/20340798772_455aa7b01e_m.jpg","superuser",-8.2439,53.4129,"IrishPalstavesPt1"
"44138","580","Palstave","I 4 A","Royal Scottish Museum, Edinburgh,Reg. No. 1890.506.","Ireland","Irlande","53.41291","-8.243889999999965","","None","None","None","70","centre 32: butt 21","","88","Dark brown patina, mottled green in places","","24; 7","","","","Palstave, bronze, with high stop; curved edge.","","","Denis Antoine","https://www.flickr.com/photos/115096994@N02/20323028016","https://farm1.staticflickr.com/524/20323028016_ac090b3489_m.jpg","superuser",-8.2439,53.4129,"IrishPalstavesPt1"
"44139","580","Palstave","I 4 A","Private Collection,1923,W. Claude Johnson Esq., Forest Row, Sussex.","Ireland","Irlande","53.41291","-8.243889999999965","","None","None","None","137","edge 65; middle 30.5; butt 22","","524.48","dark brown matt.","smooth","29.5; 40; 8; 41.5","","","","","","","Denis Antoine","https://www.flickr.com/photos/115096994@N02/20340798682","https://farm1.staticflickr.com/412/20340798682_76a2630085_m.jpg","superuser",-8.2439,53.4129,"IrishPalstavesPt1"
"44140","580","Palstave","I 4 A","John Holmes, City Art Gallery, Leeds.,Collection","Probably Ireland","","53.41291","-8.243889999999965","","None","None","None","133.5","edge 46.5","","283","","Greenish oxydisation, colour of metal showing through in places.","25.5","","","","","","","Denis Antoine","https://www.flickr.com/photos/115096994@N02/20161217510","https://farm1.staticflickr.com/282/20161217510_ea13ea76ce_m.jpg","superuser",-8.2439,53.4129,"IrishPalstavesPt1"
"44141","580","Palstave","I 4 A","British Museum,54 7 14 212,from Collection of Mr. Cooke of Parsonstown.","Ireland (probably)","",,,"","None","None","None","114","edge 50; middle 30; butt 28","","299.92","dull light green & golden bronze","marked with fine scratches; wings are notched.","8; .34","","","","Curved stop ridge.","","","Denis Antoine","https://www.flickr.com/photos/115096994@N02/20323027866","https://farm1.staticflickr.com/335/20323027866_6323a33757_m.jpg","superuser",,,"IrishPalstavesPt1"
"44142","580","Palstave","I 4 A","British Museum,63 1 22 37,Mus. Pract. Geol. /63","Ireland (probably)","",,,"","None","None","None","100","edge 43; middle 27; butt 24.5","","246.97","dark green","rough","8; 29","","","","Top of butt is worn. Points & wings broken.","","","Denis Antoine","https://www.flickr.com/photos/115096994@N02/20340798372","https://farm1.staticflickr.com/321/20340798372_4a6e940b55_m.jpg","superuser",,,"IrishPalstavesPt1"
"44143","580","Palstave","I 4 A","Pitt Rivers Museum, Oxford.","Ireland","Irlande","53.41291","-8.243889999999965","","None","None","None","122.5","edge 56; middle 29.5; butt 27","","","","","34; 5","","","","","","","Denis Antoine","https://www.flickr.com/photos/115096994@N02/20161217170","https://farm1.staticflickr.com/499/20161217170_ee50dc5600_m.jpg","superuser",-8.2439,53.4129,"IrishPalstavesPt1"
"44144","580","Palstave","I 4 A","Rugby School Museum,A7.","Ireland","Irlande","53.41291","-8.243889999999965","","None","None","None","130","edge 55; middle 35; butt 32","","380","no patina","dark bronze, lighter in places. A few small holes.","8; 32; 20; 10","","","","","","","Denis Antoine","https://www.flickr.com/photos/115096994@N02/19726614434","https://farm1.staticflickr.com/380/19726614434_27d8ca147b_m.jpg","superuser",-8.2439,53.4129,"IrishPalstavesPt1"
"44145","580","Palstave","I 4 A","Herts County Museum, St. Albans,lent by Capt. J.H. Ball, RAF","Ireland","Irlande","53.41291","-8.243889999999965","","None","None","None","129","edge 67.5; middle 30; butt 26.5","","411.05","a suggestion of patina of medium green, but chiefly bronze & golden bronze.","fairly smooth, but pitted all over","36; 7; 34","","","","Sharp edge","","","Denis Antoine","https://www.flickr.com/photos/115096994@N02/20161217090","https://farm1.staticflickr.com/534/20161217090_3b843659a3_m.jpg","superuser",-8.2439,53.4129,"IrishPalstavesPt1"
"44146","580","Palstave","I 4 A","Salisbury, S. Wilts and Blackmore Museum,26 on face.","Ireland","Irlande","53.41291","-8.243889999999965","","None","None","None","146","edge 56; middle 29; butt 26","26; 7","","very pale green, bronze shows through.","","331.5","","","","","","","Denis Antoine","https://www.flickr.com/photos/115096994@N02/20161263208","https://farm1.staticflickr.com/375/20161263208_c23696b8f1_m.jpg","superuser",-8.2439,53.4129,"IrishPalstavesPt1"
"44147","580","Palstave","I 4 F","British Museum,63 1 22 34,Mus. Prac. Geol. /63","Ireland (probably)","","53.41291","-8.243889999999965","","None","None","None","94.5","edge 39.5; middle 23; butt 20","","137.9","slight remains of patina light green.","much corroded","4; 24","","","","Hollowed ornament beneath stop.","","","Denis Antoine","https://www.flickr.com/photos/115096994@N02/20323027416","https://farm1.staticflickr.com/330/20323027416_1d0ea87a2e_m.jpg","superuser",-8.2439,53.4129,"IrishPalstavesPt1"
"44148","580","Palstave","I 4 F","Salisbury, S. Wilts and Blackmore Museum,911 Brackstone Collection,B911 on side,29 on face.","Ireland","Irlande","53.41291","-8.243889999999965","","None","None","None","120","edge 55; middle 30; butt 25","","321.75","mottled green","","27; 4","","","","Concave V below stop.","","","Denis Antoine","https://www.flickr.com/photos/115096994@N02/20340798032","https://farm1.staticflickr.com/480/20340798032_c624f328f7_m.jpg","superuser",-8.2439,53.4129,"IrishPalstavesPt1"
"44149","580","Palstave","I 4 G","Museum, Leeds Phil. & Lit. Society.","Ireland","Irlande","53.41291","-8.243889999999965","","None","None","None","98.5","edge 46","","198","","","30","","","","Straight butt, high stop ridge, & shield-shaped space enclosed by raised ridge below stop-ridge.","","","Denis Antoine","https://www.flickr.com/photos/115096994@N02/20162635919","https://farm1.staticflickr.com/362/20162635919_3e3eb7f4e8_m.jpg","superuser",-8.2439,53.4129,"IrishPalstavesPt1"
"44150","580","Palstave","I 4 G","Museum, Leeds Phil. & Lit. Society.","Ireland","Irlande","53.41291","-8.243889999999965","","None","None","None","99","edge 42.5","","197","","","27","","","","With stop ridge, raised shield-shaped ornament below stop ridge. Butt broken & repaired.","","","Denis Antoine","https://www.flickr.com/photos/115096994@N02/20162635789","https://farm1.staticflickr.com/404/20162635789_ae6c76a431_m.jpg","superuser",-8.2439,53.4129,"IrishPalstavesPt1"
"44151","580","Palstave","I 4 G","British Museum,47 5 20 9,bought from Earl of Enniskillen, 1847.","Ireland (probably)","","53.41291","-8.243889999999965","","None","None","None","117","edge 51.5; middle 29; butt 26","","267.23","dark green","rather rough","5; 31","","","","Edge slightly chipped. Butt badly broken. Slightly raised shield beneath stop.","","","Denis Antoine","https://www.flickr.com/photos/115096994@N02/20323027126","https://farm1.staticflickr.com/504/20323027126_ea666c269f_m.jpg","superuser",-8.2439,53.4129,"IrishPalstavesPt1"
"44152","580","Palstave","I 4 G","Ashmolean Museum, Oxford.,1885 No. 749.,Fortnum Collection.,Given by C.D.E. Fortnum.","Ireland","Irlande","53.41291","-8.243889999999965","","None","None","None","96","edge 52","","258.25","no patina","Yellow bronze","32","","","","butt end slightly imperfect","","","Denis Antoine","https://www.flickr.com/photos/115096994@N02/20162635669","https://farm1.staticflickr.com/493/20162635669_794ac8e41b_m.jpg","superuser",-8.2439,53.4129,"IrishPalstavesPt1"
"44153","580","Palstave","I 4 G","Salisbury, S. Wilts and Blackmore Museum.,1 on face.","Ireland","Irlande","53.41291","-8.243889999999965","","None","None","None","101","edge 44; middle 26; butt 23","","175.5","brown","","4; 32","","","","","","","Denis Antoine","https://www.flickr.com/photos/115096994@N02/20323026976","https://farm1.staticflickr.com/301/20323026976_09b8848555_m.jpg","superuser",-8.2439,53.4129,"IrishPalstavesPt1"
"44154","580","Palstave","I 4 G","Horniman Museum, Forest Hill, S.E.,bought from Robert Day.","Ireland,Lough Erne","Lough Erne","54.4790631","-7.79528700000003","","None","None","None","137","edge 41; butt 25","","311.8","golden green","slightly pockmarked otherwise smooth","30; thinnest 7","","","","","","","Denis Antoine","https://www.flickr.com/photos/115096994@N02/19728328523","https://farm1.staticflickr.com/347/19728328523_72f8f5f785_m.jpg","superuser",-7.7953,54.4791,"IrishPalstavesPt1"
"44155","580","Palstave","I 4 H","British Museum,47 5 20 11","Ireland","Irlande","53.41291","-8.243889999999965","","None","None","None","136","edge 69; middle 34; butt 26","","594","dark brown & some green.","where no patina, rather rough. Fine scratches near edge.","13; 40","","","","Raised ornament below stop. Edges of wings chipped & left point of edge is turned.","","","Denis Antoine","https://www.flickr.com/photos/115096994@N02/20323026796","https://farm1.staticflickr.com/264/20323026796_8edd87f194_m.jpg","superuser",-8.2439,53.4129,"IrishPalstavesPt1"
"44156","580","Palstave","I 4 I","British Museum,54 7 14 199,Collection of Cooke of Parsonstown.","Ireland (probably)","",,,"","None","None","None","148","middle 33.5; butt 28","63","554.06","slight remains of patina dark brown","scratched & rough","7; 28","","","","Raised decoration. Edges of wings & angles notched. Right point of edge is turned over.","","","Denis Antoine","https://www.flickr.com/photos/115096994@N02/20340797442","https://farm1.staticflickr.com/401/20340797442_fec657d721_m.jpg","superuser",,,"IrishPalstavesPt1"
"44157","580","Palstave","I 4 K","British Museum,63 1 22 27,Mus. Pract. Geol. 1863.","Ireland (probably)","",,,"","None","None","None","92","middle 28; butt 23","50","176.35","dark green.","corroded & pitted.","7; 24","","","","Butt broken. Small hole in it. Raised ornament beneath stop.","","","Denis Antoine","https://www.flickr.com/photos/115096994@N02/20323026636","https://farm4.staticflickr.com/3715/20323026636_09fe501bb8_m.jpg","superuser",,,"IrishPalstavesPt1"
"44158","580","Palstave","I 4 M","Museum, Leeds Phil. & Lit. Society.","Ireland","Irlande","53.41291","-8.243889999999965","","None","None","None","115","52.5","","277","","smooth, copper colour.","30","","","","High thin stop-ridge, two raised lines extending from base of wings & forming a triangle, from which the midrib descends towards the cutting edge. Sides flat, butt rounded.","","","Denis Antoine","https://www.flickr.com/photos/115096994@N02/20161262358","https://farm1.staticflickr.com/259/20161262358_3c7c8c9571_m.jpg","superuser",-8.2439,53.4129,"IrishPalstavesPt1"
"44159","580","Palstave","I 4 O","British Museum,63 1 22 48,Mus. Pract. Geol. /63.","Ireland (probably)","","53.41291","-8.243889999999965","","None","None","None","75.5","middle 24; butt 24","34","102.72","light green","","28; 5","","","","much broken & worn","","","Denis Antoine","https://www.flickr.com/photos/115096994@N02/20161216110","https://farm4.staticflickr.com/3805/20161216110_ccf74fb482_m.jpg","superuser",-8.2439,53.4129,"IrishPalstavesPt1"
"44160","580","Palstave","I 4 V","Museum, Leeds Phil. & Lit. Society.","Ireland","Irlande","53.41291","-8.243889999999965","","None","None","None","134","","60","408","","metallic colour, no oxidisation.","31","","","","Stop ridge, below which is curved  band connecting up with wings & enclosing semi-elliptical space, which is filled by lines of chevrons crossing horizontally. On sides, two deeply incised parallel lines running parallel to edge of wings & connected at the base of wings by similar lines.","","","Denis Antoine","https://www.flickr.com/photos/115096994@N02/20355366731","https://farm1.staticflickr.com/443/20355366731_8318f59248_m.jpg","superuser",-8.2439,53.4129,"IrishPalstavesPt1"
"44161","580","Palstave","u I 4 U","British Museum,63 1 22 33,Mus. Pract. Geol. /63.","Ireland (probably)","","53.41291","-8.243889999999965","","None","None","None","130","middle 28; butt 24","59","389.81","dark green & brown between wings.","deep pit on face. Finely mottled & scratched on reverse.","9; 25","","","","Wings are notched on edges. Punched pattern showing on face of blade below ridge.","","","Denis Antoine","https://www.flickr.com/photos/115096994@N02/20355366661","https://farm1.staticflickr.com/344/20355366661_941fd975d0_m.jpg","superuser",-8.2439,53.4129,"IrishPalstavesPt1"
"44162","580","Palstave","I 4 U","Salisbury, S. Wilts and Blackmore Museum,5 on face, 32 in ink very faint (Probably 32 Brackstone Collection).","Ireland","Irlande","53.41291","-8.243889999999965","","None","None","None","141","middle 29; butt 22","59","481","","golden brown all over.","10; 18; 36","","","","Perfect. The stop slopes down in direction of edge; 2 grooves beneath.","","","Denis Antoine","https://www.flickr.com/photos/115096994@N02/20323027396","https://farm1.staticflickr.com/495/20323027396_e75581243b_m.jpg","superuser",-8.2439,53.4129,"IrishPalstavesPt1"
"44163","580","Palstave","I 4 A","Horniman Musuem, Forest Hill, S.E.,bought from collector named Robert Day.","Ireland,Co Kerry,River Mayne","Comté de Kerry, Co. Kerry, Irlande","52.15446069999999","-9.566863199999943","","None","None","None","88","42","","184.275","","smooth uncorroded bronze.","25; thinnest part (s) 5.5","","","","","","","Denis Antoine","https://www.flickr.com/photos/115096994@N02/20355366501","https://farm1.staticflickr.com/377/20355366501_3a81d30d68_m.jpg","superuser",-9.5669,52.1545,"IrishPalstavesPt1"
"44164","580","Palstave","I 4 U","Herts County Museum, St. Albans,41,lent by Capt. J.H. Ball, RAF","Ireland,Co Kerry,Trallee","Tralee, Co. Kerry, Irlande","52.2713096","-9.699932499999932","","None","None","None","133","middle 27; butt 26","67","382.72","no patina","smooth; dark & golden bronze.","24; 9","","","","Both sides decorated with short indented lines","","","Denis Antoine","https://www.flickr.com/photos/115096994@N02/20162634969","https://farm1.staticflickr.com/350/20162634969_52c8ac27aa_m.jpg","superuser",-9.6999,52.2713,"IrishPalstavesPt1"
"44165","580","Looped Palstave","I 1 T","Warwick Museum","Ireland,Kildare or King's Co.,Bog of Allan","Bog of Allen, Co. Kildare, Irlande","53.2485288","-6.99647559999994","","None","None","None","142","at edge 60","","355","Bronze color","smooth","","","Bronze","","","","One of eight presented by Dr. Lloyd","Denis Antoine","https://www.flickr.com/photos/115096994@N02/19728327823","https://farm1.staticflickr.com/343/19728327823_32a05c3de6_m.jpg","superuser",-6.9965,53.2485,"IrishPalstavesPt1"
"44166","580","Palstave","I 1 U","Manchester Museum,L 50.,Bought of G.C. Yates.","Ireland,Co Kildare,Kildare","Kildare, Irlande","53.1589342","-6.909568300000046","","None","None","None","107.5","middle 28; butt 22.5","46.5","240.97","very dark dull browny green.","smooth. Traces of red gravel.","31.5; 28; 27; 7.5","","","","This implement seems to have ""moved"" in casting. Originally there was a raised shield below the stop. Middle of edge is flattened.","","","Denis Antoine","https://www.flickr.com/photos/115096994@N02/20161215650","https://farm1.staticflickr.com/302/20161215650_d089165d07_m.jpg","superuser",-6.9096,53.1589,"IrishPalstavesPt1"
"44167","580","Palstave","I 2 G","Herts County Museum, St. Albans.,lent by Capt. J.H. Ball, RAF.","Ireland,Kildare or King's Co.,Bog of Allan","Bog of Allen, Co. Kildare, Irlande","53.2485288","-6.99647559999994","","None","None","None","134.5","middle 27.5; butt 22","57","357.91","traces of patina of drak brown.","smooth, cleaned. light & dark golden bronze","36; 7; 35","","","","Sides are hammer marked. Below the stop is a shield, hollowed, & round this, a very slightly raised rim.","","","Denis Antoine","https://www.flickr.com/photos/115096994@N02/20349284885","https://farm1.staticflickr.com/399/20349284885_3c30851906_m.jpg","superuser",-6.9965,53.2485,"IrishPalstavesPt1"
"44168","580","Palstave","I 4 A","Warwick Museum.","Ireland,Kildare or King's Co.,Bog of Allan","Bog of Allen, Co. Kildare, Irlande","53.2485288","-6.99647559999994","","None","None","None","110","30","54","285","dark green","of face smooth. Edge rough","","","","","","","One of Eight presented by Dr. Lloyd. All to one ticket.","Denis Antoine","https://www.flickr.com/photos/115096994@N02/20161261618","https://farm1.staticflickr.com/309/20161261618_d9e86e9330_m.jpg","superuser",-6.9965,53.2485,"IrishPalstavesPt1"
"44169","580","Palstave","I 4 U","British Museum,73 6 2 9,Bradbury Collection from Lucas Collection.","Ireland,Co Kildare","Co. Kildare, Irlande","53.2137545","-6.866112799999996","","None","None","None","120","middle 36.5; butt 30","58","435.58","dark green.","rouhg. Circular spot on each side of top surface of butt. (hammered)","6; 33","","","","Hole below stop on face (probably defective casting). Edge blunted. Butt broken. Wings are notched.","","","Denis Antoine","https://www.flickr.com/photos/115096994@N02/20323025866","https://farm1.staticflickr.com/271/20323025866_502da06eb4_m.jpg","superuser",-6.8661,53.2138,"IrishPalstavesPt1"
"44170","580","Looped Palstave","I 1 N","Museum of Archaeology & Ethnology, Cambridge,No. 110 Murray Collection.","Ireland,Kings Co,Edenderry","Edenderry, Co. Offaly, Irlande","53.34328430000001","-7.0505832000000055","","None","None","None","110","butt & middle 24","45.5","156","dark & light dusty brown.","Uneven corroded pits & bubbles.","6; 28","","","","Very badly cast, many bubbles, one hole right through. Wings & butt imperfect. Traces of a loop. The stop is more like two pockets, so that it joins on either face a raised convex triangular tongue.","","","Denis Antoine","https://www.flickr.com/photos/115096994@N02/20349284765","https://farm1.staticflickr.com/293/20349284765_98d216c3ac_m.jpg","superuser",-7.0506,53.3433,"IrishPalstavesPt1"
"44171","580","Palstave","I 1 A","Museum of Archaeology & Ethnology, Cambridge,No. 109 Murray Collection.","Ireland,Kings Co,Edenderry","Edenderry, Co. Offaly, Irlande","53.34328430000001","-7.0505832000000055","","None","None","None","88","butt & middle 27.5","46","243","dark brown & green patina, some dust colour between the wings.","fairly smooth","8; 31.5","","","","The butt has been so much hammered with that half the wings have gone. There is a little groove above each point.","","","Denis Antoine","https://www.flickr.com/photos/115096994@N02/20349284715","https://farm1.staticflickr.com/470/20349284715_917843ab69_m.jpg","superuser",-7.0506,53.3433,"IrishPalstavesPt1"
"44172","580","Palstave","I 1 A","Museum of Archaeology & Ethnology, Cambridge,No. 107 Murray Collection.","Ireland,King's Co,Edenderry","Edenderry, Co. Offaly, Irlande","53.34328430000001","-7.0505832000000055","","None","None","None","115.5","butt & middle 29.5","53","300","dark brown patina, a little green & dust colour.","fairly smooth","9; 31","","","","Overhanging stop ridge. Cast marks showing.","","","Denis Antoine","https://www.flickr.com/photos/115096994@N02/20161215370","https://farm1.staticflickr.com/327/20161215370_dcd654015a_m.jpg","superuser",-7.0506,53.3433,"IrishPalstavesPt1"
"44173","580","Palstave","I 1 A","Museum of Archaeology & Ethnology, Cambridge,No. 106 Murray Collection.","Ireland,King's Co,Edenderry","Edenderry, Co. Offaly, Irlande","53.34328430000001","-7.0505832000000055","","None","None","None","122.5","middle & butt 25","50.5","240","dark & dusty brown.","fairly smooth. The hammer marks show a good deal.","5.5; 32","","","","Overhanging stop ridge. Cast marks show.","","","Denis Antoine","https://www.flickr.com/photos/115096994@N02/20349284585","https://farm1.staticflickr.com/473/20349284585_92ab2a6e9a_m.jpg","superuser",-7.0506,53.3433,"IrishPalstavesPt1"
"44174","580","Palstave","I 1 A","Museum of Archaeology & Ethnology, Cambridge,No. 105 Murray Collection.","Ireland,King's Co,Edenderry","Edenderry, Co. Offaly, Irlande","53.34328430000001","-7.0505832000000055","","None","None","None","90","middle 25; butt 25","45","165","shades of dull green & brown","rather uneven","28; 9","","","","Overhanging stop ridge.","","","Denis Antoine","https://www.flickr.com/photos/115096994@N02/20162634309","https://farm1.staticflickr.com/308/20162634309_291588657d_m.jpg","superuser",-7.0506,53.3433,"IrishPalstavesPt1"
"44175","580","Palstave","I 1 E","Museum of Archaeology & Ethnology, Cambridge,No. 103 Murray Collection.","Ireland,King's Co,Edenderry","Edenderry, Co. Offaly, Irlande","53.34328430000001","-7.0505832000000055","","None","None","None","129","middle 27.5; butt 27.5","55","353","dark brown or black patina & a few small patches of green.","smooth & dull","7; 29","","","","Wings continued below stop ridge. Both faces decorated with a pair of shallow flutings which produce a falt midrib.","","","Denis Antoine","https://www.flickr.com/photos/115096994@N02/20323025386","https://farm4.staticflickr.com/3681/20323025386_081e265e4f_m.jpg","superuser",-7.0506,53.3433,"IrishPalstavesPt1"
"44176","580","Palstave","I 1 G","Museum of Archaeology & Ethnology, Cambridge,No. 113 Murray Collection.","Ireland,King's Co,Edenderry","Edenderry, Co. Offaly, Irlande","53.34328430000001","-7.0505832000000055","","None","None","None","113.5","middle & butt 27","33","282","dark & light brown patina, some metal showing through.","fairly smooth","30.5; 6.5","","","","High stop ridge & wings forming a shield below the stop. The butt end has originally been hammered with & flattened. The overhanging metal has been filed away in modern times for analysis.","","Catalogue says found at Edenderry. Boyne is written in ink on the implement.","Denis Antoine","https://www.flickr.com/photos/115096994@N02/20340795772","https://farm1.staticflickr.com/567/20340795772_1c26a07f55_m.jpg","superuser",-7.0506,53.3433,"IrishPalstavesPt1"
"44177","580","Palstave","I 1 N","Museum of Archaeology & Ethnology, Cambridge,No. 111 Murray Collection.","Ireland,King's Co,Edenderry","Edenderry, Co. Offaly, Irlande","53.34328430000001","-7.0505832000000055","","None","None","None","101","butt & middle 29","54.5","260","dark brown patina & some pale green","smooth & dull","5; 35","","","","Butt & a bit of one wing broken. The stop is more like 2 deep pockets which form a raised tongue on eother face. Cast marks show.","","","Denis Antoine","https://www.flickr.com/photos/115096994@N02/20323025296","https://farm1.staticflickr.com/361/20323025296_11d536ca03_m.jpg","superuser",-7.0506,53.3433,"IrishPalstavesPt1"
"44178","580","Palstave","I 2 F","Museum of Archaeology & Ethnology, Cambridge,No. 112 Murray Collection.","Ireland,King's Co,Edenderry","Edenderry, Co. Offaly, Irlande","53.34328430000001","-7.0505832000000055","","None","None","None","101","middle & butt 30","58","266","dark brown","smooth","5.5; 32","","","","High stop ridge, faint shield shaped ornament below the stop. The butt has been so much hammered with that one wing has half gone & the other almost entirely gone as it has been broken as well. The edge has been re-sharpened in modern times.","","","Denis Antoine","https://www.flickr.com/photos/115096994@N02/20355365511","https://farm4.staticflickr.com/3808/20355365511_f24bd60e15_m.jpg","superuser",-7.0506,53.3433,"IrishPalstavesPt1"
"44179","580","Palstave","I 4 A","Museum of Archaeology & Ethnology, Cambridge,No. 104 Murray Collection.","Ireland,King's Co,Edenderry","Edenderry, Co. Offaly, Irlande","53.34328430000001","-7.0505832000000055","","None","None","None","118","middle 26; butt 26","51","260","bright brown patina & light dull dusty brown between the wings.","smooth & shiny & bright brown in most places.","6.5; 27","","","","Wings contract at the stop ridge. The cutting edge has had a hard blow.","","","Denis Antoine","https://www.flickr.com/photos/115096994@N02/20162633959","https://farm4.staticflickr.com/3678/20162633959_1bb3a137bc_m.jpg","superuser",-7.0506,53.3433,"IrishPalstavesPt1"
"44180","580","Palstave","I 4 A","Museum of Archaeology & Ethnology, Cambridge,No. 102 Murray Collection.","Ireland,King's Co,Edenderry","Edenderry, Co. Offaly, Irlande","53.34328430000001","-7.0505832000000055","","None","None","None","161","middle 29; butt 29","63.5","520","bluish grey","battered looking & rather uneven.","34; 9","","","","Wings continued below stop ridge. One wing damaged. Sides hammered very flat, on one it almost looks as though a fern-like pattern was intended.","","","Denis Antoine","https://www.flickr.com/photos/115096994@N02/20162633939","https://farm4.staticflickr.com/3768/20162633939_3f7d4e1fc3_m.jpg","superuser",-7.0506,53.3433,"IrishPalstavesPt1"
"44181","580","Palstave","I 4 F","Museum of Archaeology & Ethnology, Cambridge,No. 101 Murray Collection.","Ireland,King's Co,Edenderry","Edenderry, Co. Offaly, Irlande","53.34328430000001","-7.0505832000000055","","None","None","None","108.5","middle 25.5; butt 23","45","200","brown patina, a little green & metal showing through.","smooth & shiny","32; 6.5","","","","High stop ridge & large angular wings. Prominent cast marks.","","","Denis Antoine","https://www.flickr.com/photos/115096994@N02/20162633839","https://farm1.staticflickr.com/556/20162633839_3ceec23ef5_m.jpg","superuser",-7.0506,53.3433,"IrishPalstavesPt1"
"44182","580","Palstave","I 4 G","Museum of Archaeology & Ethnology, Cambridge,No. 114 Murray Collection.","Ireland,King's Co,Edenderry","Edenderry, Co. Offaly, Irlande","53.34328430000001","-7.0505832000000055","","None","None","None","156","middle 27.5; butt 26","70","515","very dark brown & green. some dust colour in the corners, & some metal showing through.","smooth","38; 9.5","","","","High stop ridge & shield shaped ornament below the stop. Expanding blade. Base broken, wings diamond shaped.","","","Denis Antoine","https://www.flickr.com/photos/115096994@N02/20323024896","https://farm4.staticflickr.com/3699/20323024896_2c69d96839_m.jpg","superuser",-7.0506,53.3433,"IrishPalstavesPt1"
"44183","580","Palstave","I 1 C","Herts County Museum, St. Albans.,62,lent by Capt. J.H. Ball, RAF","Ireland,Co Limerick,Lough Gur","Lough Gur, Co. Limerick, Irlande","52.5163151","-8.533876299999974","","None","None","None","102","middle 27; butt 27","41.5","194.9","thick dark brown, mostly chipped off, leaving a green surface slightly pitted.","smooth","29; 6; 27.5","","","","","","","Denis Antoine","https://www.flickr.com/photos/115096994@N02/20161214420","https://farm1.staticflickr.com/280/20161214420_65ecf29235_m.jpg","superuser",-8.5339,52.5163,"IrishPalstavesPt1"
"44184","580","Palstave","I 1 O","British Museum (Irish Case)","Ireland,Co Limerick","Co. Limerick, Irlande","52.522122","-8.812378399999943","","None","None","None","90","middle 23; butt 21","44","122.47","dark brown.","rather scratched., flaked on edge.","5; 29","","","","Edge a little chipped. Butt broken. Broad raised rib beneath stop.","","","Denis Antoine","https://www.flickr.com/photos/115096994@N02/20323024696","https://farm1.staticflickr.com/258/20323024696_18f04420e6_m.jpg","superuser",-8.8124,52.5221,"IrishPalstavesPt1"
"44185","580","Palstave","I 2 G","Private Collection,1923,16,Mr. Chadderton,From the Collection of the late Geo. Shaw Esq. of St. Chad's Saddleworth.,now in the possession of Mr. Chadderton of Greenfield.,Collected about 1850.","Ireland,Co Limerick,Limerick","Limerick, Irlande","52.6680204","-8.630497500000047","","None","None","None","146","middle 32; butt 29","68","542","","","4.5; 35","","","","","","Written label: ""Remarkably fine celt. Limerick.""","Denis Antoine","https://www.flickr.com/photos/115096994@N02/20323024596","https://farm1.staticflickr.com/425/20323024596_441985eb94_m.jpg","superuser",-8.6305,52.668,"IrishPalstavesPt1"
"44186","580","Looped Palstave","I 1 D","Masons College, Edmund St. (Bham University),From Robertson Collection.","Ireland,Londonderry","Derry, Londonderry, Derry, Royaume-Uni","54.9966124","-7.308574799999974","","None","None","None","122","","width at edge 64","364","Slight","Dark bronze","","","Bronze","","","","","Denis Antoine","https://www.flickr.com/photos/115096994@N02/20161260338","https://farm1.staticflickr.com/429/20161260338_fbe33357bd_m.jpg","superuser",-7.3086,54.9966,"IrishPalstavesPt1"
"44187","580","Palstave","","Pitt Rivers Museum, Oxford.,P.R. 1444.,R. Day Collection, Cork.","Ireland,Londonderry,Slieve Galleon","Derry, Londonderry, Derry, Royaume-Uni","54.9966124","-7.308574799999974","","None","None","None","103.5","middle 21.5; butt 23","64","","","","9.5; 20.5","","","","","","","Denis Antoine","https://www.flickr.com/photos/115096994@N02/20349283485","https://farm1.staticflickr.com/543/20349283485_680d47707d_m.jpg","superuser",-7.3086,54.9966,"IrishPalstavesPt1"
"44188","580","Palstave","I 1 A","British Musuem,(Irish Case, unnumbered)","Ireland,Co Louth","Co. Louth, Irlande","53.8969758","-6.467097100000046","","None","None","None","86","middle 40; butt 25","40","166.26","no patina","corroded, dark green","4; 27","","","","Edge blunted & widened, edges of wings chipped & broken, also edges of stop ridge. Points of edge curbed upwards & inwards.","","","Denis Antoine","https://www.flickr.com/photos/115096994@N02/20162633529","https://farm1.staticflickr.com/537/20162633529_28923cc05e_m.jpg","superuser",-6.4671,53.897,"IrishPalstavesPt1"
"44189","580","Palstave","I 4 F","Private Collection,F. Ransom Esq., Hitchin,from Dr. G. Roots Collection.","Ireland,Co Lough,Danishport","Co. Louth, Irlande","53.8969758","-6.467097100000046","","None","None","None","150","middle 32; butt 26","62","472.73","no patina","smooth, pitted all over. dark bronze colour","27; 4.5","","","","","","","Denis Antoine","https://www.flickr.com/photos/115096994@N02/20340794662","https://farm1.staticflickr.com/559/20340794662_f2cca3bc62_m.jpg","superuser",-6.4671,53.897,"IrishPalstavesPt1"
"44190","580","Palstave","I 1 A","Pitt Rivers Museum, Oxford.,lent from Tower Armory, 1915.,97.","Ireland,Co Mayo","Co. Mayo, Irlande","53.93458099999999","-9.351645599999983","","None","None","None","102","middle 26.5; butt 26","51","","","smooth, fairly good casting.","7; 27","","","","","","","Denis Antoine","https://www.flickr.com/photos/115096994@N02/20161213740","https://farm1.staticflickr.com/422/20161213740_2a08a3b024_m.jpg","superuser",-9.3516,53.9346,"IrishPalstavesPt1"
"44191","580","Palstave","I 1 G","Museum of Archaeology & Ethnology, Cambridge.,Banks Collection.","Ireland,Co Mayo,Ballina","Ballina, Co. Mayo, Irlande","54.1149482","-9.155069300000036","","None","None","None","115.5","middle 26; butt 26","47","218","dark green patina & some green & drab.","rather rough","6.5; 26","","","","High stop ridge. Faint shield shaped ornament. Butt broken.","Foster Bequest 14, catalogue,Prehistoric Bronzes 17, the catalogue is lost.","","Denis Antoine","https://www.flickr.com/photos/115096994@N02/20355364541","https://farm1.staticflickr.com/263/20355364541_4787e5b827_m.jpg","superuser",-9.1551,54.1149,"IrishPalstavesPt1"
"44192","580","Palstave","I 4 A","Pitt Rivers Musuem, Oxford,76,lent from the Tower Armoury,1915","Ireland,Mayo","Co. Mayo, Irlande","53.93458099999999","-9.351645599999983","","None","None","None","145","middle 33; butt 27","65","","","","13; 29","","","","","","","Denis Antoine","https://www.flickr.com/photos/115096994@N02/20349283125","https://farm1.staticflickr.com/316/20349283125_85fea44c72_m.jpg","superuser",-9.3516,53.9346,"IrishPalstavesPt1"
"44193","580","Palstave","I 4 U","Pitt Rivers Museum, Oxford,98,lent from Tower Armoury. 1915.","Ireland,Co Mayo","Co. Mayo, Irlande","53.93458099999999","-9.351645599999983","","None","None","None","96.5","middle 25; butt 26","49","","","smooth. very fair casting.","5; 26.5","","","","","","","Denis Antoine","https://www.flickr.com/photos/115096994@N02/19728325683","https://farm1.staticflickr.com/283/19728325683_23291f4fc5_m.jpg","superuser",-9.3516,53.9346,"IrishPalstavesPt1"
"44194","580","Looped Palstave","I 1 A","British Museum,W.G. 1556.","Ireland,Co Meath,Maryrose?,Mayvore?","Comté de Meath, Co. Meath, Irlande","53.60554800000001","-6.6564169000000675","","None","None","None","129","middle 28; butt 25","42","281.41","dull brownish green, showing bronze.","rough","5; 32","","","","Points of edge broken","","","Denis Antoine","https://www.flickr.com/photos/115096994@N02/20349282895","https://farm1.staticflickr.com/326/20349282895_4595ac7db4_m.jpg","superuser",-6.6564,53.6055,"IrishPalstavesPt1"
"44195","580","Looped Palstave","I 1 C","Museum of Archaeology & Ethnology, Cambridge.,presented by Mrs. WK Foster.","Meath?,Boyne viaduct","","53.60554800000001","-6.6564169000000675","","None","None","None","114","middle 25; butt 27.5","60","284","dark brown patina & a little metal showing through.","smooth & dull","6.5; 35","","","","Loop & large diamond shaped wings. On the faces are high broad ridges to accomodate pockets for the shaft. wide & expanding blade. Fairly prominent cast marks. Base broken.","","","Denis Antoine","https://www.flickr.com/photos/115096994@N02/20349282825","https://farm4.staticflickr.com/3760/20349282825_4ff5e9182b_m.jpg","superuser",-6.6564,53.6055,"IrishPalstavesPt1"
"44196","580","Palstave","I 1 D","British Museum. W.G. 1554.","Ireland,Meath,Trim","Trim, Co. Meath, Irlande","53.5548258","-6.791114999999991","","None","None","None","119","middle 28; butt 28","51","284","dark brown. dark green on edges.","corroded & pitted on lower half of blade.","6; 32","","","","Raised rib below stop in a slightly hollowed panel.","","","Denis Antoine","https://www.flickr.com/photos/115096994@N02/20161213420","https://farm4.staticflickr.com/3744/20161213420_50cd948d40_m.jpg","superuser",-6.7911,53.5548,"IrishPalstavesPt1"
"44197","580","Palstave","I 2 A","Norwich Castle Museum,Beloe  Collection 9. 22. 08.,Ex Bateman Collection,Catalogue of Antiquities 248.","Ireland,Co Monaghan","Co. Monaghan, Irlande","54.2492046","-6.968313200000011","","None","None","None","116","middle 29; butt 28","53","274","brown","good","4; 30","","","","Well preserved","","","Denis Antoine","https://www.flickr.com/photos/115096994@N02/20161259518","https://farm1.staticflickr.com/279/20161259518_0aa13eaa28_m.jpg","superuser",-6.9683,54.2492,"IrishPalstavesPt1"
"44198","580","Palstave","I 4 A","British Museum,63 12 9 5,J. Underwood? Collection.","Ireland,Roscommon","Roscommon, Irlande","53.6275906","-8.189095500000008","","None","None","None","180","middle 36; butt 30","83","818.27","remains of light brown","a good deal flaked. Slight pit above stop on face.","12; 36.5","","","","","","","Denis Antoine","https://www.flickr.com/photos/115096994@N02/20162632329","https://farm1.staticflickr.com/545/20162632329_b1b67ff142_m.jpg","superuser",-8.1891,53.6276,"IrishPalstavesPt1"
"44199","580","Palstave","I 1 A","Herts County Museum St. Albans.,lent by Capt. J.H. Ball, RAF,42","Ireland,Co Sligo,Collony (Mount Stewart)","Mount Stewart, Drumiskabole, Co. Sligo, Irlande","54.2319802","-8.48222910000004","","None","None","None","108","middle 33.5; butt 27","64.25","343.74","dark grey brown.","smooth","27; 8","","","","","","","Denis Antoine","https://www.flickr.com/photos/115096994@N02/20162632209","https://farm1.staticflickr.com/514/20162632209_57bffbbc34_m.jpg","superuser",-8.4822,54.232,"IrishPalstavesPt1"
"44200","580","Palstave","I 4 U","Private Collection.,Professor Sir Lucas White-King, CSI, LLD, FSA.,late of Roebuck Hall, Co. Dublin.,Sold by Auction at Sotheby's, 9. 11. 21. Lot 129.","Ireland,Co Tipperary","Co. Comté de Tipperary, Irlande","52.47378940000001","-8.161851399999932","","None","None","None","167","butt 27.5","69","","","smooth. a little pitted. Golden bronze colour.","18; 10; 33","","","","","","","Denis Antoine","https://www.flickr.com/photos/115096994@N02/20161259028","https://farm1.staticflickr.com/387/20161259028_a28591e954_m.jpg","superuser",-8.1619,52.4738,"IrishPalstavesPt1"
"44201","580","Palstave","I 4 A","Sotheby's Sale, 19. 11. 24., 611,Collection of W.J. Knowles, MRIA, of Flixton Place, Ballymena.","Ireland,Co Tyrone,near Stewartstown.","Stewartstown, Dungannon, Cookstown BT71, Royaume-Uni","54.57644","-6.676519999999982","","None","None","None","111","middle 38.5; butt 24","42.5","","thin, dirty, blackish brown.","smooth","3.75; 25","","","","Butt is slightly filed.","","","Denis Antoine","https://www.flickr.com/photos/115096994@N02/20349281955","https://farm1.staticflickr.com/391/20349281955_4b8569f2cf_m.jpg","superuser",-6.6765,54.5764,"IrishPalstavesPt1"
"44202","580","Palstave","I 4 A","Scunthorpe Museum,Accn. No. 0361 (B.31),(Donor: Mr. J.W. Horabin","Ireland,Co Mead,Mullingar,Co Westmeath","Mullingar, Co. Westmeath, Irlande","53.5259334","-7.338137800000027","","None","None","None","136","63","","","","","","","","","Prominent stop-ridge; broad raised rib down flanges, marked with 3 groupsof 3 parallel lines. End knocked over.","","Evelyn Vigeon","Denis Antoine","https://www.flickr.com/photos/115096994@N02/20349281585","https://farm1.staticflickr.com/367/20349281585_5c2b1c0304_m.jpg","superuser",-7.3381,53.5259,"IrishPalstavesPt1"
"44203","580","Palstave","I 4 A","Bishop Collection.,B73.,The University, Glasgow.,Hunterian Museum.","Ireland,Co Westmeath,Newpass,found in a bog","Newpass, Co. Westmeath, Irlande","53.66202999999999","-7.553660000000036","","None","None","None","94","middle 29.5; butt 24.5","54","252.85","","","30","","","","Good condition. brassy colour.","","","Denis Antoine","https://www.flickr.com/photos/115096994@N02/20323022916","https://farm1.staticflickr.com/430/20323022916_bb4b7ab814_m.jpg","superuser",-7.5537,53.662,"IrishPalstavesPt1"
"44204","580","Palstave","I 1 D","Carmarthen Antiq. Soc. Museum, Carmarthen.","Ireland,Co Wexford,found in the bog of Itty","Co. Wexford, Irlande","52.465096","-6.623412700000017","","None","None","None","114.5","middle 35; butt 28.5","57","475","green & bronze","very slightly pitted on one edge","16; 25.5; 10","","Bronze","","Condition good","","","Denis Antoine","https://www.flickr.com/photos/115096994@N02/20162631479","https://farm4.staticflickr.com/3828/20162631479_0de72de1c0_m.jpg","superuser",-6.6234,52.4651,"IrishPalstavesPt1"
"44205","580","Palstave","I 4 G","British Museum, W.G. 1550.","Ireland,Wicklow,Rathorum","Rathdrum, Co. Wicklow, Irlande","52.93231230000001","-6.231101200000012","","None","None","None","133","middle 34; butt 27","63","490.28","","dull bronze with black stains, smooth","8; 34","","","","Raised ornament below stop.","","","Denis Antoine","https://www.flickr.com/photos/115096994@N02/20355363191","https://farm1.staticflickr.com/455/20355363191_869ec9fbbb_m.jpg","superuser",-6.2311,52.9323,"IrishPalstavesPt1"
"44206","580","Palstave","I 4 H","J.G. Barnett Esq., Rednall, Birmingham,Acquired from Ireland 1921","Ireland,County Wicklow,Glendalough","Glendalough, Co. Wicklow, Irlande","53.01197999999999","-6.32983999999999","","None","None","None","143","58","","483","Black bronze wolour, no green patination","Rather smooth skin","","","Bronze","","Palstave with relatively light stops, and wings closed in.","","""Bronze age palstave 42.Glendalough Co Wicklow"" Inscribed as above on label.","Denis Antoine","https://www.flickr.com/photos/115096994@N02/19728323853","https://farm1.staticflickr.com/269/19728323853_3b2e4bd39a_m.jpg","superuser",-6.3298,53.012,"IrishPalstavesPt1"
