"taskID","userID","objectType","rightCorner","collection","site","toSearch","Lat","Lon","gridRef","dateDiscoveryDay","dateDiscoveryMonth","dateDiscoveryYear","length","width","edge","weight","patina","surface","thickness","other","composition","associations","description","publications","remarks","inputBy","imageURL","flickrURL","Processing","lon","lat","project"
"37731","580","Spearhead IV","E","Herts Cty. Mus., St Albans.,Ball Collection","Ireland,Co Antrim,Ballymena","Ballymena, Ballymena, Ballymena BT43, Royaume-Uni","54.86537999999999","-6.2803800000000365","","None","None","None","142","blade 32.5; socket 18.5","","99.22","dark brown matt.","smooth","blade 10; socket 18","","","","","","","Denis Antoine","https://www.flickr.com/photos/115096994@N02/17140339436","https://farm8.staticflickr.com/7636/17140339436_a33e8c4dc7_m.jpg","superuser",-6.2804,54.8654,"irishB15"
"37732","580","Spear-head III","III","Cheltenham Museum,Bushnell Collection","Ireladn,Antrim,Larne (near)?,Label: One of ""Three bronze spearheads found in Ireland, the smalle ones near Larne"",This is the largest one.","Antrim, Antrim, District d'Antrim BT41, Royaume-Uni","54.7195338","-6.2072498","","None","None","None","110","47","","71","no patina","Plain bronze sand smooth","","","Bronze","","","","Nothing more known","Denis Antoine","https://www.flickr.com/photos/115096994@N02/17140339356","https://farm8.staticflickr.com/7678/17140339356_9f2f6553cb_m.jpg","superuser",-6.2072,54.7195,"irishB15"
"37733","580","Spear-head III","E","Cheltenham Museum,Bushnelle Collection","Ireland,Antrim,Larne (near),One of ""Three bronze spearheads found in Ireland, the two smaller ones near Larne"",This is one of the smaller ones.","Larne, Larne, District de Larne BT40, Royaume-Uni","54.85749999999999","-5.809859999999958","","None","None","None","91","22","","33","Slight light green patination.","smooth","","","Bronze","","","","Nothing further known","Denis Antoine","https://www.flickr.com/photos/115096994@N02/17164644162","https://farm9.staticflickr.com/8794/17164644162_632b207aa1_m.jpg","superuser",-5.8099,54.8575,"irishB15"
"37734","580","Spearhead III","","Private Collection,Professor Sir Lucas White-King CSI, LLD, FSA., late of Roebuck Hall, Co Dublin.,Sold by Auction at Sotheby's. 9. 11. 21. Lot 143.","Irealdn,Co Antrim","District d'Antrim, Royaume-Uni","54.666248","-6.286465899999939","","None","None","None","102","blade 41; socket 20","","","very dark green","rough  -encrusted on one side of socket.","blade 11.5; socket 18; 3","","","","","","","Denis Antoine","https://www.flickr.com/photos/115096994@N02/17166256115","https://farm8.staticflickr.com/7720/17166256115_321559c2e1_m.jpg","superuser",-6.2865,54.6662,"irishB15"
"37735","580","Spearhead III","E","Sotheby's Sale. 19. 11. 24. 636,Collection of W.J. Knowles, MRIA, of Flixton Place, Ballymena.","Ireland,Antrim","Antrim, Antrim, District d'Antrim BT41, Royaume-Uni","54.7195338","-6.2072498","","None","None","None","92","blade 30.5; socket 18","","","","dull golden bronze. very smooth & clean looking.","blade rib 2 (approx.); socket 17.5","","","","Some doubts as to its genuineness","","","Denis Antoine","https://www.flickr.com/photos/115096994@N02/17166255755","https://farm9.staticflickr.com/8701/17166255755_f3f5cc51eb_m.jpg","superuser",-6.2072,54.7195,"irishB15"
"37736","580","Spearhead III","E","Sotheby's Sale, 19. 11. 24. 637,Collection of W.J. Knowles, MRIA, of Flixton Place, Ballymena","Ireland,Antrim","Antrim, Antrim, District d'Antrim BT41, Royaume-Uni","54.7195338","-6.2072498","","None","None","None","93","blade 30.5; socket 16.5","","","traces of patina, light green. darker along socket.","pitted. cleaned golden bronze.","blade 12; socket 16.5","","","","Sharp edges. Indented marks on socket; the edge of socket is bevelled. 2 small rivet holes.","","Lops replaced by two holes.","Denis Antoine","https://www.flickr.com/photos/115096994@N02/16958866437","https://farm9.staticflickr.com/8780/16958866437_1d56856d3d_m.jpg","superuser",-6.2072,54.7195,"irishB15"
"37737","580","Spearhead III","E","Sotheby's Sale, 19. 11. 24. 638.,Collection of W.J. Knowles, MRIA, of Flixton Place, Ballymena.","Ireland,Antrim","Antrim, Antrim, District d'Antrim BT41, Royaume-Uni","54.7195338","-6.2072498","","None","None","None","67.5","blade 25; socket 17.5","","","remains of dark green patina.","smooth","blade 12; socket 18","","","","blade damaged, other side.","","","Denis Antoine","https://www.flickr.com/photos/115096994@N02/16543848854","https://farm9.staticflickr.com/8689/16543848854_2609029ab7_m.jpg","superuser",-6.2072,54.7195,"irishB15"
"37738","580","Spearhead III","E","Sotheby's Sale, 19. 11. 24. 639.,Collection of W.J. Knowles, MRIA, of Flixton Place, Ballymena.","Ireland,Antrim","Antrim, Antrim, District d'Antrim BT41, Royaume-Uni","54.7195338","-6.2072498","","None","None","None","82.5","25; socket 15","","","no patina","very finely pitted. Brozne & golden bronze.","blade 9; socket 17","","","","Sharp edges. Socket edge is thin & sharp.","","","Denis Antoine","https://www.flickr.com/photos/115096994@N02/16978728030","https://farm8.staticflickr.com/7596/16978728030_ea01b5e32a_m.jpg","superuser",-6.2072,54.7195,"irishB15"
"37739","580","Spearhead III","E","Sotheby's Sale, 19. 11. 24. 640.,Collection of W.J. Knowles, MRIA, of Flixton Place, Ballymena.","Ireland,Co Antrim","District d'Antrim, Royaume-Uni","54.666248","-6.286465899999939","","None","None","None","118","blade 31.5; socket 20","","","no patina","smooth. dark brown bronze","blade 14; socket 19.5","","","","Sharp edges","","","Denis Antoine","https://www.flickr.com/photos/115096994@N02/16958866057","https://farm9.staticflickr.com/8752/16958866057_a34e4ef4aa_m.jpg","superuser",-6.2865,54.6662,"irishB15"
"37740","580","Spearhead III","E","Sotheby's Sale, 19. 11. 24. 648.,Collection of W.J. Knowles, MRIA, of Flixton Place, Ballymena.","Ireland,Co Antrim","District d'Antrim, Royaume-Uni","54.666248","-6.286465899999939","","None","None","None","49.5","blade 19; socket 16","","","patina remains in patches of thick dark green","smooth. cleaned partly golden bronze, & reddish bronze.","blade 12.25; socket 15.5","","","","","","","Denis Antoine","https://www.flickr.com/photos/115096994@N02/16546100993","https://farm9.staticflickr.com/8789/16546100993_eae8903aa5_m.jpg","superuser",-6.2865,54.6662,"irishB15"
"37741","580","Socketed Spear-Head III","E","Dr. C.T. Trechmann, Hudworth Tower, Castle Eden, Co. Durham.","Ireland,Antrim","District d'Antrim, Royaume-Uni","54.666248","-6.286465899999939","","None","None","None","106","31","","","","","","","","","","","","Denis Antoine","https://www.flickr.com/photos/115096994@N02/16958865957","https://farm8.staticflickr.com/7651/16958865957_9b0a04b049_m.jpg","superuser",-6.2865,54.6662,"irishB15"
"37742","580","Spearhead III","F","Herts Cty. Mus., St Albans.,Ball Collection.","Ireland,Co Antrim,Ballymena","Ballymena, Ballymena, Ballymena BT43, Royaume-Uni","54.86537999999999","-6.2803800000000365","","None","None","None","148","blade 40; socket 21","","127.56","shiny patina grey brown.","smooth","blade 14; socket 21","","","","","","","Denis Antoine","https://www.flickr.com/photos/115096994@N02/16543848264","https://farm8.staticflickr.com/7640/16543848264_13618b462c_m.jpg","superuser",-6.2804,54.8654,"irishB15"
"37743","580","Spearhead IV","F","Herts Cty. Mus., St Albans.,Ball Collection.","Ireland,Co Antrim,Antrim","Antrim, Antrim, District d'Antrim BT41, Royaume-Uni","54.7195338","-6.2072498","","None","None","None","155","blade 49; socket 20","","99.22","dark bronze matt.","rough","blade 10; socket 19","","","","","","","Denis Antoine","https://www.flickr.com/photos/115096994@N02/17166254905","https://farm8.staticflickr.com/7698/17166254905_1e25181854_m.jpg","superuser",-6.2072,54.7195,"irishB15"
"37744","580","Spear-head IV","F","Cheltenham Museum,Bushnell Collection","Ireland,Antrim,Larne (near),One of ""Three bronze spearheads found in Ireland the two smaller ones near Larne"". This is a smaller one.","Larne, Larne, District de Larne BT40, Royaume-Uni","54.85749999999999","-5.809859999999958","","None","None","None","98","22","","31","","smooth dark green","","","","","","","Nothing known further","Denis Antoine","https://www.flickr.com/photos/115096994@N02/17164642592","https://farm8.staticflickr.com/7715/17164642592_87ae7b35d5_m.jpg","superuser",-5.8099,54.8575,"irishB15"
"37745","580","Spearhead IV","F","Sotheby's Sale, 19. 11. 24. 637.,Collection of W.J. Knowles, MRIA, of Flixton Place, Ballymena.","Ireland,Antrim,Label: ""Moorfields 8. 3. 01""","Moorfields, Ballymena, Ballymena BT42, Royaume-Uni","54.82724","-6.164099999999962","","None","None","None","124.5","blade 27.5; socket 19.5","","","dark green","smooth & blade partly cleaned, showing golden bronze","blade 14.5; socket 20","","","","Point seems to have been filed","","","Denis Antoine","https://www.flickr.com/photos/115096994@N02/16958865497","https://farm9.staticflickr.com/8805/16958865497_4b005c655a_m.jpg","superuser",-6.1641,54.8272,"irishB15"
"37746","580","Spearhead","E","Sotheby's Sale, 19. 11. 24. 635.,Collection of W.J. Knowles, MRIA, of Flixton Place, Ballymena.","Ireland,Antrim,label: Teeshaw, 11 May 1909, (? Teeshan, 3 m. N. of Ballymena, mid. co. Antrim)","Teeshan, Ballymena, Ballymena BT43, Royaume-Uni","54.895635","-6.316403000000037","","11","5","1909","105.5","blade 25.5; socket 18.5","","","thick patina rusty red, dull.","smooth","blade 11; socket 17.75","","","","Edge of socket is sharp.","","","Denis Antoine","https://www.flickr.com/photos/115096994@N02/16978498008","https://farm8.staticflickr.com/7686/16978498008_a7e1f53255_m.jpg","superuser",-6.3164,54.8956,"irishB15"
"37747","580","Spearhead III","F","Sotheby's Sale, 19. 11. 24. 636.,Collection of W.J. Knowles, MRIA, of Flixton Place, Ballymena.","Ireland,Co Antrim","District d'Antrim, Royaume-Uni","54.895635","-6.316403000000037","","None","None","None","85","blade 19.5; socket 14","","","remains of dark green patina","smooth","blade 9.5","","","","Thin sharp edges. Socket is broken.","","","Denis Antoine","https://www.flickr.com/photos/115096994@N02/16978727000","https://farm9.staticflickr.com/8727/16978727000_bf8dbcd4ed_m.jpg","superuser",-6.3164,54.8956,"irishB15"
"37748","580","Spearhead III","F","Sotheby's Sale, 19. 11. 24. 636.,Collection of W.J. Knowles, MRIA, of Flixton Place, Ballymena.","Ireland,Co antrim","District d'Antrim, Royaume-Uni","54.666248","-6.286465899999939","","None","None","None","82","blade 20.5; socket 16.5","","","This has had thick patina of brown. but only spots remain, & a matte light green surface.","fairly smooth. pocked & pitted.","blade 8; socket 16.5","","","","","","","Denis Antoine","https://www.flickr.com/photos/115096994@N02/17166254055","https://farm8.staticflickr.com/7653/17166254055_0001b2b171_m.jpg","superuser",-6.2865,54.6662,"irishB15"
"37749","580","Spearhead III","F","Sotheby's Sale, 19. 11. 24. 636.,Collection of W.J. Knowles, MRIA, of Flixton Place, Ballymena.","Ireland, Co Antrim","District d'Antrim, Royaume-Uni","54.666248","-6.286465899999939","","None","None","None","198.5","blade 19; socket 17","","","thick patina medium brown.","smooth","socket 15.5; blade 11.5","","","","Blade edges much broken.","","","Denis Antoine","https://www.flickr.com/photos/115096994@N02/16543847604","https://farm9.staticflickr.com/8703/16543847604_dd5885f2ec_m.jpg","superuser",-6.2865,54.6662,"irishB15"
"37750","580","Spearhead IV","F","Sotheby's Sale, 19. 11. 24. 636.,Collection of W.J. Knowles, MRIA, of Flixton Place, Ballymena.","Ireland, Antrim","Antrim, Antrim, District d'Antrim BT41, Royaume-Uni","54.7195338","-6.2072498","","None","None","None","101.5","blade 19; socket 16.5","","","traces of patina brown.","smooth. covered with thick brown soil on very soft patina.","blade 10; socket 16","","","","Blade edge is very thin indeed also the right side loop.","","","Denis Antoine","https://www.flickr.com/photos/115096994@N02/16958864807","https://farm9.staticflickr.com/8774/16958864807_888315ea2e_m.jpg","superuser",-6.2072,54.7195,"irishB15"
"37751","580","Spearhead","F","Sotheby's Sale, 19. 11. 24. 637.,Collection of W.J. Knowles, MRIA, of Flixton Place, Ballymena.","Ireland,Co Antrim","District d'Antrim, Royaume-Uni","54.666248","-6.286465899999939","","None","None","None","100","blade 9.25; socket 13.5","","","light green. golden bronze shows on lower half. Slightly powdery at point.","smooth","blade 9; socket 6","","","","blade & socket are broken. A piece of shafting remains. Loops are missing.","","","Denis Antoine","https://www.flickr.com/photos/115096994@N02/16978497298","https://farm9.staticflickr.com/8740/16978497298_1302699c88_m.jpg","superuser",-6.2865,54.6662,"irishB15"
"37752","580","Spearhead IV","F","Sotheby's Sale, 19. 11. 24. 637.,Collection of W.J. Knowles, MRIA, of Flixton Place, Ballymena.","Ireland,Co Antrim","District d'Antrim, Royaume-Uni","54.666248","-6.286465899999939","","None","None","None","119","blade 20.75; socket 17","","","remains of patina light green. along hollows of blade.","smooth. pitted. Probably cleaned. mostly golden bronze. Very slight black stains along the socket.","blade 8; socket 17","","","","Sharp edges.","","","Denis Antoine","https://www.flickr.com/photos/115096994@N02/16958864407","https://farm8.staticflickr.com/7652/16958864407_c8c30f5178_m.jpg","superuser",-6.2865,54.6662,"irishB15"
"37753","580","Spearhead III","F","Sotheby's Sale, 19. 11. 24. 641.,Collection of W.J. Knowles, MRIA, of Flixton Place, Ballymena.,(Glenny Collection)","Ireland,Antrim","Antrim, Antrim, District d'Antrim BT41, Royaume-Uni","54.7195338","-6.2072498","","None","None","None","149","blade 33.5; socket 17.5","","","thick polished patina dark brown. slightly chipped off.","smooth","blade 13.75; socket 19","","","","Very well preserved.","","","Denis Antoine","https://www.flickr.com/photos/115096994@N02/16543846944","https://farm9.staticflickr.com/8757/16543846944_f259ec8259_m.jpg","superuser",-6.2072,54.7195,"irishB15"
"37754","433","Spearhead III","F","Private Collection,Professor Sir Lucas White-King, CSI, LLD, FSA,Late of Roebuck Hall, Co. Dublin,Sold by auction at Sotheby's 9.11.21, Lot 143.","Ireland,Co. Antrim","Antrim, Antrim, Antrim BT41, UK","54.7195338","-6.2072498","","None","None","None","97","blade 25; socket 20","","","Dark green, but this does not cover the specimen.","Smooth. Dark brown bronze colour. Light green corrosion here and there.","blade 1 1/4, 10.5; socket 19.5","","","","","","","Joellen mcGann","https://www.flickr.com/photos/115096994@N02/16978497428","https://farm8.staticflickr.com/7584/16978497428_dacef22c2b_m.jpg","superuser",-6.2072,54.7195,"irishB15"
"37755","433","Spearhead IV","F","Private Collection,Professor Sir Lucas White-King, CSI, LLD, FSA,Late of Roebuck Hall, Co. Dublin,Sold by auction at Sotheby's 9.11.21, Lot 142","Ireland,Co. Antrim","Antrim, Antrim, Antrim BT41, UK","54.7195338","-6.2072498","","None","None","None","193.5","blade 47; socket 22 1/4","","","","Smooth. Golden bronze colour - black stained.","blade 12, 1 1/2; socket 22","","","","Edges fairly sharp","","","Joellen mcGann","https://www.flickr.com/photos/115096994@N02/17164641312","https://farm9.staticflickr.com/8762/17164641312_7c28874c38_m.jpg","superuser",-6.2072,54.7195,"irishB15"
"37756","433","Spearhead III","F","Private Collection,F. Ransom Esq., Hitchin","Ireland,Co. Antrim,Rasharkin","Rasharkin, Ballymena, Ballymoney BT44, UK","54.95686","-6.482430000000022","","None","None","None","119","blade 26; socket 15","","53.15","No patina.","Smooth and much cleaned. A gold and dark bronze colour.","socket 15; blade 13","","","","","","","Joellen mcGann","https://www.flickr.com/photos/115096994@N02/17140336256","https://farm9.staticflickr.com/8733/17140336256_3ab6372e09_m.jpg","superuser",-6.4824,54.9569,"irishB15"
"37757","433","Spear-head (pt)","Fragment","Owner's name unknown,Sold at Sotheby's 23.7.25, Lot 96","Ireland,Co. Antrim,Portrush (near)","Portrush, Portrush, Coleraine BT56, UK","55.1995","-6.649879999999939","","None","None","None","38.5","","","","Dark green patina and a red muddy earth colour (probably fired).","Smooth.","where broken 11 3/4 x 17 3/4","","","","The end is solid.","","","Joellen mcGann","https://www.flickr.com/photos/115096994@N02/16978725840","https://farm8.staticflickr.com/7660/16978725840_c67cc096c1_m.jpg","superuser",-6.6499,55.1995,"irishB15"
"37758","433","Spearhead IV b","H","Sotheby's Sale 19.11.24, 644,Collection of W. J. Knowles, MRIA of Flixton Plate, Ballymena","Ireland,Antrim,Rasharkin,Found whilst digging (label)","Rasharkin, Ballymena, Ballymoney BT44, UK","54.95686","-6.482430000000022","","None","None","None","199","blade 46; socket 23.5","","","No patina.","Smooth. Tiny pittings all over. Golden bronze.","blade 14; socket 23.5","","","","Slightly bent in the length. Sharp edges. Three cuts on socket (middle of blade).","","","Joellen mcGann","https://www.flickr.com/photos/115096994@N02/16958863937","https://farm8.staticflickr.com/7670/16958863937_7ab3e4e141_m.jpg","superuser",-6.4824,54.9569,"irishB15"
"37759","433","Spear Head","H","Hull,Mortimer Archaeological Collection","Ireland,Antrim,While Digging at Rasharken","Rasharkin, Ballymena, Ballymoney BT44, UK","54.95686","-6.482430000000022","","None","None","None","198","46","","149.5","Brown","Smooth Dented Round The Edges.","24","","","","","Hull Museums, 213, Page 147, Ref. 310.","","Joellen mcGann","https://www.flickr.com/photos/115096994@N02/17164640942","https://farm9.staticflickr.com/8698/17164640942_3b3e8245db_m.jpg","superuser",-6.4824,54.9569,"irishB15"
"37760","433","Spear-head","O","Cheltenham Museum,Bushnell Collection","Ireland,Antrim,Larne (near)","Larne, Larne, Larne BT40, UK","54.85749999999999","-5.809859999999958","","None","None","None","","","","17","Bronze.","Deeply pitted, but ground or filed in an effort to remove some patina.","","","Bronze","","","","Label: ""Small bronze javelin head of quadrangular shape found near Larne. 81.14"",Nothing further known.","Joellen mcGann","https://www.flickr.com/photos/115096994@N02/16978496168","https://farm8.staticflickr.com/7650/16978496168_62a52c8dd3_m.jpg","superuser",-5.8099,54.8575,"irishB15"
"37761","433","Spearhead V","S","Sotheby's Sale 19.11.24, 641,Collection of W. J. Knowles, MRIA of Flixton Place, Ballymena","Ireland,Co. Antrim","Antrim, Antrim, Antrim BT41, UK","54.7195338","-6.2072498","","None","None","None","102","blade 27; socket 15.5","","","Thick dark brown, partly chipped off - lightish olive green beneath.","Smooth.","blade 8; socket 17","","","","2 Rivet holes.","","","Joellen mcGann","https://www.flickr.com/photos/115096994@N02/16546098783","https://farm8.staticflickr.com/7652/16546098783_42779159f8_m.jpg","superuser",-6.2072,54.7195,"irishB15"
"37762","433","Spear-head V","T","Anthropological Museum, Aberdeen University,255,Wilson Collection","Ireland,Antrim,1895","Antrim, Antrim, Antrim BT41, UK","54.7195338","-6.2072498","","None","None","1895","76","(blade) 25; (socket) 20","","29","","","(socket) 21","","","","","","","Joellen mcGann","https://www.flickr.com/photos/115096994@N02/16543846044","https://farm8.staticflickr.com/7686/16543846044_48c6d64bb8_m.jpg","superuser",-6.2072,54.7195,"irishB15"
"37763","433","Spearhead","T","Sotheby's Sale, 19.11.24, 641,Collection of W. J. Knowles, MRIA of Flixton Place, Ballymena","Ireland,Co. Antrim","Antrim, Antrim, Antrim BT41, UK","54.7195338","-6.2072498","","None","None","None","69","blade 16; socket 19","","","Dark brown","Smooth. pitted.","blade 12; socket 17, 19","","","","Sharp edges.","","","Joellen mcGann","https://www.flickr.com/photos/115096994@N02/17166252205","https://farm8.staticflickr.com/7628/17166252205_8ec815ac4a_m.jpg","superuser",-6.2072,54.7195,"irishB15"
"37764","433","Spear-head III","T","Cheltenham Museum,Bushnell Collection","Ireland,Antrim,Larne (near)","Larne, Larne, Larne BT40, UK","54.85749999999999","-5.809859999999958","","None","None","None","132","32","","47","Bronze appearance","Smooth","","","Bronze","","","","Labelled: ""Long spearhead with thick midrib found near Larne C. Antrim 81.14"",""Macaulay Red Hall"" on label stuck on object.","Joellen mcGann","https://www.flickr.com/photos/115096994@N02/16978495788","https://farm8.staticflickr.com/7622/16978495788_bc456272ed_m.jpg","superuser",-5.8099,54.8575,"irishB15"
"37765","580","Spearhead V","T","Blandford.,Pitt Rivers Museum, Farnham.,bought at Christie's Apl. 20th. 1891.","Ireland,Co Antrim,Lough Neagh","Lough Neagh, Royaume-Uni","54.5933462","-6.416200300000014","","None","None","None","240","blade 41; socket 20; 25","","170.1","","smooth dark bronze","socket 26","","","","","","","Denis Antoine","https://www.flickr.com/photos/115096994@N02/17166252085","https://farm9.staticflickr.com/8752/17166252085_b528ac1fcd_m.jpg","superuser",-6.4162,54.5933,"irishB15"
"37766","580","Spearhead","T","Sotheby's Sale, 19. 11. 24. 646.,Collection of W.J. Knowles, MRIA, of Flixton Place, Ballymena.","Ireland,Co Antrim,Taylorstown,In a bog,May '95","District d'Antrim, Royaume-Uni","54.666248","-6.286465899999939","","None","5","1895","222","blade 28.5; socket 23.5","","","no patina","smooth. much pitted all over. Dull golden bronze.","blade 15; socket 23.5","","","","","","","Denis Antoine","https://www.flickr.com/photos/115096994@N02/17140335406","https://farm8.staticflickr.com/7612/17140335406_2cd5eee143_m.jpg","superuser",-6.2865,54.6662,"irishB15"
"37767","580","Spearhead IV","F","Somerset Taunton Castle Museum 99,pres. by T. Dawson Esq.","Ireland,Co Armagh,Armagh","Armagh, Armagh, Armagh BT61, Royaume-Uni","54.34875","-6.651610000000005","","None","None","None","101","blade 27; socket 16","","50.5","","","blade 10; socket 16.5","","","","","","","Denis Antoine","https://www.flickr.com/photos/115096994@N02/17164640052","https://farm8.staticflickr.com/7699/17164640052_1661f87c10_m.jpg","superuser",-6.6516,54.3488,"irishB15"
"37768","580","Spearhead IV","F","Manchester Museum. L 61.,Bought of G. Yates. (Ex Glenny Collection)","Ireland,Co Armagh,Newry","Newry, Newry, District de Newry and Mourne BT34, Royaume-Uni","54.1751024","-6.34022989999994","","None","None","None","125.5","blade 23; socket 19","","60.24","matte patina of light olive brownish green, with traces of earth on the blade.","smooth. Gold bronze shows near the point.","blade 10; 2.5,socket 17.5","","","","","","","Denis Antoine","https://www.flickr.com/photos/115096994@N02/16978495458","https://farm9.staticflickr.com/8720/16978495458_ba1ff3e125_m.jpg","superuser",-6.3402,54.1751,"irishB15"
"37769","580","Spearhead V","L","Manchester Museum. L 53.,Bought of G.C. Yates.,Ex Glenny Collection","Ireland,Co Armagh,Newry","Newry, Newry, District de Newry and Mourne BT34, Royaume-Uni","54.1751024","-6.34022989999994","","None","None","None","131.5","middle 29; socket 24","","106.31","thin patina of dark slate colour & browny green","smooth - a little pitted.","socket 25,blade 16; 3","","","","One wing of blade is missing.","","","Denis Antoine","https://www.flickr.com/photos/115096994@N02/16543845444","https://farm9.staticflickr.com/8718/16543845444_528a25dafe_m.jpg","superuser",-6.3402,54.1751,"irishB15"
"37770","580","Spearhead IV","F","Herts Cty. Mus., St Albans,Ball Collection","Ireland,Co Carlow","Co. Carlow, Irlande","52.7189747","-6.850370300000009","","None","None","None","94","blade 22; socket 18.5","","35.43","green.","rough pocked","blade 7; socket 17.5","","","","","","","Denis Antoine","https://www.flickr.com/photos/115096994@N02/16958862627","https://farm9.staticflickr.com/8768/16958862627_fc267e4ff5_m.jpg","superuser",-6.8504,52.719,"irishB15"
"37771","433","Spear-head","E","Bristol Museum,E.1763,Pritchard Collection","Ireland,Clare,Dourough Bay","Co. Clare, Ireland","52.86245280000001","-9.047164500000008","","None","None","None","117","(blade) 60","","133","Dark green patina.","","17","","","","Point broken.","","","Joellen mcGann","https://www.flickr.com/photos/115096994@N02/17164639542","https://farm9.staticflickr.com/8707/17164639542_5c782e6708_m.jpg","superuser",-9.0472,52.8625,"irishB15"
"37772","433","Spear-head","E","Bristol Museum,E. 1767,Purchased 6 Dec. 1895","Ireland,Clare,Dourough","Co. Clare, Ireland","52.86245280000001","-9.047164500000008","","None","None","None","249","(socket) 20; (blade) 68","","258","Light bronze colour.","","20","","","","Good condition.","","","Joellen mcGann","https://www.flickr.com/photos/115096994@N02/16546096983","https://farm8.staticflickr.com/7600/16546096983_d0fecdda93_m.jpg","superuser",-9.0472,52.8625,"irishB15"
"37773","433","Spear-head","T","Bristol Museum,E.1762,Pritchard Collection","Ireland,Clare,Dourough Bay","Co. Clare, Ireland","52.86245280000001","-9.047164500000008","","None","None","None","170","(socket) 23; (blade) 50","","141","","","(socket) 19","","","","","","","Joellen mcGann","https://www.flickr.com/photos/115096994@N02/17165656401","https://farm8.staticflickr.com/7615/17165656401_90450f894f_m.jpg","superuser",-9.0472,52.8625,"irishB15"
"37774","433","Spearhead","F","British Museum, 55.3-24.1,Purchased 1855","Ireland,Cork,near Yonghal","Youghal, Co. Cork, Ireland","51.9542704","-7.847170699999992","","None","None","None","105","blade 22; socket 17","","61.2","","Dull bronze with dark stains. Rough","blade 12; socket 17","","","","Edges rather chipped. Socket top broken and thin at the edge.","","","Joellen mcGann","https://www.flickr.com/photos/115096994@N02/17165656271","https://farm8.staticflickr.com/7659/17165656271_7e8d4d06e1_m.jpg","superuser",-7.8472,51.9543,"irishB15"
"37775","433","Spear head","F","Private Collection,Thos. Allworthy, 16 Grays Inn Rd. W.C.,31.5.20","Ireland,Co. Cork,(1884)","Co. Cork, Ireland","51.9884699","-8.764363099999969","","None","None","1884","88","21","","35.43","Blackish patina inclined to be green.","Slightly pocked.","blade about 8mm; socket about 16mm","","","","Angular mid rib and tapering socket, loops flattened.","","","Joellen mcGann","https://www.flickr.com/photos/115096994@N02/17166251045","https://farm8.staticflickr.com/7683/17166251045_1c3f9a7ea0_m.jpg","superuser",-8.7644,51.9885,"irishB15"
"37776","433","Spearhead","III","Private Collection,Professor Sir Lucas White-King, CSI, LLD, FSA,Late of Roebuck Hall, Co. Dublin,Sold by auction at Sotheby's 9.11.21, Lot 143","Ireland,Co. Cork","Co. Cork, Ireland","51.9884699","-8.764363099999969","","None","None","None","110","blade 40; socket 19","","","No patina.","Smooth where filed.","blade 12, 3.5; socket 19","","Looks like brass","","This seems to be a forgery. It looks like a casting which has been ""cleaned"" with a file. Only one hole for fastening to shaft. The other is solid - no trace of a hole.","","","Joellen mcGann","https://www.flickr.com/photos/115096994@N02/17165656041","https://farm9.staticflickr.com/8710/17165656041_18a309ec69_m.jpg","superuser",-8.7644,51.9885,"irishB15"
"37777","433","Spear Ferrule","II B","British Museum, W.G. 1638","Ireland,Co. Derry,Kilrea","Kilrea, Coleraine, Coleraine BT51, UK","54.95119","-6.55639999999994","","None","None","None","","","","","","","","","","","","","","Joellen mcGann","https://www.flickr.com/photos/115096994@N02/17165655861","https://farm9.staticflickr.com/8781/17165655861_a88780e8b2_m.jpg","superuser",-6.5564,54.9512,"irishB15"
"37778","433","Spearhead","E","Herts Cty. Museum, St. Albans,Ball Collection","Ireland,Co. Donegal,Downpatrick","Downpatrick, Downpatrick, Down BT30, UK","54.32875139999999","-5.715692200000035","","None","None","None","109","blade 29; socket 18","","49.61","Shiny patina dark brown","Smooth","blade 10.5, 3; socket 18","Site: Is this in Co. Donegal?","","","","","","Joellen mcGann","https://www.flickr.com/photos/115096994@N02/16978723750","https://farm9.staticflickr.com/8722/16978723750_212cdc715f_m.jpg","superuser",-5.7157,54.3288,"irishB15"
"37779","433","Spearhead","F","Sotheby's Sale 19.11.24; 635,Collection of W. J. Knowles MRIA of Flixton Place, Ballymena","Ireland,Donegal,Falcaragh,Label: Cloughancely alias Falcarragh","Falcarragh, Co. Donegal, Ireland","55.13640840000001","-8.104486199999997","","None","None","None","124.5","blade 25.5; socket 16.5","","","","Pitted. Cleaned - golden bronze.","blade 12; socket 17.5","","","","Cast marks show on sides of socket","","","Joellen mcGann","https://www.flickr.com/photos/115096994@N02/17165655811","https://farm8.staticflickr.com/7694/17165655811_4e51b5af5b_m.jpg","superuser",-8.1045,55.1364,"irishB15"
"37780","433","Spearhead","III E","Herts Cty. Mus., St. Albans","Ireland,Donegal,Raphoe","Raphoe, Co. Donegal, Ireland","54.8738705","-7.599437899999998","","None","None","None","106.5","blade 39; socket 20","","99.22","Dark brown matt","Smooth","blade 8.5; socket 19","","","","","","","Joellen mcGann","https://www.flickr.com/photos/115096994@N02/17164638662","https://farm9.staticflickr.com/8747/17164638662_6fb2b61db2_m.jpg","superuser",-7.5994,54.8739,"irishB15"
"37781","433","Spearhead","T","Herts. Cty. Mus., St. Albans,Ball Collection","Ireland,Co. Donegal,Raphar [?Raphoe]","Raphoe, Co. Donegal, Ireland","54.8738705","-7.599437899999998","","None","None","None","90","blade 25; socket 20.5","","28.35","No patina","Rough, dark brown","blade 8; socket 21","","","","","","","Joellen mcGann","https://www.flickr.com/photos/115096994@N02/17164638402","https://farm8.staticflickr.com/7715/17164638402_49e072af0e_m.jpg","superuser",-7.5994,54.8739,"irishB15"
"37782","433","Spearhead","E","Herts. Cty. Mus., St. Albans,Ball Collection","Ireland,Co. Down,Grey Abbey","Grey Abbey, B5, Newtownards, Ards BT22 2NQ, UK","54.53665239999999","-5.555101599999944","","None","None","None","106","blade 25; socket 20","","49.61","No patina","Rough, dark brown","blade 10; socket 20.5","","","","","","","Joellen mcGann","https://www.flickr.com/photos/115096994@N02/16978493688","https://farm9.staticflickr.com/8744/16978493688_35f2affea2_m.jpg","superuser",-5.5551,54.5367,"irishB15"
"37783","433","Spearhead","T","Herts. Cty. Museum, St. Albans,Ball Collection","Ireland,Co. Down,Comber","Comber, Newtownards, Ards BT23, UK","54.54739","-5.746300000000019","","None","None","None","238","blade 40; socket 25","","226.8","Dark brown matt","Smooth","blade 13; socket 24","","","","","","","Joellen mcGann","https://www.flickr.com/photos/115096994@N02/17164638162","https://farm9.staticflickr.com/8775/17164638162_5832d1504b_m.jpg","superuser",-5.7463,54.5474,"irishB15"
"37784","433","Spearhead","F","Ethnological Museum,Cambridge,1289B,Read Gift","Ireland,Co. Dublin,near Clontarf","Clontarf, Co. Dublin, Ireland","53.3660165","-6.204510300000038","","None","None","None","137","blade 32; socket 20","","77.96","No patina","Smooth dark brown, patches of brassey colour","blade 12; socket 19","","","","","","","Joellen mcGann","https://www.flickr.com/photos/115096994@N02/16543843474","https://farm9.staticflickr.com/8733/16543843474_1908521b81_m.jpg","superuser",-6.2045,53.366,"irishB15"
"37785","433","Spearhead","F","Herts. Cty. Museum, St. Albans,Ball Collection","Ireland,Co. Dublin,Clontaf","Clontarf, Co. Dublin, Ireland","53.3660165","-6.204510300000038","","None","None","None","171","blade 40.5; socket 22","","163","Dark brown matt","Smooth","blade 16; socket 22","","","","","","","Joellen mcGann","https://www.flickr.com/photos/115096994@N02/16958861397","https://farm8.staticflickr.com/7611/16958861397_0df1a8766a_m.jpg","superuser",-6.2045,53.366,"irishB15"
"37786","433","Spearhead","F","Manchester Museum, O.1135","Ireland,Dublin,Clontaf (Battlefield)","Clontarf, Co. Dublin, Ireland","53.3660165","-6.204510300000038","","None","None","None","140.5","blade 26; socket 18","","70.88","Dark green patina, almost black","Smooth","blade 9.5, 1.75; socket 20","","","","The curves in the edges of the blade appear to have been filed out. Traces of soil round the loops.","","","Joellen mcGann","https://www.flickr.com/photos/115096994@N02/16978493138","https://farm9.staticflickr.com/8798/16978493138_64b9dac7fb_m.jpg","superuser",-6.2045,53.366,"irishB15"
"37787","433","Spearhead","O","Herts. Cty. Museum, St. Albans,Ball Collection","Ireland,Co. Dublin","Co. Dublin, Ireland","53.3824769","-6.313367400000061","","None","None","None","114","blade 22; socket 14","","35.43","Dark brown matt","Smooth","blade 6; socket 13","","","","","","","Joellen mcGann","https://www.flickr.com/photos/115096994@N02/17164637392","https://farm9.staticflickr.com/8788/17164637392_0e875bb816_m.jpg","superuser",-6.3134,53.3825,"irishB15"
"37788","433","Spearhead","R","Sotheby's Sale 14.12.25, Lot 271,Property of Mons. Fenardent","Ireland,Dublin,Dublin","Dublin, Ireland","53.3498053","-6.260309699999993","","None","None","None","126","blade 28; socket 22","","","Very dark brown. Traces of light green on blade.","Smooth","blade 14.25; socket 23.5","","","","Sharp edges","","Painted on: Dublin,14945,V.AT.X","Joellen mcGann","https://www.flickr.com/photos/115096994@N02/16543842694","https://farm9.staticflickr.com/8737/16543842694_39b56c7e3a_m.jpg","superuser",-6.2603,53.3498,"irishB15"
"37789","433","Spearhead","T","British Museum, 75.4-1.44","Ireland,Dublin","Dublin, Ireland","53.3498053","-6.260309699999993","","None","None","None","52.5","blade 19; socket 21","","22.01","Slightly stained with black on clean golden bronze.","Smooth","blade 13; socket 22","","","","","","","Joellen mcGann","https://www.flickr.com/photos/115096994@N02/17166249385","https://farm9.staticflickr.com/8737/17166249385_cc59f8675f_m.jpg","superuser",-6.2603,53.3498,"irishB15"
"37790","433","Spearhead","T","Sotheby's Sale, 19.11.24, 641,Collection of W. J. Knowles, MRIA of Flixton Place, Ballymena","Ireland,Co. Dublin","Co. Dublin, Ireland","53.3824769","-6.313367400000061","","None","None","None","82","blade 25; socket 21","","","Thick patina, dark green","Smooth","blade 12.5; socket 20.5","","","","","","","Joellen mcGann","https://www.flickr.com/photos/115096994@N02/16543842364","https://farm9.staticflickr.com/8764/16543842364_3e15306d7e_m.jpg","superuser",-6.3134,53.3825,"irishB15"
"37791","433","Spear Head","T","Sunderland Museum,Bequeathed by E. Backhouse 1907 who purchased it from Dr. Weligan of Cork","Ireland,Dublin,1867","Dublin, Ireland","53.3498053","-6.260309699999993","","None","None","1867","134","of blade 27; length of blade 98; socket 24","","59.8","Bronze","Smooth","","","","","Blade edge slightly chipped.","","","Joellen mcGann","https://www.flickr.com/photos/115096994@N02/17164636902","https://farm9.staticflickr.com/8763/17164636902_24303e45d0_m.jpg","superuser",-6.2603,53.3498,"irishB15"
"37792","433","Spearhead","E","British Museum, 58.5-4.1,Given by Earl of Enniskillen, 1858","Ireland,Co. Fermanagh","Fermanagh, UK","54.4513524","-7.712501800000041","","None","None","None","66","blade 23; socket 16","","27.01","Dull green on bronze.","Rough","blade 12; socket 16","","","","Edges and socket top much broken.","","","Joellen mcGann","https://www.flickr.com/photos/115096994@N02/17166248865","https://farm9.staticflickr.com/8773/17166248865_f3fe8e4448_m.jpg","superuser",-7.7125,54.4514,"irishB15"
"37793","433","Spearhead","E","Salisbury, S. Wilts, and Blackmore Museum,792 Brackstone Collection,B792 on side","Ireland,Fermanagh,Enniskillin (near)","Enniskillen, Enniskillen, Fermanagh BT74, UK","54.34382429999999","-7.631533600000012","","None","None","None","144","blade 35; socket 22","","78","Has been dark brown","Golden bronze","socket 22","","","","","","","Joellen mcGann","https://www.flickr.com/photos/115096994@N02/17164636532","https://farm8.staticflickr.com/7681/17164636532_932f4976d9_m.jpg","superuser",-7.6315,54.3438,"irishB15"
"37794","433","Spearhead","E","Sotheby's Sale, 19.11.24,635,Collection of W. J. Knowles, MRIA of Flixton Place, Ballymena","Ireland,Fermanagh,Magheraboy,Oliver Cowan's Farm","Magheraboy, Co. Donegal, Ireland","54.47729","-8.093229999999949","","None","None","None","125","blade 29; socket 19","","","Patina on socket is dark brown, faint green tinge on parts of blade.","","blade 12; socket 19","","","","Socket is broken. Edges slightly chipped.","","","Joellen mcGann","https://www.flickr.com/photos/115096994@N02/16958860017","https://farm8.staticflickr.com/7727/16958860017_404da62e5a_m.jpg","superuser",-8.0932,54.4773,"irishB15"
"37795","433","Spearhead","F","British Museum","Ireland,Fermanagh","Fermanagh, UK","54.4513524","-7.712501800000041","","None","None","None","128","blade 24; socket 19","","52.86","Remains of dark brown, overlaid with light brown in places. 2 small patches of light green on blade.","Lightly pitted.","blade 10.5; socket 19","","","","A hole near the remaining loop and a much smaller one on reverse. Edges chipped and bent over slightly towards front.","","","Joellen mcGann","https://www.flickr.com/photos/115096994@N02/17166248705","https://farm9.staticflickr.com/8775/17166248705_148e6c6730_m.jpg","superuser",-7.7125,54.4514,"irishB15"
"37796","433","Spearhead","E","Private collection,1923,Miss Evelyn Portal,Freemantle, Goer-Wallop, Hampshire,Given to her father by Lord Clonbrock","Ireland,Galway,Ahascragh,on the Clonbrock estate,1850-1860","Ahascragh, Co. Galway, Ireland","53.3976127","-8.334631800000011","","None","None","1860","154","blade 50; socket 20","","99.22","Dark brown patina worn off in places.","","blade 12","","","","Point blunted and re-sharpened perhaps in modern times. One side of blade badly dented.","","","Joellen mcGann","https://www.flickr.com/photos/115096994@N02/16978492038","https://farm9.staticflickr.com/8732/16978492038_d6b6588096_m.jpg","superuser",-8.3346,53.3976,"irishB15"
"37797","433","Spearhead","Fragment","Reading Museum, A.L. 12,Donor Mr. W. L. Nash","Ireland,Galway,Exact site unknown","Co. Galway, Ireland","53.3770892","-8.944250799999963","","None","None","None","94","blade 34","","92.13","Greenish brown","","blade 15","","","","Point and socket broken away.","","Label: ""Bronze Spearhead, Galway, Ireland""","Joellen mcGann","https://www.flickr.com/photos/115096994@N02/17166248525","https://farm9.staticflickr.com/8689/17166248525_d30dc5f00c_m.jpg","superuser",-8.9443,53.3771,"irishB15"
"37798","433","Spearhead","T","Private Collection,1923,Miss Evelyn Portal,Freemantle, Over-Wallop, Hampshire,Given to her father by Lord Clonbrock","Ireland,Galway,Ahascragh,On the Clonbrock estate,1850-1860","Ahascragh, Co. Galway, Ireland","53.3976127","-8.334631800000011","","None","None","1860","158","blade 42; socket 24","","92.13","Brown patina rubbed off at point and worn off in spots towards socket.","","blade 12","","","","Edge of blade slightly bent and dented.","","","Joellen mcGann","https://www.flickr.com/photos/115096994@N02/16978491648","https://farm9.staticflickr.com/8827/16978491648_33a4ce30f2_m.jpg","superuser",-8.3346,53.3976,"irishB15"
"37799","433","Spearhead","T","British Museum, 62.5-21.1","Ireland,Galway,Headford (near),From a barrow","Headford, Co. Galway, Ireland","53.4694617","-9.106133999999997","","None","None","None","244; 126","blade 34; socket 27","","343.95","Dark brown and green.","Somewhat pitted and scratched. Rather rusty at base of wings.","blade 15; socket 25","","","","Blade broken in two. Large piece missing from reverse. Socket rim slightly chipped.","","","Joellen mcGann","https://www.flickr.com/photos/115096994@N02/17166248115","https://farm9.staticflickr.com/8774/17166248115_3ec79d5d55_m.jpg","superuser",-9.1061,53.4695,"irishB15"
"37800","433","Ferrule; Spear Shaft End","VI","Alnwick Castle, No. 436","Ireland","Ireland","53.41291","-8.243889999999965","","None","None","None","56","Dia. of top 20; Dia. of base 42","","78.1","Bright green patina","Corroded","","","","","Base cracked.","","","Joellen mcGann","https://www.flickr.com/photos/115096994@N02/17164635772","https://farm8.staticflickr.com/7682/17164635772_ddef0349d0_m.jpg","superuser",-8.2439,53.4129,"irishB15"
"37801","433","Ferrule; Spear Shaft End","VI","Alnwick Castle, No. 437","Ireland","Ireland","53.41291","-8.243889999999965","","None","None","None","60","Dia. of base 42; Dia of top 21","","114.4","Dark brown patina","Smooth","","","","","","","","Joellen mcGann","https://www.flickr.com/photos/115096994@N02/17165653251","https://farm9.staticflickr.com/8764/17165653251_3300abfd45_m.jpg","superuser",-8.2439,53.4129,"irishB15"
"37802","433","Ferrule; Spear Butt","VI","Private Collection,W.C. Wells Esq., Sudbury, Harrow, 21.6.20","Ireland","Ireland","53.41291","-8.243889999999965","","None","None","None","74","44","","127.56","Dull patina.","Rough. Badly pocked. Very dark greyish green colour.","21 socket","","","","","","","Joellen mcGann","https://www.flickr.com/photos/115096994@N02/17166247645","https://farm8.staticflickr.com/7698/17166247645_54fa9e8094_m.jpg","superuser",-8.2439,53.4129,"irishB15"
"37803","580","Ferrule,Spear butt","IV A","Private Collection,W.C. Wells Esq., 2 Maybank Avenue, Sudbury, Harrow. 21. 6. 20.","Ireland","Irlande","53.41291","-8.243889999999965","","None","None","None","80","socket 21; end 11","","70.878","light & dark green","smooth","socket 21","","","","","","","Denis Antoine","https://www.flickr.com/photos/115096994@N02/17166247575","https://farm8.staticflickr.com/7682/17166247575_37d1322fa1_m.jpg","superuser",-8.2439,53.4129,"irishB15"
"37804","580","Spearhead","D","Salisbury, S. Wilts and Blackmore Museum","Ireland","Irlande","53.41291","-8.243889999999965","","None","None","None","65","blade 22; socket 20","","44.2","dark green.","","socket 21","","","","One loop is closed.","","","Denis Antoine","https://www.flickr.com/photos/115096994@N02/17166247535","https://farm9.staticflickr.com/8768/17166247535_95b2a424bd_m.jpg","superuser",-8.2439,53.4129,"irishB15"
"37805","433","Spearhead","E","British Museum, 54.7-14.227","Ireland","Ireland","53.41291","-8.243889999999965","","None","None","None","96","blade 38; socket 17","","50.11","Brownish green. Showing golden bronze.","Lightly speckled.","blade 9; socket 16","","","","Centre rib dented on reverse side. Edge slightly grooved but worn. Two loops.","","","Joellen mcGann","https://www.flickr.com/photos/115096994@N02/17165652741","https://farm9.staticflickr.com/8732/17165652741_7b0d571f22_m.jpg","superuser",-8.2439,53.4129,"irishB15"
"37806","433","Spearhead","E","British Museum, 66.6-27.121","Ireland (probably)","Ireland","53.41291","-8.243889999999965","","None","None","None","86","blade 25; socket 19","","54.11","Dull green.","Heavily pitted.","blade 12; socket 18","","","","Edges and top of socket much worn. Blade grooved each side of socket.","","","Joellen mcGann","https://www.flickr.com/photos/115096994@N02/16978720030","https://farm8.staticflickr.com/7621/16978720030_b5dc49a205_m.jpg","superuser",-8.2439,53.4129,"irishB15"
"37807","433","Spearhead","E","British Museum, 63.1-22.90,From Museum of Pract. Geol.","Ireland (probably)","Ireland","53.41291","-8.243889999999965","","None","None","None","144","blade 47; socket 20","","128.3","Green tinge showing golden bronze.","Covered with fine scratches on blade. Finely speckled on socket.","blade 12; socket 19","","","","Edges rather chipped.","","","Joellen mcGann","https://www.flickr.com/photos/115096994@N02/16978719960","https://farm8.staticflickr.com/7611/16978719960_5d43e57b93_m.jpg","superuser",-8.2439,53.4129,"irishB15"
"37808","433","Spearhead","E","British Museum, 47.5-20.22,Bought from the Earl of Enniskillen 1847","Ireland","Ireland","53.41291","-8.243889999999965","","None","None","None","115","blade 42; socket 18","","44.52","","Rough dull bronze.","blade 8.5; socket 18","","","","Edges worn. Top of socket much broken. Loops are quite thin and a good deal broken on reverse.","","","Joellen mcGann","https://www.flickr.com/photos/115096994@N02/17166246955","https://farm8.staticflickr.com/7675/17166246955_cf47bdf0b3_m.jpg","superuser",-8.2439,53.4129,"irishB15"
"37809","433","Spearhead","E","British Museum, 47.5-20.23,Bought from the Earl of Enniskillen, 1847","Ireland","Ireland","53.41291","-8.243889999999965","","None","None","None","79","blade 24; socket 19","","26.01","","Dark brown. Rather rough.","blade 11; socket 18","","","","Edges slightly chipped. Socket rim chipped. Deep groove each side of central rib.","","","Joellen mcGann","https://www.flickr.com/photos/115096994@N02/17165652201","https://farm8.staticflickr.com/7706/17165652201_297a585543_m.jpg","superuser",-8.2439,53.4129,"irishB15"
"37810","433","Spearhead","E","British Museum, 54.7-14.225","Ireland","Ireland","53.41291","-8.243889999999965","","None","None","None","112","blade 37; socket 19","","80.21","Black and green. A bright brown patch on face.","Bright golden. Speckled and lightly pitted.","blade 13; socket 19","","","","2 Rivet holes. Slight crack across socket. Socket rim worn. Edges slightly grooved. Raised beading on blade.","","","Joellen mcGann","https://www.flickr.com/photos/115096994@N02/16978490558","https://farm9.staticflickr.com/8738/16978490558_fd4cc16c09_m.jpg","superuser",-8.2439,53.4129,"irishB15"
"37811","433","Spearhead","E","British Museum, 54.7-14.224","Ireland (probably)","Ireland","53.41291","-8.243889999999965","","None","None","None","126","blade 36; socket 23","","108.81","Dull brownish green.","Rough","blade 14; socket 20","","","","Socket rim bent and broken.","","","Joellen mcGann","https://www.flickr.com/photos/115096994@N02/16958857587","https://farm8.staticflickr.com/7697/16958857587_73a838739d_m.jpg","superuser",-8.2439,53.4129,"irishB15"
"37812","433","Spearhead","E","British Museum, 63.1-22.93,From Mus. Pract. Geol.","Ireland","Ireland","53.41291","-8.243889999999965","","None","None","None","112","blade 28; socket 18","","49.61","Dark green.","Heavily pitted.","blade 12; socket 18","","","","Edges worn and chipped. Socket broken, also one loop. Slight groove on each side of socket on blade.","","","Joellen mcGann","https://www.flickr.com/photos/115096994@N02/17166246505","https://farm9.staticflickr.com/8804/17166246505_04ca43a9ae_m.jpg","superuser",-8.2439,53.4129,"irishB15"
"37813","433","Spearhead","","Museum of Archaeology and Ethnology, Cambridge,Annual Records 1911.5 (numbers do not always correspond),Presented by Mrs. Lawrence Humphrey.","Ireland","Ireland","53.41291","-8.243889999999965","","None","None","None","173","blade 48; socket 23","","97","Dark brown with metal showing through.","Smooth. Though slightly speckled.","blade 14","","","","Conical socket (broken). Bevelled edges. 2 rivet holes.","","","Joellen mcGann","https://www.flickr.com/photos/115096994@N02/16980095679","https://farm8.staticflickr.com/7656/16980095679_a46779298c_m.jpg","superuser",-8.2439,53.4129,"irishB15"
"37814","433","Spearhead","III E","Museum of Archaeology and Ethnology, Cambridge,Presented by Mrs. Lawrence Humphrey,Annual Records, 1911.3 (the numbers do not always correspond).","Ireland","Ireland","53.41291","-8.243889999999965","","None","None","None","121","blade 32; socket 17","","54","Very dark brown.","Smooth and even, except for a corroded patch on one face.","blade 12","","","","High sharp midrib and 2 ridges expanding towards the shoulders of blade. 2 loops flattened into lozenges.","","","Joellen mcGann","https://www.flickr.com/photos/115096994@N02/16958857427","https://farm8.staticflickr.com/7682/16958857427_535b3b9dd1_m.jpg","superuser",-8.2439,53.4129,"irishB15"
"37815","433","Spearhead","III E","Private Collection,No. 51,F. Ransom, Esq., Hitchin","Ireland","Ireland","53.41291","-8.243889999999965","","None","None","None","116.5","blade 32; socket 18","","63.79","No patina, mostly dark bronze colour. The prominent parts golden bronze shows.","Smoothis, but a little roughly cast. casting marks all over it.","socket 18; blade 3, 12","","","","","","","Joellen mcGann","https://www.flickr.com/photos/115096994@N02/17164633492","https://farm9.staticflickr.com/8768/17164633492_4938c7d3cd_m.jpg","superuser",-8.2439,53.4129,"irishB15"
"37816","433","Spear Head","E","Ashmolean Museum, Oxford,1910 No. 688,Acquired by exchange.","Ireland","Ireland","53.41291","-8.243889999999965","","None","None","None","129","35","","82.86","Green patina in places.","Yellow bronze, surface of blade corroded.","22","","","","Lonzenge-shaped loops, with engraved lines round edge. Ornamental ridges on blade.","","","Joellen mcGann","https://www.flickr.com/photos/115096994@N02/16543839384","https://farm8.staticflickr.com/7610/16543839384_cfed60e172_m.jpg","superuser",-8.2439,53.4129,"irishB15"
"37817","580","Spearhead","E","Salisbury, S. Wilts and Blackmore Museum,203 Brackstone Collection,B 203 on side","Ireland","Irlande","53.41291","-8.243889999999965","","None","None","None","113","blade 36; socket 19","","89.05","dark brown.","","socket 19","","","","Loops are very nearly closed.","","","Denis Antoine","https://www.flickr.com/photos/115096994@N02/16978489908","https://farm9.staticflickr.com/8724/16978489908_c13faf1443_m.jpg","superuser",-8.2439,53.4129,"irishB15"
"37818","580","Spearhead","E","Salisbury, S. Wilts and Blackmore Museum,531 Barckstone Collection,B 531 on side.","Ireland","Irlande","53.41291","-8.243889999999965","","None","None","None","155","blade 39; socket 22","","74.75","green & brown","pitted in places","socket 21","","","","","","","Denis Antoine","https://www.flickr.com/photos/115096994@N02/16980095149","https://farm9.staticflickr.com/8780/16980095149_4f063f3545_m.jpg","superuser",-8.2439,53.4129,"irishB15"
"37819","580","Spearhead","E","Salisbury, S. Wilts and Blackmore Museum.,701 Blackstone Collection,B 701 on side","Ireland","Irlande","53.41291","-8.243889999999965","","None","None","None","75","blade 25; socket 19","","56.55","","","socket 20","","","","Loops are defective. Only one has a hole & that is very small.","","","Denis Antoine","https://www.flickr.com/photos/115096994@N02/17140329656","https://farm8.staticflickr.com/7607/17140329656_742290653b_m.jpg","superuser",-8.2439,53.4129,"irishB15"
"37820","580","Spearhead","E","Salisbury, S. Wilts and Blackmore Museum.,821 Brackstone Collection,B 821 on side.","Ireland","Irlande","53.41291","-8.243889999999965","","None","None","None","99","blade 33; socket 18","","58.5","green.","","socket 18","","","","","","","Denis Antoine","https://www.flickr.com/photos/115096994@N02/16978718650","https://farm9.staticflickr.com/8739/16978718650_cee7350b50_m.jpg","superuser",-8.2439,53.4129,"irishB15"
"37821","580","Spearhead","E","Salisbury, S. Wilts and Blackmore Museum.,824 Brackstone Collection,B 824 on side.","Ireland","Irlande","53.41291","-8.243889999999965","","None","None","None","143","blade 56; socket 21","","84.5","dark green","","","","","","Loops are diamond shaped.","","","Denis Antoine","https://www.flickr.com/photos/115096994@N02/16958856467","https://farm9.staticflickr.com/8728/16958856467_eb5b34f365_m.jpg","superuser",-8.2439,53.4129,"irishB15"
"37822","580","Spear Head","II E","Alnwick Castle No. 421","Ireland","Irlande","53.41291","-8.243889999999965","","None","None","None","125","32; Dia. of socket 21","","85","dark brown","smooth","14","","","","","","","Denis Antoine","https://www.flickr.com/photos/115096994@N02/17140329086","https://farm9.staticflickr.com/8808/17140329086_d2a798fe7c_m.jpg","superuser",-8.2439,53.4129,"irishB15"
"37823","580","Spear Head","III E","Museum, Leeds Phil. & Lit. Society.","Ireland","Irlande","53.41291","-8.243889999999965","","None","None","None","144","blade 41; socket 22","","113","","","","","","","Cylindrical socket continued as angular midrib ti extreme point, the wings broad with deep broad channels down side of midrib & forming a ridge running parallel with edges of blade, the loops on the sides of socket hammered out into lozenge form.","","","Denis Antoine","https://www.flickr.com/photos/115096994@N02/16958856237","https://farm8.staticflickr.com/7717/16958856237_4b28bf79ce_m.jpg","superuser",-8.2439,53.4129,"irishB15"
"37824","580","Spear Head","III E","Museum, Leeds Phil. & Lit. Society.","Ireland","Irlande","53.41291","-8.243889999999965","","None","None","None","79","blade 27; socket 16","","48","","","","","","","Cylindrical socket, sharp ridge along midrib or upper part of socket continued to point of blade, wings rather broad & channeled out down each side od midrib, & with raised line or rib running parallel with the cutting edge.","","","Denis Antoine","https://www.flickr.com/photos/115096994@N02/16546090543","https://farm8.staticflickr.com/7717/16546090543_ea6b1665fb_m.jpg","superuser",-8.2439,53.4129,"irishB15"
"37825","580","Spear Head","II E","Museum, Leeds Phil. & Lit. Society","Ireland","Irlande","53.41291","-8.243889999999965","","None","None","None","95","blade 25; socket 21","","","","","69","","","","Socket unsusually large in proportion to size of blade, deep channels down each side of midrib forming ridges running parallel with & near to the cutting edge; loop on sides of socket of lozenge form.","","","Denis Antoine","https://www.flickr.com/photos/115096994@N02/17165650721","https://farm8.staticflickr.com/7679/17165650721_64120f9e50_m.jpg","superuser",-8.2439,53.4129,"irishB15"
"37826","580","Spear Head","III E","Museum, Leeds Phil. & Lit. Society","Ireland","Irlande","53.41291","-8.243889999999965","","None","None","None","116","blade 34","","88","","smooth metallic, probably been cleaned.","diameter of socket 20","","","","Cylindrical socket developing into angular midrib, wings channeled out along sides of midrib, & raisde ridges running parallel with cutting edge.","","","Denis Antoine","https://www.flickr.com/photos/115096994@N02/16543838314","https://farm8.staticflickr.com/7678/16543838314_ed9ca5331d_m.jpg","superuser",-8.2439,53.4129,"irishB15"
"37827","580","Spear Head","III E","Museum, Leeds Phil. & Lit. Society.","Ireland","Irlande","53.41291","-8.243889999999965","","None","None","None","119.5","blade 45; socket 19.5","","166","smooth green patina one side","rough & rather pitted one side","","","","","Cylindrical socket continued as a rather sharp midrib down centre of blade, wings unusually large and with raised lines or ribs running parallel with cutting edge & meeting near point of socket, loops on sides of sockets lozenge shaped.","","","Denis Antoine","https://www.flickr.com/photos/115096994@N02/17165650331","https://farm8.staticflickr.com/7657/17165650331_74f233f4ff_m.jpg","superuser",-8.2439,53.4129,"irishB15"
"37828","580","Spearhead","","Horniman Museum Forest Hill SE.,pres. by the British Museum.,251","Ireland","Irlande","53.41291","-8.243889999999965","","None","None","None","88.5","blade 24.5; socket 18","","38.97","no patina","mostly golden bronze colour, very tiny pittings mostly all over.","socket 18,blade 25.3; 11.5","","","","Well preserved.","","","Denis Antoine","https://www.flickr.com/photos/115096994@N02/16543838104","https://farm8.staticflickr.com/7719/16543838104_a045e33b17_m.jpg","superuser",-8.2439,53.4129,"irishB15"
"37829","580","Spearhead","III E","Vize Collection N 1721.,Sotheby's N 72/2.","Ireland","Irlande","53.41291","-8.243889999999965","","None","None","None","116","socket 19.5; blade 32.5","","92.13","","pitted all over due to rough casing & the whole thing looks very like brass. very slt. green corrosion on blade.","blade 3; 2.5; 9.5,socket 19","","","","Point has been rounded. There are three strong ribs on blade.","","","Denis Antoine","https://www.flickr.com/photos/115096994@N02/16980093869","https://farm9.staticflickr.com/8706/16980093869_72b5ab2cda_m.jpg","superuser",-8.2439,53.4129,"irishB15"
"37830","580","Spear head","III E","Private Collection,W.C. Wells Esq., 2 Maybank Avenue, Sudbury, Harrow. 21. 6. 20.","Ireland","Irlande","53.41291","-8.243889999999965","","None","None","None","140","blade 46; socket 19","","113.39","no patina","smooth. golden bronze & very light green","blade 3","","","","","","","Denis Antoine","https://www.flickr.com/photos/115096994@N02/17140328216","https://farm8.staticflickr.com/7659/17140328216_eb74edf67f_m.jpg","superuser",-8.2439,53.4129,"irishB15"
"37831","580","Spearhead","III E","Herts Cty. Mus., St. Albans.","Ireland,Bayne","Boyne, Irlande","53.72756889999999","-6.274830599999973","","None","None","None","136","blade 35; socket 20","","127.56","blackish matt.","smooth","blade 12; socket 20","","","","1 rivet hole only in socket.","","","Denis Antoine","https://www.flickr.com/photos/115096994@N02/17166244625","https://farm8.staticflickr.com/7691/17166244625_349419391d_m.jpg","superuser",-6.2748,53.7276,"irishB15"
"37832","580","Spear head","III E","Royal Scottish Museum, Edinburgh.,Reg. No. 1891. 90.","Ireland","Irlande","53.41291","-8.243889999999965","","None","None","None","115","56; 20","","91","brown & green","in fair condition.","20","","bronze","","Spear head, bronze, socketed with lozenge-shaped loops at sides, broad blade with two diagonal ribs.","","","Denis Antoine","https://www.flickr.com/photos/115096994@N02/16978717450","https://farm8.staticflickr.com/7655/16978717450_0e05537b31_m.jpg","superuser",-8.2439,53.4129,"irishB15"
"37833","580","Spearhead","III E","Vize Collection B 2748,Sotheby's N 72/2.","North of Ireland","Irlande du Nord, Royaume-Uni","54.7877149","-6.49231450000002","","None","None","None","128","blade 39; socket 21","","92.13","no patina","smooth. Bronze & golden bronze colour with a few black stains.","socket 19,blade 2.5; 2 & 13.25","","","","Two tanged holes. End of socket tapers down very thin.","","","Denis Antoine","https://www.flickr.com/photos/115096994@N02/16978717300","https://farm8.staticflickr.com/7606/16978717300_d5c38503be_m.jpg","superuser",-6.4923,54.7877,"irishB15"
"37834","580","Spear-head","III E","Ashmolean Museum, Oxford.,1886 N 5771.,Antrim Collection,Given to the University by Lord Antrim.","Ireland (north of)","Irlande du Nord, Royaume-Uni","54.7877149","-6.49231450000002","","None","None","None","124","43","","86.99","","pale yellow bronze.","18","","","","Blow holes at each side at base of blade; very good condition; socket diminishes o sharp ridge at point. Flat lozenge-shaped loop.","","","Denis Antoine","https://www.flickr.com/photos/115096994@N02/17166244175","https://farm8.staticflickr.com/7667/17166244175_eb2333f9d7_m.jpg","superuser",-6.4923,54.7877,"irishB15"
"37835","580","Spear Head","III E","Alnwick Castle No. 431","Ireland","Irlande","53.41291","-8.243889999999965","","None","None","None","164","51; Dia. of socket 21 x 18","","155.2","reddish brown","smooth","11","","","","","","","Denis Antoine","https://www.flickr.com/photos/115096994@N02/16978487658","https://farm9.staticflickr.com/8744/16978487658_0c19fd5ea1_m.jpg","superuser",-8.2439,53.4129,"irishB15"
"37836","580","Spear Head","III","Alnwick Castle No. 430.","Ireland","Irlande","53.41291","-8.243889999999965","","None","None","None","128","49; Dia. of socket 20","","78.1","reddish brown.","rough","15","","","","","","","Denis Antoine","https://www.flickr.com/photos/115096994@N02/17164631022","https://farm8.staticflickr.com/7611/17164631022_148ed2355c_m.jpg","superuser",-8.2439,53.4129,"irishB15"
"37837","580","Spear Head","III E","Alnwick Castle No. 427.","Ireland","Irlande","53.41291","-8.243889999999965","","None","None","None","108","29; Dia. of socket 18 x 22","","57","dark brown patina with green patches.","Smooth","14","","","","","","","Denis Antoine","https://www.flickr.com/photos/115096994@N02/17166244025","https://farm8.staticflickr.com/7712/17166244025_dd30ecde16_m.jpg","superuser",-8.2439,53.4129,"irishB15"
"37838","580","Spear Head","III E","Alnwick Castle No. 426.","Ireland","Irlande","53.41291","-8.243889999999965","","None","None","None","106","29; Dia. of socket 14","","56.6","Dark brown.","smooth","15","","","","Socket broken at back.","","","Denis Antoine","https://www.flickr.com/photos/115096994@N02/16978716950","https://farm9.staticflickr.com/8804/16978716950_243772c8ef_m.jpg","superuser",-8.2439,53.4129,"irishB15"
"37839","580","Spear Head","III E","Alnwick Castle No. 423","Ireland","Irlande","53.41291","-8.243889999999965","","None","None","None","123","36; Dia. of socket 20","","85","bronze.","smooth","14","","","","Fine specimen, but socket slightly broken.","","","Denis Antoine","https://www.flickr.com/photos/115096994@N02/17166243805","https://farm9.staticflickr.com/8686/17166243805_361f195037_m.jpg","superuser",-8.2439,53.4129,"irishB15"
"37840","580","Spearhead","F","British Museum 63 1 22 95,from Mus. Pract. Geology.","Ireland","Irlande","53.41291","-8.243889999999965","","None","None","None","90","blade 22; socket 19","","70.88","small patches grey green especially in the grooves.","dark bronze, very slightly pitted.","blade 15; socket 19","","","","Rib flattened near point. Two small pits above loops. Lower part of blade is chipped. Bottom of socket craked & broken in centre face. The left loop is not pierced.","","","Denis Antoine","https://www.flickr.com/photos/115096994@N02/17166243475","https://farm9.staticflickr.com/8798/17166243475_9041d51b45_m.jpg","superuser",-8.2439,53.4129,"irishB15"
"37841","580","Spearhead","F","British Museum 83 2 18 37.","Ireland?","","53.41291","-8.243889999999965","","None","None","None","123","blade 25; socket 18","","56.7","sage green.","much chipped & pitted. Flaked especially round right edge.","blade 10; socket 18","","","","Blade slightly bent towards point. One loop is broken. A large piece broken out of left side of socket.","","","Denis Antoine","https://www.flickr.com/photos/115096994@N02/16978486928","https://farm8.staticflickr.com/7643/16978486928_cb40739845_m.jpg","superuser",-8.2439,53.4129,"irishB15"
"37842","580","Spear Head","II F","Museum, Leeds Phil. & Lit. Society.","Ireland","Irlande","53.41291","-8.243889999999965","","None","None","None","125","blade 27.5; socket 21.5","","87","","","","","","","Angular ridge extending whole length of socket & midrib, channeled out along sides of midrib in lower part of blade, with raised ridges running diagonally across wings, loops on socket of flattened lozenge form.","","","Denis Antoine","https://www.flickr.com/photos/115096994@N02/17164630212","https://farm8.staticflickr.com/7623/17164630212_8a43d7f120_m.jpg","superuser",-8.2439,53.4129,"irishB15"
"37843","433","Spearhead","III F","Horniman Museum,Forest Hill SE,Purchased from the Backhouse collection.,7.416","Ireland","Ireland","53.41291","-8.243889999999965","","None","None","None","135","31","","56.7","No patina.","Smooth. Bronze colour.","18 socket","","","","","","","Joellen mcGann","https://www.flickr.com/photos/115096994@N02/17164630122","https://farm9.staticflickr.com/8783/17164630122_2b5163f505_m.jpg","superuser",-8.2439,53.4129,"irishB15"
"37844","433","Spearhead","F","London School of Economics,Houghton St. WC2","Ireland","Ireland","53.41291","-8.243889999999965","","None","None","None","125","blade 30; socket 19","","88.59","Traces of thick black, golden bronze shows. The remainder mostly nearly black in colour.","Much pitted.","blade 13; socket 17","","","","Sharp point. Socket is broken.","","","Joellen mcGann","https://www.flickr.com/photos/115096994@N02/17164629892","https://farm9.staticflickr.com/8820/17164629892_eeec4632da_m.jpg","superuser",-8.2439,53.4129,"irishB15"
"37845","433","Spearhead","F","Sotheby's Sale, 19.11.24; 640,Collection of W. J. Knowles, MRIA of Flixton Place, Ballymena","Ireland,Buckno Bog, when cutting,1887","Ireland","53.41291","-8.243889999999965","","None","None","1887","187","blade 33; socket 20","","","","Smooth. Golden and dark bronze.","blade 12.5; socket 19","","","","Socket slightly broken on other side. Edge of socket is very thin. Very sharp edges.","","","Joellen mcGann","https://www.flickr.com/photos/115096994@N02/16958854007","https://farm8.staticflickr.com/7718/16958854007_722f59e025_m.jpg","superuser",-8.2439,53.4129,"irishB15"
"37846","433","Spearhead","F","Blandford,Pitt Rivers Museum,Farnham","Ireland","Ireland","53.41291","-8.243889999999965","","None","None","None","104","blade 26; socket 15","","56.7","","Smooth, dark bronze","Socket 15","","","","","","Label: Bronze spearhead from Ireland","Joellen mcGann","https://www.flickr.com/photos/115096994@N02/16958853957","https://farm8.staticflickr.com/7628/16958853957_e8b02bbf29_m.jpg","superuser",-8.2439,53.4129,"irishB15"
"37847","433","Spearhead","F","Blandford,Farnham, Pitt Rivers Museum,Dorset","Ireland","Ireland","53.41291","-8.243889999999965","","None","None","None","210","blade 37; socket 20","","226.8","","Rough green","socket 20","","","","","","","Joellen mcGann","https://www.flickr.com/photos/115096994@N02/17164629612","https://farm9.staticflickr.com/8779/17164629612_79576640a5_m.jpg","superuser",-8.2439,53.4129,"irishB15"
"37848","433","Spearhead","F","Blandford,Farnham, Pitt Rivers Museum,Dorset","Ireland","Ireland","53.41291","-8.243889999999965","","None","None","None","195","blade 36; socket 22","","170.1","","Smooth dark bronze","socket 22","","","","","","","Joellen mcGann","https://www.flickr.com/photos/115096994@N02/16978715640","https://farm8.staticflickr.com/7644/16978715640_9a5d16b4f3_m.jpg","superuser",-8.2439,53.4129,"irishB15"
"37849","433","Spearhead","III F","Private Collection,1923,A. Henderson Bishop,Thornton Hall, Lanarkshire","Ireland","Ireland","53.41291","-8.243889999999965","","None","None","None","93","blade 23","","26.55","","Bright metal, brown stained.","blade 10","","","","Point missing. Socket damaged: hole near loop. Small rivet hole on both sides.","","","Joellen mcGann","https://www.flickr.com/photos/115096994@N02/17166242645","https://farm8.staticflickr.com/7586/17166242645_4c40c75724_m.jpg","superuser",-8.2439,53.4129,"irishB15"
"37850","433","Spearhead","F","Private Collection,1923,A. Henderson Bishop,Thornton Hall, Lanarkshire","Ireland","Ireland","53.41291","-8.243889999999965","","None","None","None","130","blade 34; socket 18","","81.5","Dirty green patina.","Much corroded","blade 14","","","","Point gone. Socket damaged. One loop missing, the other crushed.","","","Joellen mcGann","https://www.flickr.com/photos/115096994@N02/16978715500","https://farm8.staticflickr.com/7632/16978715500_43e3476acb_m.jpg","superuser",-8.2439,53.4129,"irishB15"
"37851","433","Spear-head","F","Bankfield Museum, Halifax,No. 21,[Ireland,A.W. 103],From the collection of The Tower of London","Ireland","Ireland","53.41291","-8.243889999999965","","None","None","None","119","blade 29; diameter (socket) 21","","98","Black","","","","","","Perfect","","","Joellen mcGann","https://www.flickr.com/photos/115096994@N02/16543835464","https://farm8.staticflickr.com/7666/16543835464_34d04dfa43_m.jpg","superuser",-8.2439,53.4129,"irishB15"
"37852","433","Spear-head Cl. III-IV","F","Private Collection,Thos. H. Knowles,49, Shakespeare Rd, Hanwell, W.7","Ireland","Ireland","53.41291","-8.243889999999965","","None","None","None","145","blade 36; socket 20","","85.05","Black","","","Weight: 3 oz. = 85.05 gms","","","Fragment of wood in socket.","","","Joellen mcGann","https://www.flickr.com/photos/115096994@N02/16978715230","https://farm8.staticflickr.com/7699/16978715230_dccb511848_m.jpg","superuser",-8.2439,53.4129,"irishB15"
"37853","433","Socketed Spearhead","F","Reading Museum, 67:55,History unknown","Ireland","Ireland","53.41291","-8.243889999999965","","None","None","None","","","","","Good, dark green to brown.","Good","","","Bronze.","","Both loops broken; edges of blade damaged.","","J. Wymer","Joellen mcGann","https://www.flickr.com/photos/115096994@N02/16546088203","https://farm9.staticflickr.com/8687/16546088203_f34b243396_m.jpg","superuser",-8.2439,53.4129,"irishB15"
"37854","580","Spearhead","F","Salisbury, S. Wilts and Blackmore Museum.,84 Brackstone Collection,B. 84 on side.","Ireland","Irlande","53.41291","-8.243889999999965","","None","None","None","94","blade 24; socket 18","","51.35","","","ssocket 19","","","","","","","Denis Antoine","https://www.flickr.com/photos/115096994@N02/17140325766","https://farm9.staticflickr.com/8706/17140325766_60e9fba6d1_m.jpg","superuser",-8.2439,53.4129,"irishB15"
"37855","580","Spearhead","F","Salisbury, S. Wilts and Blackmore Museum.,247 Brackstone Collection,B 247 on side","Ireland","Irlande","53.41291","-8.243889999999965","","None","None","None","100","blade 22; socket 19","","50.05","greenish brown.","","socket 19","","","","","","","Denis Antoine","https://www.flickr.com/photos/115096994@N02/17165647441","https://farm9.staticflickr.com/8810/17165647441_ece67e1547_m.jpg","superuser",-8.2439,53.4129,"irishB15"
"37856","580","Spearhead","F","Salisbury, S. Wilts and Blackmore Museum.,259 Brackstone Collection,B 259 on side.","Ireland","Irlande","53.41291","-8.243889999999965","","None","None","None","110","blade 36; socket 24","","96.2","green, with bronze showing.","","socket 21","","","","Socket is oval.","","","Denis Antoine","https://www.flickr.com/photos/115096994@N02/17165647401","https://farm9.staticflickr.com/8790/17165647401_7265938f7f_m.jpg","superuser",-8.2439,53.4129,"irishB15"
"37857","433","Spearhead","F","Salisbury, South Wilts. and Blackmore Museum,311 Brackstone Collection,B311 on side","Ireland","Ireland","53.41291","-8.243889999999965","","None","None","None","102","blade 25; socket 16","","50.05","dark brown","","","","","","","","","Joellen mcGann","https://www.flickr.com/photos/115096994@N02/16980091349","https://farm9.staticflickr.com/8721/16980091349_dfbf9e7513_m.jpg","superuser",-8.2439,53.4129,"irishB15"
"37858","433","Spearhead","F","Salisbury, S. Wilts, and Blackmore Museum,692 Brackstone Collection,B692 on side","Ireland","Ireland","53.41291","-8.243889999999965","","None","None","None","113","blade 23; socket 15","","52","Dark brown","","","","","","Edges broken","","","Joellen mcGann","https://www.flickr.com/photos/115096994@N02/16980090839","https://farm9.staticflickr.com/8760/16980090839_953967312f_m.jpg","superuser",-8.2439,53.4129,"irishB15"
"37859","433","Spearhead","F","Salisbury, S. Wilts., and Blackmore Museum,693 Brackstone Collection,B693 on side","Ireland","Ireland","53.41291","-8.243889999999965","","None","None","None","130","blade 29; socket 18","","81.25","Dark brown","","","","","","","","","Joellen mcGann","https://www.flickr.com/photos/115096994@N02/17164628052","https://farm8.staticflickr.com/7670/17164628052_418fe64bf6_m.jpg","superuser",-8.2439,53.4129,"irishB15"
"37860","433","Spearhead","F","Salisbury, S. Wilts. and Blackmoor Museum,694 Brackstone Collection,B694 on side","Ireland","Ireland","53.41291","-8.243889999999965","","None","None","None","155","blade 21; socket 18","","82.55","Brown","","","","","","","","","Joellen mcGann","https://www.flickr.com/photos/115096994@N02/17166241455","https://farm9.staticflickr.com/8798/17166241455_bfe58dcedd_m.jpg","superuser",-8.2439,53.4129,"irishB15"
"37861","433","Spearhead","F","","Ireland","Ireland","53.41291","-8.243889999999965","","None","None","None","225","blade 32; socket 18","","73.45","Brown","","","","","","Not a good casting.","","","Joellen mcGann","https://www.flickr.com/photos/115096994@N02/17166241435","https://farm8.staticflickr.com/7687/17166241435_ca7ebdbfb2_m.jpg","superuser",-8.2439,53.4129,"irishB15"
"37862","433","Spear-head","F","Ashmolean Museum, Oxford,1886 No. 5769,Antrim Collection,Given to the University by Lord Antrim","Ireland (north of)","Ireland","53.41291","-8.243889999999965","","None","None","None","140","31","","49.46","Spotted with green patina.","Yellow bronze.","15","","","","The socket has a large gap up the middle of one side, and irregularities in the border at other points, perhaps due to mis-casting. Flat lozenge-shaped loops.","","","Joellen mcGann","https://www.flickr.com/photos/115096994@N02/16543833894","https://farm8.staticflickr.com/7628/16543833894_63412876d4_m.jpg","superuser",-8.2439,53.4129,"irishB15"
"37863","433","Spear Head","III F","Alnwick Castle, No. 419","Ireland","Ireland","53.41291","-8.243889999999965","","None","None","None","150","23; Dia. of socket 19","","101.8","Dark brown patina","Smooth","14","","","","","","","Joellen mcGann","https://www.flickr.com/photos/115096994@N02/16980090129","https://farm9.staticflickr.com/8686/16980090129_9fee4c5c2a_m.jpg","superuser",-8.2439,53.4129,"irishB15"
"37864","433","Spear Head","III F","Alnwick Castle, No. 420","Ireland","Ireland","53.41291","-8.243889999999965","","None","None","None","141","33; Dia. 18","","84.5","Bronze patina.","Smooth","10","","","","Blade very much chipped.","","","Joellen mcGann","https://www.flickr.com/photos/115096994@N02/16980090019","https://farm8.staticflickr.com/7588/16980090019_8db4cab0ba_m.jpg","superuser",-8.2439,53.4129,"irishB15"
"37865","433","Spear Head","III F","Alnwick Castle, No. 422","Ireland","Ireland","53.41291","-8.243889999999965","","None","None","None","119","24; Dia. of socket 18","","59.4","Bronze patina","Smooth","13","","","","","","","Joellen mcGann","https://www.flickr.com/photos/115096994@N02/16978713590","https://farm8.staticflickr.com/7669/16978713590_b9c48f1305_m.jpg","superuser",-8.2439,53.4129,"irishB15"
"37866","433","Spear Head","III F","","Ireland","Ireland","53.41291","-8.243889999999965","","None","None","None","118","24; Dia. of socket 17 x 19","","78","Brown patina","Fairly smooth","10","","","","","","","Joellen mcGann","https://www.flickr.com/photos/115096994@N02/16978484078","https://farm9.staticflickr.com/8797/16978484078_db71638c4a_m.jpg","superuser",-8.2439,53.4129,"irishB15"
"37867","433","Spear Head","III F","Alnwick Castle, No. 425","Ireland","Ireland","53.41291","-8.243889999999965","","None","None","None","119","26; Dia. of socket 18","","62.6","Brown patina","Smooth","15","","","","Hole in rib of blade, one loop broken off.","","","Joellen mcGann","https://www.flickr.com/photos/115096994@N02/16543833334","https://farm8.staticflickr.com/7662/16543833334_7319de0095_m.jpg","superuser",-8.2439,53.4129,"irishB15"
"37868","433","Spear Head","III F","Alnwick Castle, No. 428","Ireland","Ireland","53.41291","-8.243889999999965","","None","None","None","106","24; Dia. of socket 19","","","Dark brown patina","Smooth","9","","","","","","","Joellen mcGann","https://www.flickr.com/photos/115096994@N02/16958851917","https://farm9.staticflickr.com/8750/16958851917_d256c5e823_m.jpg","superuser",-8.2439,53.4129,"irishB15"
"37869","433","Spear Head","III F","Alnwick Castle, No. 429","Ireland","Ireland","53.41291","-8.243889999999965","","None","None","None","89","22; Dia. of socket 18 x 20","","56.5","Dull green patina","Smooth","14","","","","","","","Joellen mcGann","https://www.flickr.com/photos/115096994@N02/17164626742","https://farm8.staticflickr.com/7662/17164626742_8e6cf7f237_m.jpg","superuser",-8.2439,53.4129,"irishB15"
"37870","433","Fragment of Spear","III E","Alnwick Castle, No. 435c","Ireland","Ireland","53.41291","-8.243889999999965","","None","None","None","85","31","","98.7","Brown patina","Corroded","","","","","","","","Joellen mcGann","https://www.flickr.com/photos/115096994@N02/17166240385","https://farm9.staticflickr.com/8778/17166240385_7536431ee9_m.jpg","superuser",-8.2439,53.4129,"irishB15"
"37871","433","Spear Head","Fragment","Alnwick Castle, No. 435a","Ireland","Ireland","53.41291","-8.243889999999965","","None","None","None","142","31","","70.5","Bright green patina","Smooth","","","","","","","","Joellen mcGann","https://www.flickr.com/photos/115096994@N02/16978712870","https://farm8.staticflickr.com/7719/16978712870_9bc4c8f7e5_m.jpg","superuser",-8.2439,53.4129,"irishB15"
"37872","433","Fragment of Spear","Fragment","Alnwick Castle, No. 435b","Ireland","Ireland","53.41291","-8.243889999999965","","None","None","None","65","34","","42.5","Brown patina","Corroded","","","","","","","","Joellen mcGann","https://www.flickr.com/photos/115096994@N02/16543832484","https://farm9.staticflickr.com/8719/16543832484_b8315fce22_m.jpg","superuser",-8.2439,53.4129,"irishB15"
"37873","433","Spear or Arrow Head","Fragment","Carnarvon Museum","Ireland","Ireland","53.41291","-8.243889999999965","","None","None","None","74","23","","","","Light brassy appearance. Has been cleaned. Only slightly corroded.","","","","","","","","Joellen mcGann","https://www.flickr.com/photos/115096994@N02/16978482968","https://farm9.staticflickr.com/8767/16978482968_e3f31f4438_m.jpg","superuser",-8.2439,53.4129,"irishB15"
"37874","433","Spearhead","Failed Casting","Ashmolean Museum, Oxford,1886 No. 5767,Antrim Collection,Given to the University by Lord Antrim","Ireland (north of)","Ireland","53.41291","-8.243889999999965","","None","None","None","167","34","","187.03","Brown patina.","","21","","","","Low collar round base of socket; a miscasting; ends of two jets at K + L.","","","Joellen mcGann","https://www.flickr.com/photos/115096994@N02/17166239765","https://farm8.staticflickr.com/7708/17166239765_da933468a0_m.jpg","superuser",-8.2439,53.4129,"irishB15"
"37875","433","Spear Head","G","Alnwick Castle, No. 433","Ireland","Ireland","53.41291","-8.243889999999965","","None","None","None","176","37; socket dia. 20","","102.2","Dark greenish brown","Smooth","15","","","","","","","Joellen mcGann","https://www.flickr.com/photos/115096994@N02/16978712500","https://farm8.staticflickr.com/7608/16978712500_d97a1fd7eb_m.jpg","superuser",-8.2439,53.4129,"irishB15"
"37876","433","Spearhead","III G","Private Collection,F. Ransom Esq., Hitchin,From Dr. Roots collection","Ireland?,purchased in Dublin","Ireland","53.41291","-8.243889999999965","","None","None","None","167","blade 28; socket 19.5","","84.3","Traces of brown patina and slight light green patina.","Smooth. Bronze and dark golden colour.","socket 18","","","","In good preservation.","","","Joellen mcGann","https://www.flickr.com/photos/115096994@N02/17166239325","https://farm8.staticflickr.com/7604/17166239325_28af4e17d4_m.jpg","superuser",-8.2439,53.4129,"irishB15"
"37877","433","Spearhead","III G","Private Collection,1923,Sir William Ridgeway","Ireland","Ireland","53.41291","-8.243889999999965","","None","None","None","157","blade 37; socket 25","","127.56","Some patches of patina dark green on socket.","Smooth. Light greeny brown.","blade 15; socket 22.5","","","","","","","Joellen mcGann","https://www.flickr.com/photos/115096994@N02/16958850217","https://farm8.staticflickr.com/7690/16958850217_68c6367329_m.jpg","superuser",-8.2439,53.4129,"irishB15"
"37878","433","Spearhead","G","Bristol Museum, 7860,Acquired at an Auction 1924","Ireland?","Ireland","53.41291","-8.243889999999965","","None","None","None","338","blade 53; socket 26","","354.37","","","","","","","","","","Joellen mcGann","https://www.flickr.com/photos/115096994@N02/16980088259","https://farm9.staticflickr.com/8820/16980088259_165986bda1_m.jpg","superuser",-8.2439,53.4129,"irishB15"
"37879","433","Spearhead","F","Blandford, Pitt Rivers Museum, Farnham","Ireland","Ireland","53.41291","-8.243889999999965","","None","None","None","139","blade 25; socket 19","","113.39","","Smooth dark bronze","socket 20","","","","","","","Joellen mcGann","https://www.flickr.com/photos/115096994@N02/16958850147","https://farm9.staticflickr.com/8754/16958850147_cc241c21a4_m.jpg","superuser",-8.2439,53.4129,"irishB15"
"37880","433","Spearhead","H","Horniman Museum Forest Hill SE,Presented by the British Museum","Ireland","Ireland","53.41291","-8.243889999999965","","None","None","None","142","blade 39; socket 15.5","","102.76","No patina","Smooth. Some small pittings. Dark and golden bronze and a few black stains.","blade 14.5, 2.75; socket 17.5","","","","Loops at base. Edge chipped. Blade cracked right through. One loop is broken.","","","Joellen mcGann","https://www.flickr.com/photos/115096994@N02/16546084473","https://farm9.staticflickr.com/8821/16546084473_edbc5a4e6e_m.jpg","superuser",-8.2439,53.4129,"irishB15"
"37881","433","Spearhead","H","Private Collection,No. 40,F. Ransom Esq., Hitchin,From Dr. G. Roots Collection","Ireland","Ireland","53.41291","-8.243889999999965","","None","None","None","150","approx. 25; point 11; socket 19","","85.05","Lightish greeny brown patina.","Much broken and corroded especially on the side shown (other side is much more perfect). The pits are corroded light green.","socket 19; blade 13 + 5.25","","","","","","","Joellen mcGann","https://www.flickr.com/photos/115096994@N02/17140321976","https://farm9.staticflickr.com/8775/17140321976_c85cc86f74_m.jpg","superuser",-8.2439,53.4129,"irishB15"
"37882","433","Spearhead","H","Private Collection,1923,Sir William Ridgeway","Ireland","Ireland","53.41291","-8.243889999999965","","None","None","None","191","blade 24; socket 20","","134.65","No patina.","Smooth, light greeny brown.","blade 15; socket 19.5","","","","","","","Joellen mcGann","https://www.flickr.com/photos/115096994@N02/16546084253","https://farm8.staticflickr.com/7621/16546084253_923194591a_m.jpg","superuser",-8.2439,53.4129,"irishB15"
"37883","433","Spearhead","H","Ashmolean Museum, Oxford,1886 No. 5570,Antrim Collection,Given to the University by Lord Antrim","Ireland (north of)","Ireland","53.41291","-8.243889999999965","","None","None","None","118","31","","40.06","Red-brown patina.","","16","","","","Seems to be an unfinished, somewhat mis-cast specimen.","","","Joellen mcGann","https://www.flickr.com/photos/115096994@N02/16980087729","https://farm9.staticflickr.com/8740/16980087729_0f0d08c938_m.jpg","superuser",-8.2439,53.4129,"irishB15"
"37884","433","Spear Head","H","Museum of the Leeds Philosophical and Literary Society","Ireland","Ireland","53.41291","-8.243889999999965","","None","None","None","89","31 (blade); 19 (socket)","","45","","","","","","","Cylindrical socket continued as a midrib to extreme point of blade, oval shaped openings in wings near base of blade.","","","Joellen mcGann","https://www.flickr.com/photos/115096994@N02/17165643951","https://farm8.staticflickr.com/7666/17165643951_0a49b0b88b_m.jpg","superuser",-8.2439,53.4129,"irishB15"
"37885","433","Spear Head","H","Alnwick Castle, No. 434","Ireland","Ireland","53.41291","-8.243889999999965","","None","None","None","150","28; socket 22","","118.7","Green and brown.","Rough","24","","","","","","","Joellen mcGann","https://www.flickr.com/photos/115096994@N02/16958849057","https://farm8.staticflickr.com/7693/16958849057_d68b02fd20_m.jpg","superuser",-8.2439,53.4129,"irishB15"
"37886","433","Spearhead","H","British Museum (No Nb.)","Ireland (probably)","Ireland","53.41291","-8.243889999999965","","None","None","None","400","blade 51; socket 26","","424.14","Patina in patches, dark and light green, and bronze showing.","","blade 18; socket 28","","","","2 flat diamond shaped loops. Incised decoration round socket. Blade bent. Point missing. Crack on left edge. Socket rim is worn. Hole in left of socket.","Hor. Fer. Pl. VI, fig. 20","","Joellen mcGann","https://www.flickr.com/photos/115096994@N02/17166238055","https://farm9.staticflickr.com/8712/17166238055_dacf729e7a_m.jpg","superuser",-8.2439,53.4129,"irishB15"
"37887","433","Spearhead","J","British Museum","Ireland","Ireland","53.41291","-8.243889999999965","","None","None","None","149","blade 39; socket 27","","134.9","Dull brown.","Rough and pitted. Some rust on reverse.","blade 14; socket 27","","","","Edges broken and curled over. Socket rim is battered.","","","Joellen mcGann","https://www.flickr.com/photos/115096994@N02/17164624682","https://farm8.staticflickr.com/7587/17164624682_ee16b69654_m.jpg","superuser",-8.2439,53.4129,"irishB15"
"37888","433","Spearhead","J","British Museum, 53.10-13.1","Ireland","Ireland","53.41291","-8.243889999999965","","None","None","None","142","blade 42; socket 23","","111.31","Black stains on dull bronze.","Rough","blade 14; socket 22","","","","Two loops in blade. Socket rim is uneven.","","","Joellen mcGann","https://www.flickr.com/photos/115096994@N02/16543830644","https://farm9.staticflickr.com/8762/16543830644_a809148fdb_m.jpg","superuser",-8.2439,53.4129,"irishB15"
"37889","433","Spearhead","J","Salisbury, S. Wilts, and Blackmore Museum,690 Brackstone Collection,B690","Ireland","Ireland","53.41291","-8.243889999999965","","None","None","None","154","blade 43; socket 22","","91","Dark green.","","","","","","Point is missing. Socket broken.","","","Joellen mcGann","https://www.flickr.com/photos/115096994@N02/17164624192","https://farm9.staticflickr.com/8767/17164624192_3ec2d77497_m.jpg","superuser",-8.2439,53.4129,"irishB15"
"37890","433","Spearhead","J","Museum of Archaeology and Ethnology, Cambridge,Annual Records 1911, 4 (the numbers do not always correspond),Presented by Mrs. Lawrence Humphrey.","Ireland","Ireland","53.41291","-8.243889999999965","","None","None","None","169","blade 48.5; socket 26","","209","Very dark brown - some metal showing through.","Smooth and shiny.","blade 16","","","","Conical socket. Wide bevel which runs down to the shoulders and forms a strengthening round 2 loops. 2 Rivet holes both on one side. Point appears to have been broken off and reground, although the surface and patina do not show this.","","","Joellen mcGann","https://www.flickr.com/photos/115096994@N02/16980086769","https://farm8.staticflickr.com/7691/16980086769_784eb5c4c9_m.jpg","superuser",-8.2439,53.4129,"irishB15"
"37891","433","Spearhead","J","Private Collection,75111,S. G. Fenton Esq.,33 Cranbourn St. W.C.,Purchased at Christie's 26.3.25,109/5,Probably from the Jas. Burton Collection dispersed in London July 1836 and acquired by the then Marquis of Breadalbane.,The property of Lieut. Col. T. G. Breadalbane Morgan Grenville-Gavin.","Ireland","Ireland","53.41291","-8.243889999999965","","None","None","None","163","blade 41","","","Traces of brown.","","blade 14 (broken)","","","","Raised lumps by openings in blade. Badly broken and much waterworn.","","","Joellen mcGann","https://www.flickr.com/photos/115096994@N02/17140320676","https://farm8.staticflickr.com/7714/17140320676_701bf065ff_m.jpg","superuser",-8.2439,53.4129,"irishB15"
"37892","433","Spearhead","L","Salisbury, S. Wilts and Blackmore Museum,689 Brackstone Collection,B689 on side","Ireland","Ireland","53.41291","-8.243889999999965","","None","None","None","125","blade 42","","","Brown","","","","","","Lunette openings. Both the top and bottom of this spearhead have been squared off with a file, cutting rivet holes half through - + generally cleaned up.","","","Joellen mcGann","https://www.flickr.com/photos/115096994@N02/16980086219","https://farm9.staticflickr.com/8795/16980086219_88b5b1f374_m.jpg","superuser",-8.2439,53.4129,"irishB15"
"37893","433","Spearhead","L","British Museum, 61.2-1.6","Ireland","Ireland","53.41291","-8.243889999999965","","None","None","None","180","blade 55","","156.42","Slightly patinated. Dark brown.","Rough","blade 20","","","","2 crescent shaped openings in blade. Socket is missing. Top of blade is broken away.","","","Joellen mcGann","https://www.flickr.com/photos/115096994@N02/17165642511","https://farm9.staticflickr.com/8727/17165642511_ea73cdfeb6_m.jpg","superuser",-8.2439,53.4129,"irishB15"
"37894","433","Spearhead","L","British Museum, 95.12-16.1,Given by F. C. J. Spurrell","Ireland","Ireland","53.41291","-8.243889999999965","","None","None","None","247","blade 57; socket 23","","385.47","Slight patina, very dark green.","Much scratched on reverse and pitted in small circular pits.","blade 19; socket 26","","","","Two holes in central rib. Two openings in blade.","","","Joellen mcGann","https://www.flickr.com/photos/115096994@N02/17164623472","https://farm9.staticflickr.com/8826/17164623472_f970760be5_m.jpg","superuser",-8.2439,53.4129,"irishB15"
"37895","433","Spear Head","L","Alnwick Castle, No. 455A","Ireland","Ireland","53.41291","-8.243889999999965","","None","None","None","281","62","","286.2","Yellow and brown patina","Pitted","28","","","","","","","Joellen mcGann","https://www.flickr.com/photos/115096994@N02/16543829654","https://farm8.staticflickr.com/7660/16543829654_9caf5d47c1_m.jpg","superuser",-8.2439,53.4129,"irishB15"
"37896","433","Spearhead","R","Bristol Museum, 7861,Acquired at Auction Sale 1924 with others.","Ireland?","Ireland","53.41291","-8.243889999999965","","None","None","None","218","blade 52.5","","184.27","","","","","","","Blade probably, fluted and flanges of blade hollowed.","","","Joellen mcGann","https://www.flickr.com/photos/115096994@N02/16978480188","https://farm8.staticflickr.com/7637/16978480188_0ff17ed8cb_m.jpg","superuser",-8.2439,53.4129,"irishB15"
"37897","433","Spearhead","S","British Museum 63.1-22.82","Ireland (probably)","Ireland","53.41291","-8.243889999999965","","None","None","None","97","blade 30; socket 23","","77.96","Dark brown. Showing bronze on face.","Smooth","blade 14; socket 24","","","","2 rivet holes. 2 grooves round socket. Cracks from socket rim to rivet holes and beyond on left.","","","Joellen mcGann","https://www.flickr.com/photos/115096994@N02/17140320026","https://farm9.staticflickr.com/8686/17140320026_ffa767b8d4_m.jpg","superuser",-8.2439,53.4129,"irishB15"
"37898","433","Spear Head","T","Alnwick Castle, No. 414","Ireland","Ireland","53.41291","-8.243889999999965","","None","None","None","70","Dia. socket 21","","22.4","Bronze","Smooth","","","","","","","","Joellen mcGann","https://www.flickr.com/photos/115096994@N02/16958847677","https://farm8.staticflickr.com/7714/16958847677_503d89b4bb_m.jpg","superuser",-8.2439,53.4129,"irishB15"
"37899","433","Spear Head","T","Alnwick Castle No. 415","Ireland","Ireland","53.41291","-8.243889999999965","","None","None","None","119","29","","59.4","Greenish brown","Rough","12","","","","Socket broken off just above rivet hole.","","","Joellen mcGann","https://www.flickr.com/photos/115096994@N02/17140319906","https://farm8.staticflickr.com/7714/17140319906_82a86f81be_m.jpg","superuser",-8.2439,53.4129,"irishB15"
"37900","433","Spear Head","T","","Ireland","Ireland","53.41291","-8.243889999999965","","None","None","None","184","34","","102","Vivid green patina","Smooth","14","","","","Socket end broken off below rivet hole.","Alnwick Castle, No. 416","","Joellen mcGann","https://www.flickr.com/photos/115096994@N02/17165641881","https://farm8.staticflickr.com/7709/17165641881_273bcfd280_m.jpg","superuser",-8.2439,53.4129,"irishB15"
"37901","580","Spear Head","T","Alnwick Castle No. 417.","Ireland","Irlande","53.41291","-8.243889999999965","","None","None","None","174","86; Dia. of socket 25","","84.8","green.","Rough","18","","","","Blade slightly cracked.","","","Denis Antoine","https://www.flickr.com/photos/115096994@N02/16980085389","https://farm8.staticflickr.com/7682/16980085389_37f6d41270_m.jpg","superuser",-8.2439,53.4129,"irishB15"
"37902","580","Spear Head","T","Alnwick Castle No. 418.","Ireland","Irlande","53.41291","-8.243889999999965","","None","None","None","198","38; Dia. of socket 22","","137.8","brown patina, green where corroded.","Smooth, blade corroded","20","","","","","","","Denis Antoine","https://www.flickr.com/photos/115096994@N02/16543829214","https://farm9.staticflickr.com/8725/16543829214_00a0d6c2fc_m.jpg","superuser",-8.2439,53.4129,"irishB15"
"37903","580","Spearhead","T","British Museum 63 1 22 83,Mus. Pract. Geol.","Ireland","Irlande","53.41291","-8.243889999999965","","None","None","None","118","blade 26; socket 22","","50.11","dull brown, golden bronze showing. Blacker on reverse. Some green.","rather spongy on face of socket.","blade 12; socket 22","","","","2 rivet holes. Socket rim slightly worn.","","","Denis Antoine","https://www.flickr.com/photos/115096994@N02/17140319626","https://farm8.staticflickr.com/7674/17140319626_2596cfc6a3_m.jpg","superuser",-8.2439,53.4129,"irishB15"
"37904","580","Spearhead","T","2076,Canterbury Museum,Copeland Collection.","Ireland","Irlande","53.41291","-8.243889999999965","","None","None","None","90","socket 23; blade 32.5","","47","no patina","smooth. golden bronze colour all over. Tiny pittings nearly all over the surfaces.","blade 12.5","","","","Socket is crushed & broken","","","Denis Antoine","https://www.flickr.com/photos/115096994@N02/17166236305","https://farm9.staticflickr.com/8707/17166236305_103025668c_m.jpg","superuser",-8.2439,53.4129,"irishB15"
"37905","580","Spearhead","T","Chichester Institute,sold to the Museum of Newport, Mon. 1923.","Ireland","Irlande","53.41291","-8.243889999999965","","None","None","None","164.5","blade 30; socket 30","","71","no patina","smooth (tiny pits) dark golden bronze colour.","Blade 12.5","","Bronze","","Both sides of blade are marked crosswise as if with a coarse file. These marks extend almost from point to socket. The piece of socket (between the 2 holes) is thinner than a P.C.","","","Denis Antoine","https://www.flickr.com/photos/115096994@N02/17165641411","https://farm8.staticflickr.com/7683/17165641411_0167a05559_m.jpg","superuser",-8.2439,53.4129,"irishB15"
"37906","433","Spearhead","T","Glastonbury Museum, D,Lent by E. B. Sly Esq.,Braxton (Brackstone?) Collection 688, from Mograire Collection.","Ireland","Ireland","53.41291","-8.243889999999965","","None","None","None","228","57.5 blade","","209.07","","Bronze. Black stained.","23 blade","","","","Socket broken.","","","Joellen mcGann","https://www.flickr.com/photos/115096994@N02/16546081533","https://farm9.staticflickr.com/8761/16546081533_2d9174b00c_m.jpg","superuser",-8.2439,53.4129,"irishB15"
"37907","433","Spear Head","T","Museum, Leeds Phil. & Lit. Society","Ireland","Ireland","53.41291","-8.243889999999965","","None","None","None","83","24","","62","","","","","","","Socket, which is cylindrical and large in proportion to the blade, continued up to the print of the blade, wings thick and narrow, socket broken.","","","Joellen mcGann","https://www.flickr.com/photos/115096994@N02/16546081363","https://farm8.staticflickr.com/7615/16546081363_5ce632e7a0_m.jpg","superuser",-8.2439,53.4129,"irishB15"
"37908","433","Spear Head","T","Museum, Leeds Phil. & Lit. Society","Ireland","Ireland","53.41291","-8.243889999999965","","None","None","None","113","38 blade; 26 1/2 socket","","56","","","","","","","Cylindrical socket continued as a tapering midrib to extreme point, rivet hole across socket.","","","Joellen mcGann","https://www.flickr.com/photos/115096994@N02/16980084709","https://farm9.staticflickr.com/8746/16980084709_3886d3bc1b_m.jpg","superuser",-8.2439,53.4129,"irishB15"
"37909","433","Spearhead","T","Liverpool Museum, 7400M","Ireland?,Locality unknown","Ireland","53.41291","-8.243889999999965","","None","None","None","203","blade 46","","163.01","Dark olive green and black.","","22","","","","Edge of blade slightly chipped. Socket damaged.","","","Joellen mcGann","https://www.flickr.com/photos/115096994@N02/16978708210","https://farm8.staticflickr.com/7715/16978708210_10a65ce97c_m.jpg","superuser",-8.2439,53.4129,"irishB15"
"37910","433","Spearhead","T","Manchester Museum, O.728,Bought of Tregaskis","Ireland","Ireland","53.41291","-8.243889999999965","","None","None","None","119","blade 25.5; socket 21","","50","Traces of patina of medium green, but almost all dark golden bronze.","Smooth.","Blade 12, 4; socket 22","","","","2 Rivet holes, socket is rather cracked and the end of the blade rather bent.","","","Joellen mcGann","https://www.flickr.com/photos/115096994@N02/17164622292","https://farm8.staticflickr.com/7649/17164622292_cd17977f51_m.jpg","superuser",-8.2439,53.4129,"irishB15"
"37911","433","Spearhead","T","Salisbury, S. Wilts. and Blackmore Museum,198 Brackstone Collection,B198 on side.","Ireland","Ireland","53.41291","-8.243889999999965","","None","None","None","98","blade 23; socket 19","","48.1","The colour of polished rusted iron.","","socket 19","","","","Rivet hole runs through part of haft in socket.","","","Joellen mcGann","https://www.flickr.com/photos/115096994@N02/16546081093","https://farm9.staticflickr.com/8727/16546081093_788ffc23c9_m.jpg","superuser",-8.2439,53.4129,"irishB15"
"37912","433","Spearhead","T","Salisbury, S. Wilts., and Blackmore Museum,247 Brackstone Collection,B347 on side.","Ireland","Ireland","53.41291","-8.243889999999965","","None","None","None","107","blade 24; socket 22","","40.95","No patina, dull bronze very thin.","","socket 22","","","","Rivet holes 6mm diam.","","","Joellen mcGann","https://www.flickr.com/photos/115096994@N02/17166235875","https://farm9.staticflickr.com/8721/17166235875_7640c89e8b_m.jpg","superuser",-8.2439,53.4129,"irishB15"
"37913","433","Spearhead","T","Salisbury, S. Wilts, and Blackmore Museum,507 Brackstone Collection,B507 on side","Ireland","Ireland","53.41291","-8.243889999999965","","None","None","None","51","blade 16; socket 18","","21.45","No patina, dull bronze.","","socket 18","","","","2 Rivet holes.","","","Joellen mcGann","https://www.flickr.com/photos/115096994@N02/17166235545","https://farm9.staticflickr.com/8765/17166235545_71f49ff9d8_m.jpg","superuser",-8.2439,53.4129,"irishB15"
"37914","433","Spearhead","T","Salisbury, S. Wilts. and Blackmore Museum,684 Brackstone Collection,B684 on side.","Ireland","Ireland","53.41291","-8.243889999999965","","None","None","None","106","blade 29; socket 22","","56.55","","Dull bronze","socket 20","","","","","","","Joellen mcGann","https://www.flickr.com/photos/115096994@N02/16980084439","https://farm8.staticflickr.com/7689/16980084439_2ee030c642_m.jpg","superuser",-8.2439,53.4129,"irishB15"
"37915","433","Spearhead","T","Salisbury, S. Wilts, and Blackmore Museum","Ireland","Ireland","53.41291","-8.243889999999965","","None","None","None","132","blade 23; socket 22","","62.4","Dark green.","","blade 10","","","","The rivet holes are not in same plane as the blade. Raised bands round socket.","","","Joellen mcGann","https://www.flickr.com/photos/115096994@N02/16978707970","https://farm8.staticflickr.com/7642/16978707970_9a4afd9905_m.jpg","superuser",-8.2439,53.4129,"irishB15"
"37916","580","Spearhead","T","Private Collection,Professor Sir Lucas White-King, CSI, LLD, FSA,late of Roebuck Hall, Co Dublin.,Sold by Auction at Sotheby's. 9. 11. 21. Lot 141.,damaged label reads: ""presented by Mr. Peter Mooney .... (torn) of Drumgath, Co Antrim, 13th May 1847""","Ireland","Irlande","53.41291","-8.243889999999965","","None","None","None","133","blade 42; socket 28","","","non patina","smooth. golden brown colour.","blade 7; 18; 6.5,socket 29","","","","Fairly sharp edges","","","Denis Antoine","https://www.flickr.com/photos/115096994@N02/16978478488","https://farm9.staticflickr.com/8809/16978478488_204f36923c_m.jpg","superuser",-8.2439,53.4129,"irishB15"
"37917","580","Spear Head","T","","Ireland","Irlande","53.41291","-8.243889999999965","","None","None","None","78","17.5","","16","","","","","","","narrow wings, rivet hole across socket; socket much damaged.","","","Denis Antoine","https://www.flickr.com/photos/115096994@N02/16978478478","https://farm9.staticflickr.com/8770/16978478478_f86229a1e3_m.jpg","superuser",-8.2439,53.4129,"irishB15"
"37918","580","Spear-head","T","Ashmolean Museum, Oxford.,1886 N 5774.,Antrim Collection,Given to the University by Lord Antrim.","Ireland (north of)","Irlande du Nord, Royaume-Uni","54.7877149","-6.49231450000002","","None","None","None","95","24","","27.62","","yellow bronze, stained black.","14","","","","A miscasting; a large gap is broken into the face of the socket on one side for half its length.","","","Denis Antoine","https://www.flickr.com/photos/115096994@N02/17165640141","https://farm8.staticflickr.com/7619/17165640141_21e0922921_m.jpg","superuser",-6.4923,54.7877,"irishB15"
"37919","580","Spear-head","T","Ashmolean Museum, Oxford.,1886 N 5773.,Antrim Collection,Given to the University by Lord Antrim.","Ireland (north of)","Irlande du Nord, Royaume-Uni","54.7877149","-6.49231450000002","","None","None","None","89","26","","36.61","Dirty brown patina.","","22","","","","Large rivet hole each side, slightly out of the median line.","","","Denis Antoine","https://www.flickr.com/photos/115096994@N02/17166234825","https://farm8.staticflickr.com/7628/17166234825_101e890f71_m.jpg","superuser",-6.4923,54.7877,"irishB15"
"37920","580","Spear-head","T","Ashmolean Museum, Oxford.,1886 N 5772.,Antrim Collection,Given to the University by Lord Antrim.","Ireland (north of)","Irlande du Nord, Royaume-Uni","54.7877149","-6.49231450000002","","None","None","None","104","34","","63.43","Dirty green patina.","","22","","","","Large rivet holes on both sides.","","","Denis Antoine","https://www.flickr.com/photos/115096994@N02/16546080263","https://farm8.staticflickr.com/7677/16546080263_514a9e1989_m.jpg","superuser",-6.4923,54.7877,"irishB15"
"37921","580","Spear-head","T","Ashmolean Museum, Oxford.,1886 N 5768.,Antrim Collection,Given to the University by Lord Antrim.","Ireland (north of)","Irlande du Nord, Royaume-Uni","54.7877149","-6.49231450000002","","None","None","None","159","41","","102.26","dirty","rather foul","22","","","","Rim of socket miscast; large hole on one side, ? intentional or miscast; not drilled.","","","Denis Antoine","https://www.flickr.com/photos/115096994@N02/16978707060","https://farm8.staticflickr.com/7630/16978707060_fbe05dd27e_m.jpg","superuser",-6.4923,54.7877,"irishB15"
"37922","580","Spearhead","T","British Museum","Ireland","Irlande","53.41291","-8.243889999999965","","None","None","None","287","blade 51; socket 24","","324.18","dark brown with green patches.","rough on lower portion.","blade 19; socket 24","","","","Edges chipped. 2 rivet holes.","","","Denis Antoine","https://www.flickr.com/photos/115096994@N02/16958845667","https://farm8.staticflickr.com/7657/16958845667_8ed5bb3ec4_m.jpg","superuser",-8.2439,53.4129,"irishB15"
"37923","580","Spear head","T","Museum, Leeds Phil. & Lit. Society.","Ireland","Irlande","53.41291","-8.243889999999965","","None","None","None","312","36","","205","","","","","","","Cylindrical socket continued as a long tapering midrib up to the point, thin raised line running parallel to cutting edge & marking commencement of chamfer. Rivet hole across socket.","","","Denis Antoine","https://www.flickr.com/photos/115096994@N02/16978477538","https://farm9.staticflickr.com/8750/16978477538_c5918325d1_m.jpg","superuser",-8.2439,53.4129,"irishB15"
"37924","580","Spearhead","T","Salisbury, S. Wilts and Blackmore Museum.,687 Brackstone Collection,B 687 on side.","Ireland","Irlande","53.41291","-8.243889999999965","","None","None","None","242","blade 40; socket 23","","133.9","dark green","","","","","","Socket slightly quadrangular, & base is broken. Remains of rivet holes.","","","Denis Antoine","https://www.flickr.com/photos/115096994@N02/16978706880","https://farm9.staticflickr.com/8776/16978706880_ffc89f4a77_m.jpg","superuser",-8.2439,53.4129,"irishB15"
"37925","580","Spearhead","T","Museum of Archaeology & Ethnology, Cambridge,Read Gift,1290.","Ireland,Co Kerry,Killarney","Killarney, Co. Kerry, Irlande","52.05993530000001","-9.504426500000022","","None","None","None","177","blade 57; socket 29.5","","184.27","dull greeny brown","rough","blade 18; socket 30","","","","","","","Denis Antoine","https://www.flickr.com/photos/115096994@N02/16978477358","https://farm8.staticflickr.com/7637/16978477358_e9a5458c76_m.jpg","superuser",-9.5044,52.0599,"irishB15"
"37926","580","Ferrule","III A","Museum of Archaeology & Ethnology, Cambridge,No. 246 Murray Collection","Ireland,Co Kildare,Grange,1862.","Grange, Co. Kildare, Irlande","53.37755","-7.069129999999973","","None","None","1862","68","socket 15; point 7","","25","very dark brown. metal showing through all over.","granular.","","","","One of a find of 50 associated objects, consisting of: 43 rings, 1 spearhead, 1 ferrule (for spearhead), 4 armlets or bangles & 1 Penannular bracelet.","Ferrule for the spearhead, taper, chisel like, four sided with round socket mouth. The taper end has been recently filed.","","","Denis Antoine","https://www.flickr.com/photos/115096994@N02/16543826954","https://farm8.staticflickr.com/7654/16543826954_aeb4476a15_m.jpg","superuser",-7.0691,53.3775,"irishB15"
"37927","580","Spearhead","III E","Museum of Archaeology & Ethnology, Cambridge,No. 156 Murray Collection","Ireland,Co Kildare,Lullymore Bog,[...]?","Lullymore, Co. Kildare, Irlande","53.27805","-6.942760000000021","","None","None","None","168","blade 38; socket 22","","135","dark brown & drab.","moderately smooth","blade 16","","","","Spearhead with beaded ridge along conical socket; bevelled along cutting edge; on the blades a chevron shaped groove springs from the midrib & widens towards the shoulders. Two loops, wide, lozenge shaped.","","","Denis Antoine","https://www.flickr.com/photos/115096994@N02/16978477268","https://farm8.staticflickr.com/7625/16978477268_1920e9eb11_m.jpg","superuser",-6.9428,53.2781,"irishB15"
"37928","433","Spearhead","E","Salisbury, S. Wilts and Blackmore Museum,162 Brackstone Collection,B162 on side","Ireland,Kildare,Kildare (near)","Kildare, Ireland","53.1589342","-6.909568300000046","","None","None","None","182","blade 40; socket 22","","104","Pale brown","","blade 14; socket 22","","","","","","","Joellen mcGann","https://www.flickr.com/photos/115096994@N02/17164620652","https://farm8.staticflickr.com/7613/17164620652_f158a4989a_m.jpg","superuser",-6.9096,53.1589,"irishB15"
"37929","433","Spearhead","H","Museum of Archaeology and Ethnology, Cambridge,No. 165 Murray Collection","Ireland,Co. Kildare,on River Boyne, Rahen,Kennedy's Wood","River Boyne, Co. Kildare, Ireland","53.3714214","-6.952155400000038","","None","None","None","98","blade 24; socket 18.5","","42","Brown, lighter colour about the loops.","Smooth","blade 10","","","","Beaded ridge along conical socket, wings broad and flat, coalesce below the shoulders with the flat, pointed oval loops. Socket mouth somewhat expanding. Cutting edge injured.","","","Joellen mcGann","https://www.flickr.com/photos/115096994@N02/17140317046","https://farm9.staticflickr.com/8712/17140317046_3380070e5e_m.jpg","superuser",-6.9522,53.3714,"irishB15"
"37930","433","Spearhead","J","Museum of Archaeology and Ethnology, Cambridge,No. 167 Murray Collection","Ireland,Co. Kildare,Carbury Castle","Carbury Castle and Motte, Co. Kildare, Ireland","53.361597","-6.968937299999993","","None","None","None","134","blade 75","","213","Dark and light brown patina looks more like iron.","Fairly smooth.","blade 19","","","","Spearhead with perforated wings and a ridge on the outside of each perforation. Base and point broken off. Socket is round.","","","Joellen mcGann","https://www.flickr.com/photos/115096994@N02/17140316996","https://farm9.staticflickr.com/8696/17140316996_2d5c1f938d_m.jpg","superuser",-6.9689,53.3616,"irishB15"
"37931","433","Spearhead","S","Museum of Archaeology and Ethnology, Cambridge,No. 147 Murray Collection","Ireland,Co. Kildare,Kishavenny - on River Boyne","River Boyne, Co. Kildare, Ireland","53.3714214","-6.952155400000038","","None","None","None","101","blade 25; socket 20","","62","Brown and dust colour.","Moderately smooth","blade 12; socket 21","","","","Octagonal socket and a slight rim round this. The month is round. Two rivet holes near the rim.","","","Joellen mcGann","https://www.flickr.com/photos/115096994@N02/16980082989","https://farm8.staticflickr.com/7606/16980082989_eb8f57be42_m.jpg","superuser",-6.9522,53.3714,"irishB15"
"37932","433","Spearhead","T","Museum of Archaeology and Ethnology, Cambridge,No. 143 Murray Collection","Ireland,Co. Kildare,Rahen,Kennedy's Wood on River Boyne","Raheen, Co. Kildare, Ireland","53.3427887","-6.666391200000021","","None","None","None","119","blade 24; socket 23","","78","No patina.","Smooth and shiny. Bright metal all over.","blade 11","","","","Conical socket. Base with double moulding. Two rivet holes under moulding.","","","Joellen mcGann","https://www.flickr.com/photos/115096994@N02/17164620852","https://farm8.staticflickr.com/7620/17164620852_cfdfba40c9_m.jpg","superuser",-6.6664,53.3428,"irishB15"
"37933","433","Spearhead","T","Salisbury, S. Wilts and Blackmore Museum,289 Brackstone Collection,B289 on side","Ireland,Kildare,Kildare (near)","Kildare, Ireland","53.1589342","-6.909568300000046","","None","None","None","157","blade 43; socket 18","","79.3","Dull brown","","","","","","End of socket decorated with incised rings. Rivet holes (rivet hole 3 dia.)","","","Joellen mcGann","https://www.flickr.com/photos/115096994@N02/17164620522","https://farm9.staticflickr.com/8713/17164620522_989e80a520_m.jpg","superuser",-6.9096,53.1589,"irishB15"
"37934","433","Spearhead","T","Museum of Archaeology and Ethnology, Cambridge,No. 246 Murray Collection","Ireland,Co. Kildare,Grange,1862","Grange, Co. Kildare, Ireland","53.37755","-7.069129999999973","","None","None","1862","315","blade 26.5; socket 27.5","","253","Very dark brown - metal shows through all over.","Granular, broken and cracked in places. Chiefly along the line where the socket joins the wings.","blade 17.5","","","One of a find of 50 associated objects, consisting of: 43 Rings, 1 spearhead, 1 ferrule (for spearhead), 4 armlets or bangles, and 1 penannular bracelet.","Leaf shaped spearhead, narrow shoulderless wings, and a long wide socket which forms the very large keeled midrib. 2 Rivet holes and hollow wings. Socket is broken off.","","","Joellen mcGann","https://www.flickr.com/photos/115096994@N02/17166233845","https://farm8.staticflickr.com/7717/17166233845_eb9bfdbcfa_m.jpg","superuser",-7.0691,53.3775,"irishB15"
"37935","433","Spearhead","T","British Museum, 63.1-22.85","Ireland,Kilkenny or Longford,Columbkille","Columbkille, Co. Kilkenny, Ireland","52.5276977","-7.1126257999999325","","None","None","None","126","blade 24; socket 21","","58.2","Small patches of pale green on dull bronze.","","blade 12; socket 23","","","","2 Rivet holes. Socket damaged.","","","Joellen mcGann","https://www.flickr.com/photos/115096994@N02/16543826554","https://farm9.staticflickr.com/8725/16543826554_da9c05b102_m.jpg","superuser",-7.1126,52.5277,"irishB15"
"37936","433","Spear Head","T","Sunderland Museum","Ireland,Kerry,Killarny,near the Devil's Mountain","Killarney, Co. Kerry, Ireland","52.05993530000001","-9.504426500000022","","None","None","None","229","39; socket 28 by 26","","140.8","Bronze patina","Smooth","","","","","","","","Joellen mcGann","https://www.flickr.com/photos/115096994@N02/16980082799","https://farm8.staticflickr.com/7620/16980082799_4ce22508ff_m.jpg","superuser",-9.5044,52.0599,"irishB15"
"37937","433","Spearhead","D","Museum of Archaeology and Ethnology, Cambridge,No. 150 Murray Collection","Ireland,King's Co.,Croghan Hill","Croghan Hill, Co. Offaly, Ireland","53.3469444","-7.27611109999998","","None","None","None","140","blade 34.5; socket 26","","135","Several shades of green in patches and flakes all over.","Rather rough.","blade 11","","","","Very large socket with flattened neck, from which springs a short triangular blade: central ridge flat, rounded, divided from wings by a wide sharp groove: loops near base, stout, depressed.","","","Joellen mcGann","https://www.flickr.com/photos/115096994@N02/16978476888","https://farm8.staticflickr.com/7634/16978476888_845b561845_m.jpg","superuser",-7.2761,53.3469,"irishB15"
"37938","433","Spearhead","E","British Museum, 54.7-14.223","Ireland,King's Co.,Dowris","Offaly, Co. Offaly, Ireland","53.2356871","-7.712222900000029","","None","None","None","124","blade 31.5; socket 20","","91.05","Rusty brown with black stains, showing a little metal.","Rather rough","blade 14; socket 20","","","","","","","Joellen mcGann","https://www.flickr.com/photos/115096994@N02/16543826274","https://farm8.staticflickr.com/7597/16543826274_eae40e7d60_m.jpg","superuser",-7.7122,53.2357,"irishB15"
"37939","433","Spearhead","E","Museum of Archaeology and Ethnology, Cambridge,No. 154 Murray Collection","Ireland,King's Co.,Edenderry","Edenderry, Co. Offaly, Ireland","53.34328430000001","-7.0505832000000055","","None","None","None","130","blade 36.5; socket 20","","100","Patina or 'flakes' of dark brown to purple. The patches where the flakes come off are dull metal colour.","Smooth, dull and 'flaky'.","socket 19; blade 14","","","","High sharp midrib. Broad bevels. 2 wide loops, lozenge shaped. Some of the wood shaft, still remains in the socket.","","","Joellen mcGann","https://www.flickr.com/photos/115096994@N02/17140316406","https://farm8.staticflickr.com/7663/17140316406_fdc8f04812_m.jpg","superuser",-7.0506,53.3433,"irishB15"
"37940","433","Spearhead","III E","Museum of Archaeology and Ethnology, Cambridge,No. 155, Murray Collection","Ireland,King's Co.,Edenderry","Edenderry, Co. Offaly, Ireland","53.34328430000001","-7.0505832000000055","","None","None","None","115.5","blade 41.5; socket 24","","78","Dark brown patina.","Moderately smooth.","blade 11","","","","Socket is diamond shaped and ridged along the midrib. Round at mouth: bevelled along cutting edge: on the blades a chevron shaped ridge spring's from the midrib and widens towards the shoulders. Two loops, wide lozenge shaped. Base broken.","","","Joellen mcGann","https://www.flickr.com/photos/115096994@N02/16978476758","https://farm9.staticflickr.com/8705/16978476758_503ca63335_m.jpg","superuser",-7.0506,53.3433,"irishB15"
"37941","433","Spearhead","E","Museum of Archaeology + Ethnology, Cambridge,No. 158 Murray Collection","Ireland,Kings Co.,Edenderry","Edenderry, Co. Offaly, Ireland","53.34328430000001","-7.0505832000000055","","None","None","None","109","blade 27; socket 18","","44","","Granular - metal showing all over.","blade 11","","","","Diamond shaped socket. Sharp ridge along midrib. Wings united to loops by a ridge. Lozenge shaped loops - worn very thin.","","","Joellen mcGann","https://www.flickr.com/photos/115096994@N02/16978476588","https://farm8.staticflickr.com/7685/16978476588_3e50f307f4_m.jpg","superuser",-7.0506,53.3433,"irishB15"
"37942","433","Spearhead","E","Museum of Archaeology and Ethnology, Cambridge,No. 162 Murray Collection","Ireland,Kings Co.,Edenderry","Edenderry, Co. Offaly, Ireland","53.34328430000001","-7.0505832000000055","","None","None","None","81","blade 22.5; socket 18.5","","54","Very patchy dark brown and green.","Uneven","blade 12.5","","","","Conical socket. Bevelled round cutting edge and a groove between bevel and midrib. Two loops lozenge shaped. Found with its wooden shaft, on which are signs of fire and it has also been broken.","","","Joellen mcGann","https://www.flickr.com/photos/115096994@N02/16543826114","https://farm8.staticflickr.com/7642/16543826114_6be65078a5_m.jpg","superuser",-7.0506,53.3433,"irishB15"
"37943","433","Spearhead","","Museum of Archaeology and Ethnology, Cambridge,No. 245 Murray Collection","Ireland,King's Co.,near Edenderry,Drumcooley Hill,1854","Drumcooly, Co. Offaly, Ireland","53.32099909999999","-7.069776100000013","","None","None","1854","48","blade 15; socket 15.5","","12","Brown and green with metal showing.","Corroded in pits.","blade 12","","","One of a hoard of 15 objects and a piece of sandstone. Possibly belonging to a mould. 2 spearheads, 1 socketed celt, 6 rings, 2 pins with rings and 4 beads (1 large of clay, 1 of glass - yellow and purple twist, 2 of amber - a larger and a smaller, irregularly shaped).","Wide conical socket and very narrow wings. Two rivet holes immediately below shoulders - one broken into.","","","Joellen mcGann","https://www.flickr.com/photos/115096994@N02/16543826134","https://farm8.staticflickr.com/7687/16543826134_c26a460e10_m.jpg","superuser",-7.0698,53.321,"irishB15"
"37944","433","Spearhead","E","Salisbury, S. Wilts and Blackmore Museum,312 Brackstone Collection,B212 on side","Ireland,King's County,Edenderry","Edenderry, Co. Offaly, Ireland","53.34328430000001","-7.0505832000000055","","None","None","None","162","blade 44; socket 21","","83.85","brown with bronze showing.","","socket 20","","","","3 rings round socket","","","Joellen mcGann","https://www.flickr.com/photos/115096994@N02/17164620022","https://farm9.staticflickr.com/8770/17164620022_327fd4fac4_m.jpg","superuser",-7.0506,53.3433,"irishB15"
"37945","433","Spearhead","F","Museum of Archaeology and Ethnology, Cambridge,No. 151 Murray Collection","Ireland,King's Co.,Derries near Edenderry","Derries, Co. Offaly, Ireland","53.3120306","-7.018089700000019","","None","None","None","104","blade 25; socket 19","","63","Many shades of green patina.","Fairly smooth.","18.5","","","","Conical socket, bevelled round the cutting edge, also chipped. Two loops - one damaged.","","","Joellen mcGann","https://www.flickr.com/photos/115096994@N02/16546078933","https://farm9.staticflickr.com/8705/16546078933_55cc59739c_m.jpg","superuser",-7.0181,53.312,"irishB15"
"37946","433","Spearhead","F","Museum of Archaeology and Ethnology, Cambridge,No. 152 Murray Collection","Ireland,Kings Co.,Edenderry","Edenderry, Co. Offaly, Ireland","53.34328430000001","-7.0505832000000055","","None","None","None","101.5","blade 23","","68","Light grey to dark brown patina and some specks of bright green.","Uneven and corroded.","blade 13.5","","","","Spearhead with rounded socket. Cast askew. 2 loops damaged. Base uneven.","","","Joellen mcGann","https://www.flickr.com/photos/115096994@N02/16978705290","https://farm9.staticflickr.com/8746/16978705290_c5b220f6f8_m.jpg","superuser",-7.0506,53.3433,"irishB15"
"37947","433","Spearhead","F","British Museum, 83.2-18.36","Ireland,King's Co.,Tullamore (near)","Tullamore, Co. Offaly, Ireland","53.27552550000001","-7.493385200000034","","None","None","None","135","blade 25; socket 19","","48.52","Greenish brown.","Fairly smooth.","blade 11; socket 18","","","","Edges very slightly worn. Loops broken and socket rim.","","","Joellen mcGann","https://www.flickr.com/photos/115096994@N02/16958843937","https://farm8.staticflickr.com/7602/16958843937_c90c953ee0_m.jpg","superuser",-7.4934,53.2755,"irishB15"
"37948","433","Spearhead (Point only)","Fragment","Museum of Archaeology and Ethnology, Cambridge,No. 245, Murray Collection","Ireland,Kings Co.,near Edenderry,Drumcooley Hill,1854","Drumcooly, Co. Offaly, Ireland","53.32099909999999","-7.069776100000013","","None","None","1854","76","39.5","","37","Dull brown on smooth side - green and dark brown on the other.","Smooth on one face and corroded and broken on the other.","8","","","One of a hoard of 15 objects and a piece of sandstone, possibly belonging to a mould, 2 spearheads, 1 socketed celt, 6 rings, 2 pins with rings and 4 beads (1 large of clay, 1 of glass - yellow and purple twist, 2 of amber - a larger and a smaller - irregularly shaped).","Tip of large broad spearhead with flat diamond shaped socket. Bevelled round cutting edge.","","","Joellen mcGann","https://www.flickr.com/photos/115096994@N02/16546078573","https://farm8.staticflickr.com/7624/16546078573_0f43d1baed_m.jpg","superuser",-7.0698,53.321,"irishB15"
"37949","433","Spearhead","Fragment","Museum of Archaeology + Ethnology, Cambridge","Ireland,Kings Co.,Kilcumber","Kilcumber, Co. Offaly, Ireland","53.2924824","-7.07708439999999","","None","None","None","89.5","blade 33.5","","35","Dark brown - some small patches of greenish brown.","Smooth.","blade 13.5","","","","Conical socket, broken. Bevelled edges.","","","Joellen mcGann","https://www.flickr.com/photos/115096994@N02/16958843617","https://farm9.staticflickr.com/8825/16958843617_230bf1aac3_m.jpg","superuser",-7.0771,53.2925,"irishB15"
"37950","433","Spearhead","G","Salisbury, S. Wilts and Blackmore Museum,313 Brackstone Collection,B313 on side","Ireland,Kings County,Edenderry","Edenderry, Co. Offaly, Ireland","53.34328430000001","-7.0505832000000055","","None","None","None","218","blade 46; socket 24","","188.5","brown","","","","","","","","","Joellen mcGann","https://www.flickr.com/photos/115096994@N02/17164619532","https://farm9.staticflickr.com/8821/17164619532_855f790a6f_m.jpg","superuser",-7.0506,53.3433,"irishB15"
"37951","433","Spearhead","III G","Museum of Archaeology and Ethnology, Cambridge,No. 166 Murray Collection","Ireland,Kings Co.,Edenderry","Edenderry, Co. Offaly, Ireland","53.34328430000001","-7.0505832000000055","","None","None","None","138","blade 35","","98","Green and light drab patina.","Is rough.","blade 17.5","","","","A bead runs down the diamond shaped socket. Base and point are missing. Bevel down cutting edge. The wings end in oval perforations. The bevel rising into flattened lozenges.","","","Joellen mcGann","https://www.flickr.com/photos/115096994@N02/16958843507","https://farm9.staticflickr.com/8804/16958843507_14ca934892_m.jpg","superuser",-7.0506,53.3433,"irishB15"
"37952","433","Spearhead","J","Museum of Archaeology and Ethnology, Cambridge,Mrs. W. K. Foster,A.1900.3 (Annual Records. Numbers do not always correspond.)","Ireland,Kings Co.,Shannon","Offaly, Co. Offaly, Ireland","53.2356871","-7.712222900000029","","None","None","None","99","blade 37.5; socket 25","","85","Very dark green. Some brown. Lighter green specks.","Pitted and corroded.","blade 17","","","","Diamond shaped socket and a high ridge along the midrib; round at the mouth. Openings in the blades and a steep bevel round them on the outer sides. Bevelled round cutting edge. Cast slightly askew.","","","Joellen mcGann","https://www.flickr.com/photos/115096994@N02/17164619382","https://farm9.staticflickr.com/8797/17164619382_7de385d05d_m.jpg","superuser",-7.7122,53.2357,"irishB15"
"37953","433","Spear Head","L","Royal Albert Memorial Museum, Exeter,Reg. No. 494/1902,Presented by W. S. M. D'Urban","Ireland,King's County,Near Banagher: Councillor's Ford on the River Shannon,1846","Kylebeg, Co. Offaly, Ireland","53.186464","-7.995350700000017","","None","None","1846","310","50","","274","","Slightly corroded one side.","21","","Bronze","","Bronze spear head. Crescent-shaped opening on each side of mid-rib.","","","Joellen mcGann","https://www.flickr.com/photos/115096994@N02/16546078213","https://farm8.staticflickr.com/7601/16546078213_8b695e9210_m.jpg","superuser",-7.9954,53.1865,"irishB15"
"37954","433","Spear Head","L","Exeter Museum (No. 494/1902),Presented by Mr. W. S. M. D'Urban","Ireland,Kings Co.,Banagher,Found at Counciller's Ford on the River Shannon,1846","Kylebeg, Co. Offaly, Ireland","53.186464","-7.995350700000017","","None","None","1846","308","blade 51","","274.95","","","20","","","","","","","Joellen mcGann","https://www.flickr.com/photos/115096994@N02/17166232565","https://farm8.staticflickr.com/7619/17166232565_8483124270_m.jpg","superuser",-7.9954,53.1865,"irishB15"
"37955","433","Spearhead","T","Museum of Archaeology and Ethnology, Cambridge,No. 144 Murray Collection","Ireland,Kings Co.,Edenderry","Edenderry, Co. Offaly, Ireland","53.34328430000001","-7.0505832000000055","","None","None","None","103.5","blade 25; socket 20.5","","34","Dull dusty green patina.","Finely pitted all over - looking rather like pin pricks.","blade 12","","","","Rounded midrib. Base slightly damaged. 2 large rivet holes.","","","Joellen mcGann","https://www.flickr.com/photos/115096994@N02/16980081439","https://farm9.staticflickr.com/8817/16980081439_1c206d7ea5_m.jpg","superuser",-7.0506,53.3433,"irishB15"
"37956","433","Spearhead","T","Museum of Archaeology and Ethnology, Cambridge,No. 145 Murray Collection","Ireland,King's Co.,Edenderry","Edenderry, Co. Offaly, Ireland","53.34328430000001","-7.0505832000000055","","None","None","None","114.5","blade 33; socket 23","","59","Dark brown, one patch of green.","Fairly smooth.","blade 16","","","","Conical socket. Two rivet holes. The point has been filed.","","","Joellen mcGann","https://www.flickr.com/photos/115096994@N02/17140315366","https://farm9.staticflickr.com/8687/17140315366_1cba87bd55_m.jpg","superuser",-7.0506,53.3433,"irishB15"
"37957","433","Spearhead","T","Museum of Archaeology and Ethnology, Cambridge,No. 146, Murray Collection","Ireland,King's Co.,Edenderry","Edenderry, Co. Offaly, Ireland","53.34328430000001","-7.0505832000000055","","None","None","None","108","blade 42; socket 28","","52","Shades of dark green patina and metal in patches.","Smooth and dull.","socket 21; blade 21","","","","Conical socket. 2 rivet holes. Slight ridge down midrib.","","","Joellen mcGann","https://www.flickr.com/photos/115096994@N02/16978475368","https://farm9.staticflickr.com/8713/16978475368_1405636238_m.jpg","superuser",-7.0506,53.3433,"irishB15"
"37958","433","Spearhead","T","Museum of Archaeology and Ethnology, Cambridge,No. 148, Murray Collection","Ireland,Kings Co.,Edenderry","Edenderry, Co. Offaly, Ireland","53.34328430000001","-7.0505832000000055","","None","None","None","60","blade 15.5; socket 17","","21","No patina.","Granular. Bright metal all over.","blade 12","","","","Conical socket. Two rivet holes both broken into. Two grooves below the rim. Point very much worn.","","","Joellen mcGann","https://www.flickr.com/photos/115096994@N02/17166232235","https://farm9.staticflickr.com/8758/17166232235_442d975613_m.jpg","superuser",-7.0506,53.3433,"irishB15"
"37959","433","Spearhead","T","Museum of Archaeology and Ethnology, Cambridge,No. 141, Murray Collection","Ireland,Kings Co.,Edenderry","Edenderry, Co. Offaly, Ireland","53.34328430000001","-7.0505832000000055","","None","None","None","298","blade 38.5; socket 24.5","","198","Shades of green patina and turquoise.","Very much corroded and 'flaky'.","blade 15","","","","Rounded midrib, bevelled round edges. Socket damaged. 2 Rivet holes.","","","Joellen mcGann","https://www.flickr.com/photos/115096994@N02/17140314966","https://farm9.staticflickr.com/8778/17140314966_a50aabec41_m.jpg","superuser",-7.0506,53.3433,"irishB15"
"37960","433","Spearhead","E","Sotheby's Sale 19.11.24, 639,Collection of W. J. Knowles MRIA of Flixton Place, Ballymena","Ireland,Leitrim,Denagh Bog","Leitrim, Ireland","53.9926007","-8.065585199999987","","None","None","None","160","blade 47; socket 22","","","A few spots of black, in patches.","Smooth golden bronze.","blade 13, 3.75; socket 22","","","","Decorated with lines of dots. Sharp edges.","Illus. and described in Royal History + Arch. Assoc. Journal 1889, pl. III, fig. 3, p. 113.","","Joellen mcGann","https://www.flickr.com/photos/115096994@N02/17165637181","https://farm9.staticflickr.com/8805/17165637181_fa31288fe0_m.jpg","superuser",-8.0656,53.9926,"irishB15"
"37961","433","Spearhead","T","Private Collection,1923,L.L. Duncan, Esq.,8 Lingards Road,Lewisham, SE13","Ireland,Co. Leitrim,Killibbrid","Co. Leitrim, Ireland","54.13683520000001","-8.116176499999938","","None","None","None","280","blade 55; socket 32.5","","198.44","Polished patina dark green. A little chipped off at edge of blade.","Smooth","blade 15.5; socket 29.5","Killibbrid not located on map.","","","In splendid preservation. Wooden shaft (broken through rivet hole) measuring 137mm remains in socket. This is a hole in blade, which is also dented.","","","Joellen mcGann","https://www.flickr.com/photos/115096994@N02/16958842737","https://farm9.staticflickr.com/8746/16958842737_fb267e0c12_m.jpg","superuser",-8.1162,54.1368,"irishB15"
"37962","433","Spearhead","E","British Museum, 63.1-22.91,From Museum of Practical Geology","Ireland,Co. Limerick","Co. Limerick, Ireland","52.522122","-8.812378399999943","","None","None","None","116","blade 49; socket 17","","76.63","Blue green patch, where flaked off on left edge.","Dark brown, flaked and pitted.","blade 12; socket 17","","","","Socket rim slightly damaged. Two loops, not pierced.","","","Joellen mcGann","https://www.flickr.com/photos/115096994@N02/17140314676","https://farm9.staticflickr.com/8764/17140314676_fc2e3970d4_m.jpg","superuser",-8.8124,52.5221,"irishB15"
"37963","433","Spearhead","F","The Priory, Prittlewell (Southend on Sea),1/22","Ireland,Co. Limerick,May 1850","Co. Limerick, Ireland","52.522122","-8.812378399999943","","None","5","1850","128","blade 29; socket 20","","97.44","Traces of patina black.","Cleaned. Slightly pocked. Mostly dark golden bronze.","blade 15; socket 20.5","","","","Small hole at A. The hole in other side is filled. These are probably modern. Point is practically round in section and niched. It appears to have been filed. Socket end a good deal broken.","","Label: Co. Limerick, May 1850, Braxton Collection 159","Joellen mcGann","https://www.flickr.com/photos/115096994@N02/17140314576","https://farm9.staticflickr.com/8687/17140314576_77ff010076_m.jpg","superuser",-8.8124,52.5221,"irishB15"
"37964","433","Spearhead","G","Salisbury, S. Wilts, and Blackmore Museum,209 Brackstone Collection,B209 on side.","Ireland,Limerick,Askeaton","Askeaton, Co. Limerick, Ireland","52.5954517","-8.970027500000015","","None","None","None","162","blade 33; socket 21","","","Nearly black.","","95.55","","","","Edge damaged on one side. This specimen has had a bad repair by loop, by recasting on more metal.","","","Joellen mcGann","https://www.flickr.com/photos/115096994@N02/17164618402","https://farm9.staticflickr.com/8717/17164618402_b19dd7ea5b_m.jpg","superuser",-8.97,52.5955,"irishB15"
"37965","580","Spearhead","T","Herts Cty. Mus., St. Albans,Ball Collection","Ireland,Limerick,Lough Gur","Lough Gur, Co. Limerick, Irlande","52.5163151","-8.533876299999974","","None","None","None","96.5","blade 30; socket 26","","70.88","blackish matt.","smooth","blade 8.5; socket 26","","","","","","","Denis Antoine","https://www.flickr.com/photos/115096994@N02/16543824504","https://farm8.staticflickr.com/7645/16543824504_8a6032ba6a_m.jpg","superuser",-8.5339,52.5163,"irishB15"
"37966","580","Spearhead","T","Herts Cty. Mus., St. Albans,Ball Collection","Ireland,Co Limerick,Lough Gur","Lough Gur, Co. Limerick, Irlande","52.5163151","-8.533876299999974","","None","None","None","284","blade 58; socket 24","","269.33","no patina","rough, dark brown.","blade 15; socket 23.5","","","","","","","Denis Antoine","https://www.flickr.com/photos/115096994@N02/16978474518","https://farm8.staticflickr.com/7652/16978474518_a15cf2e826_m.jpg","superuser",-8.5339,52.5163,"irishB15"
"37967","580","Spearhead","T","British Museum 54 7 14 218","Ireland,Limerick,Rathkeale","Rathkeale, Co. Limerick, Irlande","52.52380669999999","-8.937096600000018","","None","None","None","288","blade 39.5; socket 25","","213.11","darkish green. mottled with brown.","somewhat corroded.","blade 17","","","","2 rivet holes. right one is broken. Socket rim is damaged badly. Part of old shaft remains.","","","Denis Antoine","https://www.flickr.com/photos/115096994@N02/17165636461","https://farm9.staticflickr.com/8770/17165636461_d80b31d077_m.jpg","superuser",-8.9371,52.5238,"irishB15"
"37968","580","Spearhead","H","Sotheby's Sale, 19. 11. 24. 643.,Collection of W.J. Knowles, MRIA, of Flixton Place, Ballymena.","Ireland,Londonderry,Toome (near)","Toome, Antrim, Antrim BT41, Royaume-Uni","54.754","-6.461310000000026","","None","None","None","304","blade 40; 47.5,socket 27.5","","","socket is mostly covered with black patina. Dark green on one side of blade but mostly remains. The face has been cleaned & is mostly golden bronze with traces of light green.","smooth.","blade 19; soclet 26","","","","The socket (at A) is very thin for about 10mm & cracked.","","","Denis Antoine","https://www.flickr.com/photos/115096994@N02/16543824024","https://farm8.staticflickr.com/7701/16543824024_423a8ef222_m.jpg","superuser",-6.4613,54.754,"irishB15"
"37969","580","Spearhead","H","Balndford,Pitt-Rivers Museum, Farnham.","Ireland,Londonderry - Antrim,R. Bann,at Toone Bridge","Derry, Londonderry, Derry, Royaume-Uni","54.9966124","-7.308574799999974","","None","None","None","526","blade 57,socket 20; 25","","510.3","","smooth. black.","socket 27","","","","Edges slightly indented","","","Denis Antoine","https://www.flickr.com/photos/115096994@N02/16546076673","https://farm9.staticflickr.com/8699/16546076673_9e15423237_m.jpg","superuser",-7.3086,54.9966,"irishB15"
"37970","580","Spearhead","T","Sotheby's Sale, 19. 11. 24. 645.,Collection of W.J. Knowles, MRIA, of Flixton Place, Ballymena.","Ireland,Londonderry,Claddy,End of Cummer (near)","Clady, Ballymena, Magherafelt BT44, Royaume-Uni","54.86968","-6.508000000000038","","None","None","None","227","blade 38.5; socket 25","","","mostly dark brown like chocolate. a good deal chipped off, showing pitted metal beneath.","smooth","blade 15; 5,socket 27","","","","End of blade continues down to the rivet holes, as a decorative moulding.","","","Denis Antoine","https://www.flickr.com/photos/115096994@N02/17166230805","https://farm8.staticflickr.com/7646/17166230805_12fd50cbf7_m.jpg","superuser",-6.508,54.8697,"irishB15"
"37971","580","Spearhead","H","British Museum,1637","Ireland,Longford,Killashee","Killashee, Co. Longford, Irlande","53.6812889","-7.879322799999954","","None","None","None","444","blade 54; socket 28","","390.31","some remains of patina sage green on dull bronze","mottled with black.","blade 18; socket 28","","","","Blade is bent. Part of the shaft remains in socket. Crack in central rib & some cracks & pits in socket.","","","Denis Antoine","https://www.flickr.com/photos/115096994@N02/16978703990","https://farm9.staticflickr.com/8696/16978703990_4ee2d55abd_m.jpg","superuser",-7.8793,53.6813,"irishB15"
"37972","433","Spearhead","T","Museum of Archaeology and Ethnology, Cambridge,Banks Collection,Foster Bequest, No. 284,Prehistoric Bronzes 163","Ireland,Co. Mayo,Ballina","Ballina, Co. Mayo, Ireland","54.1149482","-9.155069300000036","","None","None","None","182","blade 32; socket 24","","","Black patina with metal showing through.","Smooth","blade 15","","","","Conical socket. 2 Rivet holes in same plane as blade. Bevelled edge.","","","Joellen mcGann","https://www.flickr.com/photos/115096994@N02/17166230645","https://farm9.staticflickr.com/8712/17166230645_c2fbe1363c_m.jpg","superuser",-9.1551,54.1149,"irishB15"
"37973","433","Spearhead","T","Salisbury, S. Wilts and Blackmore Museum,501 Brackstone Collection,B501 on side","Ireland,Mayo,Ballinrobe","Ballinrobe, Co. Mayo, Ireland","53.6237338","-9.221114299999954","","None","None","None","154","blade 25; socket 22","","81.9","Dark brown.","","","","","","Two raised bands near end of socket. 2 Rivet holes.","","","Joellen mcGann","https://www.flickr.com/photos/115096994@N02/16546076323","https://farm8.staticflickr.com/7724/16546076323_8cde163fa9_m.jpg","superuser",-9.2211,53.6237,"irishB15"
"37974","580","Spearhead","III E","Museum of Archaeology & Ethnology, Cambridge,No. 153 Murray Collection.","Ireland,Co Meath,Clonard, River Boyne","Clonard, Co. Meath, Irlande","53.4515329","-7.023107299999992","","None","None","None","128.5","blade 31; socket 23.5","","117","Black.","smooth","blad e15","","","","Diamond shaped socket & ridged along the midrib. Round at mouth. Mouth rim flanged. Bevelled round cutting edge; & on the blades a chevron shaped ridge springs from the midrib & widens towards the shoulders. 2 loops, wide, lozenge shaped.","","","Denis Antoine","https://www.flickr.com/photos/115096994@N02/16546076213","https://farm8.staticflickr.com/7676/16546076213_9f54985902_m.jpg","superuser",-7.0231,53.4515,"irishB15"
"37975","580","Spearhead","T","B.M. 73. 6-2. 24","? Co Meath","","53.4515329","-7.023107299999992","","None","None","None","","","","","","","","","","","","","","Denis Antoine","https://www.flickr.com/photos/115096994@N02/16978702210","https://farm9.staticflickr.com/8827/16978702210_b0c0c0d4af_m.jpg","superuser",-7.0231,53.4515,"irishB15"
"37976","433","Spearhead","III F","Museum of Archaeology and Ethnology, Cambridge,No. 159, Murray Collection","Ireland,Co. Meath,River Boyne, near Clonard","Clonard, Co. Meath, Ireland","53.4515329","-7.023107299999992","","None","None","None","145.5","Blade 31; socket 19","","67","","Smooth and shiny. Bright metal all over.","blade 11; socket 19","","","","High sharp midrib. 2 loops lozenge shaped. Bead on midrib.","","","Joellen mcGann","https://www.flickr.com/photos/115096994@N02/17166230135","https://farm8.staticflickr.com/7587/17166230135_c3ee961fb8_m.jpg","superuser",-7.0231,53.4515,"irishB15"
"37977","433","Spearhead","F","Museum of Archaeology and Ethnology, Cambridge,No. 161 Murray Collection","Ireland,Co. Meath,River Boyne,near Clonard","Clonard, Co. Meath, Ireland","53.4515329","-7.023107299999992","","None","None","None","120","blade 31; socket 27.5","","95","dark brown and emerald green patina","Slightly rough and corroded","blade 16","","","","Midrib down the socket, deep connecting bead between the wings and loops, nicked just above the junction and a hole through each nick. Beads producing an elongated chevron shard from shoulder of wings and end a third from the point. Base and point worn. Cutting edge has not been bevelled and is very blunt.","","","Joellen mcGann","https://www.flickr.com/photos/115096994@N02/16978701960","https://farm8.staticflickr.com/7608/16978701960_62ed03e784_m.jpg","superuser",-7.0231,53.4515,"irishB15"
"37978","433","Spearhead","H","Museum of Archaeology and Ethnology, Cambridge,No. 164 Murray Collection","Ireland,Co. Meath,River Boyne near Clonard","Clonard, Co. Meath, Ireland","53.4515329","-7.023107299999992","","None","None","None","93.5","14.75; 14.5","","28","Light brown spots of patina on dark brown.","Corroded and pitted.","","","","","Diamond shaped socket, very much corroded and all over. Point has been filed probably for analysis.","","","Joellen mcGann","https://www.flickr.com/photos/115096994@N02/17164616572","https://farm8.staticflickr.com/7607/17164616572_5cd6197612_m.jpg","superuser",-7.0231,53.4515,"irishB15"
"37979","433","Spearhead","III H","Museum of Archaeology and Ethnology, Cambridge,No. 163 Murray Collection","Ireland,Co. Meath,River Boyne,near Clonard","Clonard, Co. Meath, Ireland","53.4515329","-7.023107299999992","","None","None","None","161","blade 18.5; socket 18","","37","Dark greyish green patina.","Very much corroded and broken all over. Dull and corroded.","blade 12","","","","Diamond shaped socket. Wooden shaft still remains in socket.","","","Joellen mcGann","https://www.flickr.com/photos/115096994@N02/16543822614","https://farm8.staticflickr.com/7609/16543822614_c2277302e4_m.jpg","superuser",-7.0231,53.4515,"irishB15"
"37980","433","Spearhead","T","Museum of Archaeology & Ethnology, Cambridge,No. 142, Murray Collection","Ireland,Co. Meath,near Clonard,R. Boyne","Clonard, Co. Meath, Ireland","53.4515329","-7.023107299999992","","None","None","None","172","blade 28; socket 20.5","","100","Light brown patina with metal showing through, evenly, all over.","Finely pitted all over.","blade 14","","","","Rounded midrib, bevelled round the edges. Base slightly damaged. 2 Rivet holes.","","","Joellen mcGann","https://www.flickr.com/photos/115096994@N02/16980078929","https://farm9.staticflickr.com/8773/16980078929_5f8845a8b5_m.jpg","superuser",-7.0231,53.4515,"irishB15"
"37981","433","Spearhead","T","British Museum, 55.21-20.21","Ireland,Co. Meath,Drogheda,1844","Drogheda, Co. Louth, Ireland","53.717856","-6.35609850000003","","None","None","1844","114","blade 25; socket 20","","60.45","Dull greenish brown.","Very much flaked.","blade 12; socket 22","","","","Socket rim dented and a little broken.","","","Joellen mcGann","https://www.flickr.com/photos/115096994@N02/16980078709","https://farm9.staticflickr.com/8805/16980078709_c0c220900d_m.jpg","superuser",-6.3561,53.7179,"irishB15"
"37982","433","Spearhead","T","Salisbury, S. Wilts, and Blackmore Museum","Ireland,Co. Meath,Balindery Lake","Ballinderry Lough, Co. Westmeath, Ireland","53.4016667","-7.676111100000071","","None","None","None","264","blade 29; 44","blade 15; socket 22","165.75","Brown","","","","","","Socket broken. In bad repair generally.","","","Joellen mcGann","https://www.flickr.com/photos/115096994@N02/16980078589","https://farm9.staticflickr.com/8752/16980078589_5253a4ee12_m.jpg","superuser",-7.6761,53.4017,"irishB15"
"37983","433","Spearhead","E","Private Collection,1923,A. Henderson Bishop,Thornton Hall, Lanarkshire","Ireland,Roscommon","Roscommon, Ireland","53.6275906","-8.189095500000008","","None","None","None","110","blade 32; socket 22","","53.15","","Bright metal with black stains, but seems to have been cleaned. and to have once had a black patina.","socket 22; blade 13","","","","Perfect, except socket slightly split. Rivet hole on one side only.","","","Joellen mcGann","https://www.flickr.com/photos/115096994@N02/17140312076","https://farm9.staticflickr.com/8725/17140312076_00d599f99e_m.jpg","superuser",-8.1891,53.6276,"irishB15"
"37984","433","Spearhead","F","Salisbury, S. Wilts and Blackmore Museum,269 Brackstone Collection","Ireland,Tipperary,Toomyvara","Toomevara, Co. Tipperary, Ireland","52.85071629999999","-8.035050599999977","","None","None","None","192","blade 41; socket 21","","128.05","Dark brown","","","","","","","","","Joellen mcGann","https://www.flickr.com/photos/115096994@N02/16543822084","https://farm9.staticflickr.com/8732/16543822084_fb150a6d88_m.jpg","superuser",-8.0351,52.8507,"irishB15"
"37985","433","Spearhead","H","British Museum, 91.3-20.1,A. W. 7,label: ""given by G. Loyer (Albert Way)"",?G.V. Dunoyer","Ireland,Tipperary,Clonmel","Clonmel, Co. Tipperary, Ireland","52.3558172","-7.6902551000000585","","None","None","None","57","blade 17; socket 14","","15.42","Slight patina black, showing bronze.","Smooth","blade 8; socket 14","","","","Line roughly scratched round socket. Blade slightly bent.","Apparently they are referred to in Arch. Journal, Vol. VII, p. 282 and there said to be from Clonmel Co. Tipperary (Reg. Smith).","","Joellen mcGann","https://www.flickr.com/photos/115096994@N02/16546074813","https://farm9.staticflickr.com/8748/16546074813_6360f5b672_m.jpg","superuser",-7.6903,52.3558,"irishB15"
"37986","433","Spearhead","H","Salisbury, S. WIlts and Blackmore Museum,910 Braxton Collection,B910 on side.","Ireland,Co. Tipperary","Co. Tipperary, Ireland","52.47378940000001","-8.161851399999932","","None","None","None","368","blade 48; socket 22","","247","","Golden bronze. Casting defective in places on blade.","","","","","2 rivet holes","","","Joellen mcGann","https://www.flickr.com/photos/115096994@N02/16980078269","https://farm9.staticflickr.com/8779/16980078269_58edcbd2ec_m.jpg","superuser",-8.1619,52.4738,"irishB15"
"37987","433","Spearhead","H","Salisbury, S. Wilts. and Blackmore Museum,197 Brackstone Collection,B197","Ireland,Co. Tipperary","Co. Tipperary, Ireland","52.47378940000001","-8.161851399999932","","None","None","None","153","blade 30; socoket 28","","100.1","Dark brown.","","socket 23","","","","The loops are very poor. A hole near top of blade (point) on one side only.","","","Joellen mcGann","https://www.flickr.com/photos/115096994@N02/16980084269","https://farm9.staticflickr.com/8729/16980084269_7fbe0a163f_m.jpg","superuser",-8.1619,52.4738,"irishB15"
"37988","433","Spearhead","T","Salisbury, S. Wilts and Blackmore Museum,256 Brackstone Collection,B256 on side","Ireland,Co. Tipperary","Co. Tipperary, Ireland","52.47378940000001","-8.161851399999932","","None","None","None","198","blade 46; socket 32","","149.5","Dark green","","socket 20","","","","The socket is bent to an oval shape.","","","Joellen mcGann","https://www.flickr.com/photos/115096994@N02/17166228775","https://farm9.staticflickr.com/8747/17166228775_09ac8ee1bf_m.jpg","superuser",-8.1619,52.4738,"irishB15"
"37989","433","Spearhead","T","British Museum, -","Ireland,Tipperary,Roscrea","Roscrea, Co. Tipperary, Ireland","52.9551789","-7.798469599999976","","None","None","None","178","blade 47; socket 26.5","","164.51","Slight patina dark brown.","Scratch across centre.","blade 19; socket 26.5","","","","2 rivet holes. Blade bent forward. Socket is bent.","","","Joellen mcGann","https://www.flickr.com/photos/115096994@N02/16978472138","https://farm8.staticflickr.com/7650/16978472138_b0e91420e3_m.jpg","superuser",-7.7985,52.9552,"irishB15"
"37990","433","Spearhead","F","Sotheby's Sale, 14.12.25,Lot 271,Property of Mons. Fenardent","Ireland,Tyrone,Dungannon","Dungannon, Dungannon, Dungannon and South Tyrone BT71, UK","54.5082725","-6.7669352000000345","","None","None","None","120.5","blade 30.5; socket 24","","","","Smooth. Blackish brown bronze.","blade 12.5; socket 23.5","","","","Sharp edges.","","Painted on: Dungannon,14946,V.X.X.","Joellen mcGann","https://www.flickr.com/photos/115096994@N02/16546074113","https://farm8.staticflickr.com/7680/16546074113_d51d41711b_m.jpg","superuser",-6.7669,54.5083,"irishB15"
"37991","433","Spearhead","F","British Museum, 43.12-26.11","Ireland,Co. Tyrone,on road from Termen to Ballygawley,Bog mountain range 3 miles south of Termen Rock","Ballygawley, Dungannon, Dungannon and South Tyrone BT70, UK","54.46275","-7.028189999999995","","None","None","None","153.5","blade 37; socket 23","","135.15","Very dark brown showing bronze.","Rather rough","blade 16.5; socket 23","","","","Two diamond shaped loops.","","","Joellen mcGann","https://www.flickr.com/photos/115096994@N02/16543820754","https://farm9.staticflickr.com/8722/16543820754_70065833bb_m.jpg","superuser",-7.0282,54.4627,"irishB15"
"37992","433","Spearhead","N","Museum of Archaeology and Ethnology, Cambridge,Foster Bequest Cat. No. 295,Prehistoric Bronzes No. 178 (cat. lost),(From Bryce-Wright)","Ireland,Ulster","Ulster","54.7616555","-6.961227300000019","","None","None","None","281","blade 33; socket 25","","221","Dark brown to black - a little metal showing through.","Granular","blade 8.5","","","","Conical socket for half the length, continuing as a flattened mid-rib to the point. The point has been filed. Two rivet holes.","","","Joellen mcGann","https://www.flickr.com/photos/115096994@N02/16978471328","https://farm9.staticflickr.com/8742/16978471328_5717466356_m.jpg","superuser",-6.9612,54.7617,"irishB15"
"37993","433","Spearhead","III","Museum of Archaeology and Ethnology, Cambridge,No. 157 Murray Collection","Ireland,Co. Westmeath,Rochford Bridge","Rochfortbridge, Co. Westmeath, Ireland","53.4146417","-7.299683500000015","","None","None","None","158","blade 36; socket 22","","99","Thin brown patina metal showing through all over.","Fairly smooth.","blade 15","","","","Beaded ridge along conical socket. A chevron shaped ridge on the blades. Two loops - wide, lozenge shaped.","","","Joellen mcGann","https://www.flickr.com/photos/115096994@N02/16543820024","https://farm8.staticflickr.com/7695/16543820024_1f0db052dc_m.jpg","superuser",-7.2997,53.4146,"irishB15"
"37994","433","Spearhead","F","Museum of Archaeology and Ethnology, Cambridge,No. 149 Murray Collection","Ireland,Co. Westmeath,Kinnegad Castle,Little Boyne","Kinnegad, Co. Westmeath, Ireland","53.4568103","-7.104995899999949","","None","None","None","202.5","blade 43; socket 27","","215","Dark gray and black.","Moderately smooth and dull.","blade 14","","","","Conical socket, two rounded loops below the shoulders. Cutting edge slightly bent and crooked. Socket very long.","","","Joellen mcGann","https://www.flickr.com/photos/115096994@N02/17166227105","https://farm8.staticflickr.com/7726/17166227105_fcf10809c5_m.jpg","superuser",-7.105,53.4568,"irishB15"
"37995","433","Spearhead","F","Salisbury, S. Wilts and Blackmore Museum,325 Brackstone Collection,B325","Ireland,West Meath,Mullingar (near)","Mullingar, Co. Westmeath, Ireland","53.5259334","-7.338137800000027","","None","None","None","138","blade 35; socket 22","","89.7","Black, with bronze showing through.","","","","","","","","","Joellen mcGann","https://www.flickr.com/photos/115096994@N02/16958838227","https://farm9.staticflickr.com/8701/16958838227_275041d0ac_m.jpg","superuser",-7.3381,53.5259,"irishB15"
"37996","433","Spearhead","F","Museum of Archaeology and Ethnology, Cambridge,No. 160 Murray Collection","Ireland,Co. Westmeath,Ratars Castle","Westmeath, Co. Westmeath, Ireland","53.5345308","-7.465321700000004","","None","None","None","187","blade 34","","112","Brown","Moderately smooth and dull.","blade 10","","","","Conical socket with beaded ridge reaching only a short way up the blade and becoming a midrib towards which the wings thicken. Two loops, lozenge shaped connected to the shoulders by a long rib.","","","Joellen mcGann","https://www.flickr.com/photos/115096994@N02/16980075649","https://farm9.staticflickr.com/8689/16980075649_a7744c030c_m.jpg","superuser",-7.4653,53.5345,"irishB15"
"37997","433","Spearhead","II","Private Collection,Professor Sir Lucas White-King, CSI, LLD, FSA,Late of Roebuck Hall, Co. Dublin,Sold by Auction at Sotheby's 9.11.21,Lot 141","Ireland,Co. Westmeath","Westmeath, Co. Westmeath, Ireland","53.5345308","-7.465321700000004","","None","None","None","171","Blade 31 3/4; socket 21.5","","","Remains of a patina of dark brown on the socket.","Smooth. Blade is pitted bright golden bronze.","Blade 13 and under 2; socket 22","","","","Sharp edges and mid ribs. Delicately made.","","","Joellen mcGann","https://www.flickr.com/photos/115096994@N02/17166226615","https://farm8.staticflickr.com/7645/17166226615_bcb12281ec_m.jpg","superuser",-7.4653,53.5345,"irishB15"
"37998","433","Spearhead","H","British Museum, 63.1-22.100","Ireland,Co. Wexford","Co. Wexford, Ireland","52.465096","-6.623412700000017","","None","None","None","120","blade 28; socket 20","","58.2","Dark brown, bronze shows.","Fairly smooth.","blade 11; socket 17","","","","Socket is damaged and edge near point.","","","Joellen mcGann","https://www.flickr.com/photos/115096994@N02/16958837367","https://farm9.staticflickr.com/8742/16958837367_1c5af1df0f_m.jpg","superuser",-6.6234,52.4651,"irishB15"
"37999","433","Spearhead","III E","Herts. Cty. Museum, St. Albans,Ball Collection","Ireland,Co. Wicklow,Wicklow","Wicklow, Ireland","52.9808207","-6.044588999999974","","None","None","None","179","blade 64; socket 21","","141.75","dark brown matt","Rough, pocked","blade 10; socket 20","","","","","","","Joellen mcGann","https://www.flickr.com/photos/115096994@N02/17165631301","https://farm8.staticflickr.com/7605/17165631301_38bc731eeb_m.jpg","superuser",-6.0446,52.9808,"irishB15"
