"taskID","userID","objectType","rightCorner","collection","site","toSearch","Lat","Lon","gridRef","dateDiscoveryDay","dateDiscoveryMonth","dateDiscoveryYear","length","width","edge","weight","patina","surface","thickness","other","composition","associations","description","publications","remarks","inputBy","imageURL","flickrURL","Processing","lon","lat","project"
"15341","64","12 Copper Cake frags.","","LONDON, British Museum,WG 2163-2174","EAST SUSSEX,Lewes","Lewes, Lewes, East Sussex, UK","50.87387200000001","0.008780000000001564","","None","None","None","","","","","","","","","","","","","See new index,C1","Hugh Fiske","https://farm6.staticflickr.com/5608/15413819409_efc5ae743d_b.jpg","https://www.flickr.com/photos/MicroPasts/15413819409","superuser",0.0088,50.8739,"miscellaneous"
"15342","64","CAKE frag.","","LONDON, British Museum, 1933.4-6.127","EAST SUSSEX,Seaford,Sutton,Dug up in 1922","Seaford, East Sussex, UK","50.7734669","0.10110800000006748","TV 49 99","None","None","1922","61","45","","","","greeny-black","25","","","","","","C1","Hugh Fiske","https://farm4.staticflickr.com/3939/14980278853_2a5f8ccd37_b.jpg","https://www.flickr.com/photos/MicroPasts/14980278853","only good record",0.1011,50.7735,"miscellaneous"
"15343","64","AXE BLADE FRAGMENT - probably Flanged axe.","","GODFREY, Mrs P. - private,50 Woodvale Ave, South Norwood,London SE 25","UNPROVENANCED","","50.7734669","0.10110800000006748","","None","None","None","EL 36.5; We 45.5; EBfg. 10.6; Te.bev. 7.7; De.bev. 17.0; EHfg. 0.8","","","","","rough textured, gold with much pale green - including break,almost certainly stripped","","Modern card, fields do not match data entry template","","","Typology: prob. near straight e.bev.; v. faint hint of a cable on one side,Manufacture: no bl. tip hollows,Condition: edge more of less intact","","","Hugh Fiske","https://farm4.staticflickr.com/3938/15576764616_b06eff9625_b.jpg","https://www.flickr.com/photos/MicroPasts/15576764616","superuser",0.1011,50.7735,"miscellaneous"
"15344","433","Axe Blade","J2","London, Society of Antiquaries Collection, B63","Unprovenanced","",,,"","None","None","None","38","","56","","","Varied dull-pale greens - dry sur.","","","Anal.?","","Dimensions: EL 37.6mm; EWe 56.0,Manufacture: hints in break of longl. division in structure - valves?; stumps of cg. fl.,Condition: part of e. broken in ant. as is main break; rest of the e. blunt - poss. corr. dam.; battering of one face - prob. anc.; modern but out of one corner for anal.?","","Labels/Markings: White ink inscr. 'B63',Arvhice PIF,PRBAF: DF (C); SI,Ext.: CI,Rec.: SN Feb 79,Source: MV","Joellen mcGann","https://farm6.staticflickr.com/5602/15414442687_52518956cd_b.jpg","https://www.flickr.com/photos/MicroPasts/15414442687","superuser",,,"miscellaneous"
"15345","433","Winged Axe Fragment","A5","Aylesbury, Bucks. Co. Museum, 15.54","Unprov.","",,,"","None","None","None","74","","","","","Badly corroded.","","","","","","","ND 74","Joellen mcGann","https://farm4.staticflickr.com/3944/15414838870_eb9d909dd5_b.jpg","https://www.flickr.com/photos/MicroPasts/15414838870","superuser",,,"miscellaneous"
"15346","433","Winged Celt","A5","Canterbury Museum, 2067,Copeland Collection","","",,,"","None","None","None","68","24","","137","Dark and medium green patina","Smooth. Traces of light coloured earth nearly all over.","7","Width: middle 24mm; butt 23mm,Thickness: 7mm; 4.5mm; 8mm","","","","","","Joellen mcGann","https://farm4.staticflickr.com/3938/15413819009_83c389a957_b.jpg","https://www.flickr.com/photos/MicroPasts/15413819009","superuser",,,"miscellaneous"
"15347","433","Fragment of ?Flanged Celt","A5","Newcastle-upon-Tyne,Black Gate Museum, No. 23","Locality unknown","",,,"","None","None","None","55","24","54","103","","","12","Width: c. 24mm; e 54mm","","A fragment has been No. 6.","","","","Joellen mcGann","https://farm4.staticflickr.com/3940/15413818909_674a35fd7e_b.jpg","https://www.flickr.com/photos/MicroPasts/15413818909","superuser",,,"miscellaneous"
"15348","433","Ingot/Anvil","","British Museum, 54.12-27.53","No prov.","",,,"","None","None","None","","","","","","","","","","","","","CI","Joellen mcGann","https://farm6.staticflickr.com/5608/14980278303_a9fc5f6995_b.jpg","https://www.flickr.com/photos/MicroPasts/14980278303","superuser",,,"miscellaneous"
"15349","433","Axe/Chisel Blade Fragment Narrow","","Borough of Newbury Museum, Museum No. OA 266 (old Cat. I.63)","England,Berkshire,Nr. Newbury","Newbury, West Berkshire, UK","51.401409","-1.323113899999953","","None","None","None","80","","","","Dark green. Apparently no active corrosion. Metal appears stable.","Rough","","","","","Palstave, part of.","Trans. Newbury District Field Club, VIII, No. 1, 1938,V.C.H. Berks., I, 195.","Blade of palstave with head broken off. Has been used as a chisel or wedge.","Joellen mcGann","https://farm6.staticflickr.com/5610/14980278253_2b7ebc78d5_b.jpg","https://www.flickr.com/photos/MicroPasts/14980278253","superuser",-1.3231,51.4014,"miscellaneous"
"15350","433","Palstavre Chisel","","Borough of Newbury Museum,I.63 (Old Catalogue),Given by Mr. J. W. Roake before 1854","England,Berkshire,Newbury,The neighborhood of,Exact site uncertain","Newbury, West Berkshire, UK","51.401409","-1.323113899999953","","None","None","None","81","17","26","","","The surface is worn and pitted.","15","Thickness: Butt 14.5mm","","","It has not been analysed. It appears to be the blade of a palstave, with the head broken off, it has been used as a chisel or wedge.","L'Anthropologie, T.XXIV. (1913), 644","","Joellen mcGann","https://farm6.staticflickr.com/5608/15597775281_82b4bafeca_b.jpg","https://www.flickr.com/photos/MicroPasts/15597775281","superuser",-1.3231,51.4014,"miscellaneous"
"15351","433","Collar Joint","I","Private Collection,1923,P. Waterhouse,Yattendon Court","England,Berkshire,Yattendon Court,In digging foundations of house,1878","Yattendon Court, Yattendon, Thatcham, West Berkshire RG18 0UT, UK","51.47201039999999","-1.1910648000000492","","None","None","1878","","62","","32","Green patina much mud stained","","13","Weight: 31.89 gms","","Part of a hoard of 60 pieces.","","Proc. Soc. Ant. (2nd Ser), VII, 480,Evans A. B. Imps,V.C.H. Berks, i.","","Joellen mcGann","https://farm6.staticflickr.com/5608/15413818479_5f358ce87f_b.jpg","https://www.flickr.com/photos/MicroPasts/15413818479","superuser",-1.1911,51.472,"miscellaneous"
"15352","433","Copper Cakes 3","I","British Museum,1981.10-19.7,Purchased from G. F. Lawrence Esq., 7 West Hill, Wandsworth, SW 18","England,Berkshire,Bray-on-Thames","Bray, Maidenhead, Windsor and Maidenhead SL6, UK","51.50765980000001","-0.7017342999999983","SU 90 79","None","None","None","","","","153","","","","CI","","Found with 3 socketed axes, 1 winged axe, fragment of socketed axe, socketed knife, and spear-head.","Weights: 153 gms; 203 gms; 154 gms","","","Joellen mcGann","https://farm4.staticflickr.com/3936/14980277983_ceb59e5af9_b.jpg","https://www.flickr.com/photos/MicroPasts/14980277983","superuser",-0.7017,51.5077,"miscellaneous"
"15353","433","Cake Fragment","","London, British Museum, 53.6-17.46","England,Cambridgeshire,Morden, Guilden or Steeple?","Morden, Greater London, UK","51.394943","-0.19445999999993546","TL 29 42","None","None","None","102","72","","","","","16","","","","","","CI","Joellen mcGann","https://farm4.staticflickr.com/3950/15601272122_7de9c85edb_b.jpg","https://www.flickr.com/photos/MicroPasts/15601272122","superuser",-0.1945,51.3949,"miscellaneous"
"15354","433","Edge of Axe (Not Palstave)","Fragment","Lukis Museum, Guernsey","Channel Islands,Sark,Found in a large mass of ashes in a pit 3 feet deep in Sark, 1845.","Sark,","49.4301912","-2.3609033999999838","","None","None","1825","25","","47","54","Yellow green. More green on one side.","Slightly pitted.","14","","","Three round cup marked stones were discovered with it.","Edge sharpened but very worn.","","","Joellen mcGann","https://farm4.staticflickr.com/3947/15597775041_76fdd9664c_b.jpg","https://www.flickr.com/photos/MicroPasts/15597775041","superuser",-2.3609,49.4302,"miscellaneous"
"15355","433","Bronze Fitting for ""Standard""","","London, British Museum, 1951.11-2.23","England,Derbyshire,Longstone (near Bakewell),In garden: early in 1910,Found by son of present (1935) owner.","Great Longstone, Bakewell, Derbyshire DE45, UK","53.2438239","-1.7012789999999995","","None","None","1910","126","45","","181","Dark green patina. Part of the socket, including its base has been scraped and here shows golden-bronze.","Smooth, except for a small part on one side of the socket which is filled.","27","Width: 45mm at base of plates; 17mm at top of socket; 26mm at base of socket,Thickness: 27mm at top of plates; 14mm at top of socket; 26mm at base of socket","","None","Socketed object terminating in 2 triangular plates, slightly spaced and each with two perforations, intended to hold save missing object (? a flat piece of metal). This is the best-made of the three such objects known, the triangular blades having bevelled edges, and two well-made rivet-holes. At the base of the socket on rivet hole, which does not appear on the other side.","Derbyshire Archaeological and Nat. Hist. Soc. Journal, Vol. 32, 219,Antiquaries Journal, Oct. 1935","Compare similar objects from St. Leonard's, in Hastings Museum, which was found with 3 1/2 palstaves, and one from Tower Hill, London now in Bristol Museum.,New drawing available.,CI","Joellen mcGann","https://farm4.staticflickr.com/3946/15601272042_2bd768afd5_b.jpg","https://www.flickr.com/photos/MicroPasts/15601272042","superuser",-1.7013,53.2438,"miscellaneous"
"15356","433","Axe Butt Fragment","A5","Dorchester Museum, o.52.1,Damon Collection,(seen Jan. 81)","England,Dorset,Weymouth (or Portland),Smallmouth,From a midden.","Weymouth, Dorset, UK","50.6144279","-2.4576210000000174","c. SY 668 762","None","None","None","23","24","","","","Golden bronze colour; surface much pitted.","4","","","","Broken; butt end only.","","SI; CI","Joellen mcGann","https://farm4.staticflickr.com/3945/15414837990_993351ba2e_b.jpg","https://www.flickr.com/photos/MicroPasts/15414837990","superuser",-2.4576,50.6144,"miscellaneous"
"15357","433","Celt","","Unknown","England,Dorset,Dorchester","Dorchester, Dorchester, Dorset, UK","50.7111639","-2.4411810000000287","c. SY 69 90","None","None","None","","","","","","","","","","1. Hoard","Typology: ""...a much honeycombed"" ...""fragment of an early celt..."" composed with a flat axe from Maddox Barrow, Bere, Dorset","","Archive: AFI,PRBAF: SI,Ext.: CI,Rec.: SN Jan. 81,Source: R.","Joellen mcGann","https://farm6.staticflickr.com/5614/15601271992_f10c14fc3f_b.jpg","https://www.flickr.com/photos/MicroPasts/15601271992","superuser",-2.4412,50.7112,"miscellaneous"
"15358","433","Mould for Flat Axe","","British Museum, W.G. 2267","England,Durham,Lanchester,Hurbuck","Hurbuck Farmhouse, Lanchester, Durham, County Durham DH7 0RT, UK","54.8296654","-1.7836740999999847","","None","None","None","","","","","","","","","","","","","","Joellen mcGann","https://farm4.staticflickr.com/3942/14980277603_eaa3733008_b.jpg","https://www.flickr.com/photos/MicroPasts/14980277603","superuser",-1.7837,54.8297,"miscellaneous"
"15359","433","Winged Axe (Fragment)","A5","London, British Museum, 92.6-13.4","England,Essex,Southend-on-Sea,Shoebury,Hoard I","Southend-on-Sea, Southend-on-Sea, UK","51.5459269","0.7077123000000256","","None","None","None","84","","","","","","","","","1-27","","Read, C.H. 1892,Proc. Soc. Ant. XIV","New card done","Joellen mcGann","https://farm4.staticflickr.com/3932/14980277523_919a6b1ba4_b.jpg","https://www.flickr.com/photos/MicroPasts/14980277523","superuser",0.7077,51.5459,"miscellaneous"
"15360","433","Winged Celt (Portion)","A5","Private Collection,F. Ransom Esq., Hitchin","Possibly from Felsted find, Essex, cf. corresp. from J. Clarke to JJA Worsae 6 May 1850, fig. 1 c (Documents file - Essex Hoards)","Felsted, Dunmow, Essex CM6, UK","51.85599999999999","0.43600000000003547","","None","None","None","73","29","27","170","thickn polished dark sea green patina.","Smooth. Slt. encrustment of light, green in one socket and earth in both.","39","Width: 27mm; middle 29mm; butt 22mm,Thickness: 39mm; 7.25mm; 5mm; 9mm; 25mm,Weight: 170.1 gms","","","","","","Joellen mcGann","https://farm6.staticflickr.com/5613/15414441377_eb9a78c8e1_b.jpg","https://www.flickr.com/photos/MicroPasts/15414441377","superuser",0.436,51.856,"miscellaneous"
"15361","433","Cake Fragment","","London, British Museum, 54.5-24.1","England,Essex,Chesterford","Great Chesterford, Saffron Walden, Essex CB10, UK","52.062757","0.19682000000000244","TL 50 42","None","None","None","70","61","","","","","24","","","""With Roman remains""","","","CI","Joellen mcGann","https://farm4.staticflickr.com/3937/14980277403_75da2fe3c8_b.jpg","https://www.flickr.com/photos/MicroPasts/14980277403","superuser",0.1968,52.0628,"miscellaneous"
"15362","433","Eight Pieces of Copper Cake","","London, British Museum, 1866.7-14.15-22","England,Essex,High Roothing","High Roothing, Essex, UK","51.8280574","0.32433079999998427","","None","None","None","","","","","","","","","","3-22","","","See new index,CI","Joellen mcGann","https://farm4.staticflickr.com/3949/15601271502_3d63e41ced_b.jpg","https://www.flickr.com/photos/MicroPasts/15601271502","superuser",0.3243,51.8281,"miscellaneous"
"15363","433","Palstave Adze","A4","Croydon Natural History - Scientific Soc. Collection","England,Greater London,Sutton,Beddington","Beddington, Wallington, Wallington, Greater London SM6, UK","51.368509","-0.1342180000000326","","None","None","None","","","","","","","","","","","","","","Joellen mcGann","https://farm4.staticflickr.com/3938/15414837640_6b5cc6397f_b.jpg","https://www.flickr.com/photos/MicroPasts/15414837640","superuser",-0.1342,51.3685,"miscellaneous"
"15364","433","Cake Fragment","","London, British Museum, 64.2-8.3","England,Greater London,Kingston upon thames,Kingston Hill","Kingston upon Thames, Greater London, UK","51.41233","-0.30068900000003396","TQ 17 69","None","None","None","34","27","","","","Greeny-black","16","","","","","","CI","Joellen mcGann","https://farm4.staticflickr.com/3943/15414441107_04c75033ab_b.jpg","https://www.flickr.com/photos/MicroPasts/15414441107","superuser",-0.3007,51.4123,"miscellaneous"
"15365","433","Bronze Fitting for Standard","","London, British Museum, 1930.6-12.1","England,Greater London,Cirty of London,Tower Street,1883","Tower Street, London WC2H, UK","51.5133234","-0.12802269999997407","","None","None","1883","148","51","","205","","","7","Width: at base of plate 51mm; at base of socket 26mm,Thickness: of plate 7mm; at base of socket 25mm,Weight: 205 gms exclusive of wooden stump.","Bronze","","Plates are crushed together, but the line indicating the inner edges can be clearly seen. The upper part of them is slightly bent over to one side. Base of the socket it broken. The remaining piece includes one rivet hole.","","New drawing available.,CI","Joellen mcGann","https://farm6.staticflickr.com/5606/15576762946_ee837e3348_b.jpg","https://www.flickr.com/photos/MicroPasts/15576762946","superuser",-0.128,51.5133,"miscellaneous"
"15366","433","Winged Axes; 2 Fragments","A5","Museum of Arch. + Ethnology, Cambridge,23.116a, 23.198a","England,Hertfordshire,Rushden,Cumberlow Green","Cumberlow Green, Buntingford, Hertfordshire SG9, UK","51.958025","-0.10794199999998","","None","None","None","","","","","","","","","","Cumberlow Gn. Hoard","","Evans, Bronze Imps., 94,J.R.A.J., VI, 195","","Joellen mcGann","https://farm6.staticflickr.com/5608/15414326518_4fe1dd8fde_b.jpg","https://www.flickr.com/photos/MicroPasts/15414326518","superuser",-0.1079,51.958,"miscellaneous"
"15367","433","Cake Fragment","","London, British Museum, 53.11-28.2","England,Hertfordshire,St. Michael Rural,Gorhambury,Westwick Row","Gorhambury, St Albans, Hertfordshire AL3 6AH, UK","51.75817319999999","-0.38786479999998846","TL 11 07","None","None","None","58","31","","","","Gray-black","21","","","","","","CI","Joellen mcGann","https://farm4.staticflickr.com/3953/14980277033_7e160cb26f_b.jpg","https://www.flickr.com/photos/MicroPasts/14980277033","superuser",-0.3879,51.7582,"miscellaneous"
"15368","433","2 Lumps of Copper","3","British Museum, 79.3-20.1,2,3 + 4,Presented by Frederick Thomas Fossey, Esq.,20/3/1879","England,Hertfordshire,Rushden,Cumberlow Green,Founder's Hoard","Cumberlow Green, Buntingford, Hertfordshire SG9, UK","51.958025","-0.10794199999998","TL 30 30","None","None","None","","","","520","Brown","Corroded","","","","Hoard consisting of 1 winged axe, 9 socketed axes, and 3 fragments, 2 fragments of swords, 1 fragment of thin metal plate, 4 lumps of metal and a fragment of dark grey pottery. 1-20.","Four irregular lumps as smelted.,Weights; 520 gms; 487 gms; 581 gms; 224 gms","","CI","Joellen mcGann","https://farm4.staticflickr.com/3947/15600434375_29d023ca64_b.jpg","https://www.flickr.com/photos/MicroPasts/15600434375","superuser",-0.1079,51.958,"miscellaneous"
"15369","433","Frag-Sheet","","British Museum, 79.3-20.17","England,Hertfordshire,Rushden,Cumberlow Green","Cumberlow Green, Buntingford, Hertfordshire SG9, UK","51.958025","-0.10794199999998","TL 30 30","None","None","None","","","","","","","","","","","","","See new index.,CI","Joellen mcGann","https://farm4.staticflickr.com/3940/15414326398_7ef388ea41_b.jpg","https://www.flickr.com/photos/MicroPasts/15414326398","superuser",-0.1079,51.958,"miscellaneous"
"15370","433","Axe Blade Fragment","","London, British Museum, 93.4-26.121,Presented by A. W. Franks,26/4/93","England,Kent,(Isle of Thanet),Minster,Ebbsfleet,1893","Minster, Ramsgate, Kent CT12, UK","51.336651","1.3144360000000006","","None","None","1893","47","","","","","","","","","Founder's Hoard, 93.4-26.9-151","","Proc. Soc. Ant. 2nd ser., XIV, 309,Proc. Soc. Ant. 2nd ser., XV, 138,V.C.H. Kent, 1, 322,R.F. Jessup, 'Kent', 110","ND 75,CI","Joellen mcGann","https://farm6.staticflickr.com/5612/15600434295_fec6d9ac6b_b.jpg","https://www.flickr.com/photos/MicroPasts/15600434295","superuser",1.3144,51.3367,"miscellaneous"
"15371","433","Fragment of Winged Axe","A5","London, British Museum,Given by H. Peachey, 151 Bingham Road, Addiscombe, Nr. Croydon, about 1946","England,Kent,Dartford","Dartford, Kent, UK","51.44621","0.21687199999996665","","None","None","None","72","43","","158","Browny-green","Considerable amount of encrustment, especially along one edge.","16","","","5 socketed celts; 4 socketed celt fragments; 1 Palstave Fragment; 1 Sword Fragment; 1 Fragment of ? Blade; 20 metal lumps.","Part of blade; cutting edge partly missing; whole of butt and stop ridge missing; part of ""heart-shaped"" depression on each face at base of blade; no mould marks.","Brailsford, P.P.S.,P.P.S. 1947, p. 175","","Joellen mcGann","https://farm4.staticflickr.com/3937/14980276943_82d5c31703_b.jpg","https://www.flickr.com/photos/MicroPasts/14980276943","superuser",0.2169,51.4462,"miscellaneous"
"15372","433","Winged Celt Fragment","","Dover Museum","England,Kent,Buckland, Brick Fields,Dover","Buckland, Dover, Dover, Kent CT17, UK","51.1371","1.2952000000000226","","None","None","None","54","24","42","90","Practically no patina, golden bronze slightly visible.","rRough and heavily encrusted all over. A lot a clay adhering.","6","Thickness: 5.5mm; 30mm,Weight: 90.26 gms","","Dug up with a number of celts and fragments","","","","Joellen mcGann","https://farm4.staticflickr.com/3946/15414326288_1e49cd456c_b.jpg","https://www.flickr.com/photos/MicroPasts/15414326288","superuser",1.2952,51.1371,"miscellaneous"
"15373","433","Winged Celt Fragment","A5","Dover Museum","England,Kent,Buckland, Brick Fields,Nr. Dover","Buckland, Dover, Dover, Kent CT17, UK","51.1371","1.2952000000000226","","None","None","None","61","21","","124","Some olive green patina.","Rough and very much encrusted. Clay adheres all over.","27","Width: butt 21mm; middle 25.5mm,Thickness: 27mm; 6.5mm,Weight: 124.01 gms","","Dug up with a number of celts and fragments.","","","","Joellen mcGann","https://farm4.staticflickr.com/3940/15414837270_81d3b2e3df_b.jpg","https://www.flickr.com/photos/MicroPasts/15414837270","superuser",1.2952,51.1371,"miscellaneous"
"15374","433","Jet","","British Museum, 1893.2-5.28,Given by A. W. Franks, Esq.","England,Kent,(Rochester, near),Stoke, Hoo,Founder's Hoard","Upper Stoke, Rochester, Medway ME3, UK","51.4461013","0.6213103999999703","TQ 82 75","None","None","None","","","","","Brownish","Corroded","","","","1-23: Hoard of 12 socketed celts and 9 fragments, 2 socketed gouges, fragment of mould, jet, 5 fragments of swords, and 3 cakes of metal.","","","Almost OK,CI","Joellen mcGann","https://farm4.staticflickr.com/3947/15413817389_bec712063f_b.jpg","https://www.flickr.com/photos/MicroPasts/15413817389","superuser",0.6213,51.4461,"miscellaneous"
"15375","433","Jet From Casting","","British Museum, 93.4-26.147,Presented by A. W. Franks, Esq.,26/4/1893","England,Kent,Isle of Thanet,Minster (Ebbs Fleet 1893),Founder's Hoard","Minster, Ramsgate, Kent CT12, UK","51.336651","1.3144360000000006","","None","None","1893","","","","33","Green","Corroded","","","","9-151: Hoard consisting of 1 palstave, 2 winged celts, 13 socketed celts, 3 spear-heads, fragment of sickle, triangular knife, socketed knife, socketed hammer, fragment of implement, flanged ring, 3 pieces of harness, and 2 jets.","","V.C.H. Kent, I, 322, 335,Proc. S. A. 2d Ser. Vol. XIV, p. 309,Proc. S. A. 2d S. Vol. XV, 138.,R.F. Jessup, 'Kent', 110, 259","Inacc.,See new index.,CI","Joellen mcGann","https://farm6.staticflickr.com/5607/15597774021_61fc935082_b.jpg","https://www.flickr.com/photos/MicroPasts/15597774021","superuser",1.3144,51.3367,"miscellaneous"
"15376","433","Jet from Casting","","British Museum, 93.4.26.145,Presented by A. W. Franks, Esq.,26/4/1893","England,Isle of Thanet,Minster (Ebbs Fleet 1893),Founder's Hoard","Minster, Ramsgate, Kent CT12, UK","51.336651","1.3144360000000006","","None","None","1893","","","","106","Green","Very corroded","","","","Hoard consisting of 1 palstave, 2 winged celts, 13 socketed celts, 3 spear-heads, fragment of sickle, triangular knife, socketed knife, socketed hammer, fragment of implement, flanged ring, 3 pieces of harness, and 2 jets.","Circular top.","Proc. S. A. 2nd S., Vol. XIV, p. 309","Rather inacc.,See new index.,CI","Joellen mcGann","https://farm4.staticflickr.com/3949/15601270972_2f9581c998_b.jpg","https://www.flickr.com/photos/MicroPasts/15601270972","superuser",1.3144,51.3367,"miscellaneous"
"15377","433","3 Casting Jets","","British Museum, 93.4-26.146, 148, 149","England,Kent,Minster, Thanet","Minster, Ramsgate, Kent CT12, UK","51.336651","1.3144360000000006","","None","None","None","","","","","","","","","","","","","See new index.,CI","Joellen mcGann","https://farm6.staticflickr.com/5612/15414326088_ef0514d113_b.jpg","https://www.flickr.com/photos/MicroPasts/15414326088","superuser",1.3144,51.3367,"miscellaneous"
"15378","433","Jet","","British Museum, W.G. 2162,Given by J. Pierpont Morgan, Esq., 1909,Greenwell Collection","England,Sussex (East),Lewes","Lewes, Lewes, East Sussex, UK","50.87387200000001","0.008780000000001564","","None","None","None","43","38","","54","Green","Green corroded","","","","Hoard of 5 palstaves, 7 socketed axes, 1 fragment, 1 jet, and 12 copper cakes.","Eval top; unequal ribs below","","Almost OK,New drawing available.,CI","Joellen mcGann","https://farm4.staticflickr.com/3933/14979695564_e2cb51f1fe_b.jpg","https://www.flickr.com/photos/MicroPasts/14979695564","superuser",0.0088,50.8739,"miscellaneous"
"15379","433","Collar Joint","","London, British Museum, 93.4-26.139,Presented by A. W. Franks,26/4/93","England,Kent,Minster,Ebbsfleet,1893","Minster, Ramsgate, Kent CT12, UK","51.336651","1.3144360000000006","","None","None","1893","40","10","","","","","","","","Founder's hoard, 93.4-26.9-151","","Proc. Soc. Ant. 2nd ser. XIV, 309,Proc. Soc. Ant. 2nd ser, XV, 138,V.C.H. Kent, I, 322.,R.F. Jessup, 'Kent', 110","ND 75,CI","Joellen mcGann","https://farm6.staticflickr.com/5606/15597773861_1a3bb68376_b.jpg","https://www.flickr.com/photos/MicroPasts/15597773861","superuser",1.3144,51.3367,"miscellaneous"
"15380","433","Collar Joint","","British Museum, 93.4-26.139,Presented by A. W. Franks, Esq.,26/4/1893","England,Kent,Isle of Thanet,Minster (Ebbs Fleet 1893),Founder's Hoard","Minster, Ramsgate, Kent CT12, UK","51.336651","1.3144360000000006","","None","None","1893","39","35","","25","Brownish Green patina","Corroded","10","","","9-151: Hoard consisting of 1 palstave, 2 winged celts, 13 socketed celts, 3 spear-heads, fragment of sickle, triangular knife, socketed knife, socketed hammer, fragment of implement, flanged ring, 3 pieces of harness, and 2 jets.","Disc pierced with short tube.","V.C.H. Kent, I, 322, 335,Proc. S.A. 2d S., Vol. XIV, p. 309, Vol. XV, p. 138.,134 of Evans, fig. 503,R.F. Jessup, 'Kent', 110, 259, Pl. VI","OK (section),See new index.,CI","Joellen mcGann","https://farm6.staticflickr.com/5605/15414440477_518a1e927a_b.jpg","https://www.flickr.com/photos/MicroPasts/15414440477","superuser",1.3144,51.3367,"miscellaneous"
"15381","433","Collar Joint Rough Castin","10","Ashmolean Museum, Oxford,Evans Collection, 1927.2510","England,Kent,Isle of Harty,1871","Eastchurch, adj Harty Ferry Road, Eastchurch, Sheerness, Kent ME12, UK","51.397633","0.8862259999999651","","None","None","1871","","","","80","Dirty green and black patina.","","","","","Hoard of 32 pieces, Nos. 2490-2520, comprising 4 socketed celts and 3 moulds, 2 gouges, and 1 mould, 2 hammers, 2 anvils, 2 knives, 1 ? ferrule, 1? end of bracelet, 1 whetstone, 2 pieces of metal.","Diameter 63 x 65mm; Height: 14mm,Weight: 79.95 gms,Circular, slightly concave, with large collared central perforation.","Evans, Anc. Br. Imps, pp. 403, Fig. 503, Hoard No. 105,(For full references to Hoard, see Socketed Celt No. 2491)","""The stock-in-trade of an ancient bronze founder."" Evans, p. 442.","Joellen mcGann","https://farm6.staticflickr.com/5607/15414325948_e3a352e7d4_b.jpg","https://www.flickr.com/photos/MicroPasts/15414325948","superuser",0.8862,51.3976,"miscellaneous"
"15382","433","Copper Cake (Complete)","I","British Museum, 1931.3-14.26","England,Kent,Bexley (Heath),Founder's Hoard,Discovered in 1930 in a sand pit belonging to Mrs. Buxley, at a depth of 15-20 ft. from the surfact.","Bexleyheath, Greater London, UK","51.45334099999999","0.13822000000004664","TQ 48 75","None","None","1930","","","","1590","Greenish","Corroded","","","","1-25, 27-29: 21 Sock. Axes; 16 Sock. Axes Frags.; 1 Chisel; 1 Knife; 1 Gouge; 1 Spearhead; 1 Sword; Lump fragments","","Antiquaries Journal, Vol. XI, p. 170","No drawing.,CI","Joellen mcGann","https://farm4.staticflickr.com/3942/15600433945_b9606878c2_b.jpg","https://www.flickr.com/photos/MicroPasts/15600433945","superuser",0.1382,51.4533,"miscellaneous"
"15383","433","26 Copper Lumps Including Fragments of Bun Ingots","3","British Museum, 1931.3-14.27, 28, 29 + nonreg.; 1956.11-2.9","England,Kent,Bexley (Heath),Founder's Hoard,Discovered in 1930 in a sandpit belonging to Mrs. Buxley at a depth of 15-20 ft. from the surface.","Bexleyheath, Greater London, UK","51.45334099999999","0.13822000000004664","","None","None","1930","","","","8270","Greenish","Corroded","","","","1-29: 21 Socketed Celts; 16 Fragments Socketed Celts; 1 Chisel?' 1 Knife; 1 Gouge; 1 Spearhead; 1 Sword; 1 Copper Cake; Fragments Copper Cake","27 Messy fragments copper cake; 28 large fragments copper cake; 29 large fragments copper cake,Weights: 27) 8270 gms; 28) 939 gms; 29) 625 gms","Antiquaries Journal, Vol. XI, p. 170","CI","Joellen mcGann","https://farm6.staticflickr.com/5601/15414837010_5c4ea68d1e_b.jpg","https://www.flickr.com/photos/MicroPasts/15414837010","superuser",0.1382,51.4533,"miscellaneous"
"15384","433","Cast Fragment","","British Museum, 96.4-11.163","England,Kent,Canterbury,1869","Canterbury, Canterbury, Kent, UK","51.280233","1.0789088999999876","","None","None","1869","","","","","","","","","","","","","","Joellen mcGann","https://farm4.staticflickr.com/3938/15601270582_f5d16917b4_b.jpg","https://www.flickr.com/photos/MicroPasts/15601270582","superuser",1.0789,51.2802,"miscellaneous"
"15385","433","Lump","","London, British Museum, 93.4-16.150,Presented by A. W. Franks,26/4/93","England,Kent,Minster,Ebbsfleet,1893","Minster, Ramsgate, Kent CT12, UK","51.336651","1.3144360000000006","","None","None","1893","","","","","","","","","","Founder's hoard, 93.4-26.9-151","","Proc. Soc. Ant. 2nd ser., XIV, 309,Proc. Soc. Ant. 2nd ser., XV, 138,V.C.H., Kent, I, 322,R.F. Jessup, 'Kent', 110","ND 75; CI","Joellen mcGann","https://farm6.staticflickr.com/5607/15414836760_fc213e0bfc_b.jpg","https://www.flickr.com/photos/MicroPasts/15414836760","superuser",1.3144,51.3367,"miscellaneous"
"15386","433","Thin Bronze Plate","","British Museum, 93.4-26.150","England,Kent,Minster,Ebbsfleet","Minster, Ramsgate, Kent CT12, UK","51.336651","1.3144360000000006","","None","None","None","","","","","","","","","","","","","See new index.","Joellen mcGann","https://farm6.staticflickr.com/5610/15413816739_40874f2629_b.jpg","https://www.flickr.com/photos/MicroPasts/15413816739","superuser",1.3144,51.3367,"miscellaneous"
"15387","433","49 Lumps (Cake Frags)","","British Museum, 93.4-26.151","England,Kent,Minster,Ebbsfleet","Minster, Ramsgate, Kent CT12, UK","51.336651","1.3144360000000006","","None","None","None","","","","","","","","","","","","","See new index","Joellen mcGann","https://farm4.staticflickr.com/3939/14980276193_5cdf19783a_b.jpg","https://www.flickr.com/photos/MicroPasts/14980276193","superuser",1.3144,51.3367,"miscellaneous"
"15388","433","49 Lumps Copper Cakes Fragments","I","British Museum, 93.4-26.151,Presented by A. W. Franks, Esq.,26/4/1893","England,Kent,Isle of Thanet,Minster (Ebbs Fleet 1893),Founder's Hoard","Minster, Ramsgate, Kent CT12, UK","51.336651","1.3144360000000006","","None","None","1893","","","","","","","","","","9-151","49 Fragments from crucibles of various sizes.","Proc. S. A. 2d S., Vol. XIV, p. 309","OK","Joellen mcGann","https://farm6.staticflickr.com/5604/15413816689_d0ca038c56_b.jpg","https://www.flickr.com/photos/MicroPasts/15413816689","superuser",1.3144,51.3367,"miscellaneous"
"15389","433","Cast Fragment (of Knife?) ?Chisel","","British Museum, 93.4.26.140,Presented by A. W. Franks,26/4/1893","England,Kent,Isle of Thanet,Minster (Ebbs Fleet 1893),Founder's Hoard","Minster, Ramsgate, Kent CT12, UK","51.336651","1.3144360000000006","","None","None","1893","","","","63","Green","Very corroded","","","","Hoard consisting of 1 palstave, 2 winged celts, 13 socketed celts, 3 spear-heads, fragment of sickle, triangular knife, socketed knife, socketed hammer, fragment of implement, flanged ring, 3 pieces of harness, and 2 jets.","Fragment of implement nearly flat. At one end a blunt cutting?","Proc. S. A. 2d S., Vol. XIV, p. 309,Proc. S. A. 2nd S. Vol, XV, 138.","See new index.,CI","Joellen mcGann","https://farm4.staticflickr.com/3947/15597773281_bbe8820691_b.jpg","https://www.flickr.com/photos/MicroPasts/15597773281","superuser",1.3144,51.3367,"miscellaneous"
"15390","433","Cast Fragment (Knife?)","","London, British Museum, 93.4-26.140,Presented by A. W. Franks,26/4/93","England,Minster,Ebbsfleet,1893","Minster, Ramsgate, Kent CT12, UK","51.336651","1.3144360000000006","","None","None","1893","57","43","","","","","","","","Founder's Hoard, 93.4-26.9-151","","Proc. Soc. Ant. 2nd ser., XIV, 309,Proc. Soc. Ant. 2nd ser. XV, 138,VCH, Kent, I, 322,R. F. Jessup, 'Kent', 110","ND 75","Joellen mcGann","https://farm4.staticflickr.com/3948/15414439887_169533e40c_b.jpg","https://www.flickr.com/photos/MicroPasts/15414439887","superuser",1.3144,51.3367,"miscellaneous"
"15391","433","24 Cakes of Metal (Fragments, some showing curve of crucible)","3","British Museum, 18 (Not catalogued),Given by A. W. Franks, Esq.,1893.2-5.29-52","England,Kent,(Rochester, near),Stoke, Hoo,Founder's Hoard","Upper Stoke, Rochester, Medway ME3, UK","51.4461013","0.6213103999999703","TQ 82 75","None","None","None","","","","585","Green and brown patina","Corroded","","","","Hoard of 12 socketed celts and 9 fragments, 2 socketed gouges, fragment of mould, jet, 5 fragments of swords, and 3 cakes of metal. 1-23","Weights: 585 gms; 557 gms; 327 gms","","CI","Joellen mcGann","https://farm6.staticflickr.com/5613/15576761696_b482163e28_b.jpg","https://www.flickr.com/photos/MicroPasts/15576761696","superuser",0.6213,51.4461,"miscellaneous"
"15392","433","24 Frags. of Metal Cake","","London, British Museum, 93.2-5.29-52","England,Kent,Stoke,Hoo","Hoo, Medway, UK","51.420212","0.5633119999999963","","None","None","None","","","","","","","","","","Founder's Hoard","","","","Joellen mcGann","https://farm6.staticflickr.com/5614/15576761546_af7f46b584_b.jpg","https://www.flickr.com/photos/MicroPasts/15576761546","superuser",0.5633,51.4202,"miscellaneous"
"15393","433","Fragment of Moud for Socketed Celts","Frag","British Museum, 1893.2-5.27,Given by A. W. Franks, Esq.","England,Kent,(Rochester, near),Stoke, Hoo,Founder's Hoard","Hoo,","51.420212","0.5633119999999963","TQ 82 75","None","None","None","","","","70","Brownish","Slightly Corroded","","","","1-23: Hoard of 12 socketed celts and 9 fragments, 2 socketed gouges, fragment of mould, jet, 5 fragments of swords, and 3 cakes of metal.","","","Almost OK (section),CI","Joellen mcGann","https://farm6.staticflickr.com/5607/15600432975_4c004b75f2_b.jpg","https://www.flickr.com/photos/MicroPasts/15600432975","superuser",0.5633,51.4202,"miscellaneous"
"15394","433","Mould Fragment for Socketed Axe","","London, British Museum, 93.2-5.27","England,Kent,Stoke,Hoo","Hoo, Medway, UK","51.420212","0.5633119999999963","","None","None","None","39","41","","","","","","","","Founder's hoard","","","ND 74","Joellen mcGann","https://farm4.staticflickr.com/3942/14979694544_ecddc1b740_b.jpg","https://www.flickr.com/photos/MicroPasts/14979694544","superuser",0.5633,51.4202,"miscellaneous"
"15395","433","Adze","A4","Harris Free Public Library and Museum, Preston,5,Presented by Edmund Dickson, Esq.","England,Lancashire,Martinmere, near","Martin Mere, Burscough, Ormskirk, Lancashire L40, UK","53.6225","-2.868610999999987","","None","None","None","127","20","33","155","","","18","Width: edge 33mm; section 20mm; 22mm,Weight: 155.182 gms","","Palstave No. 6","","","","Joellen mcGann","https://farm4.staticflickr.com/3947/14980275333_090fed7240_b.jpg","https://www.flickr.com/photos/MicroPasts/14980275333","superuser",-2.8686,53.6225,"miscellaneous"
"15396","433","Palstave Adze","A4","Mortimer Archaeological Collection,Hull Munic. Mus.,143","England,Lincolnshire,Messingham","Messingham, North Lincolnshire, UK","53.5275869","-0.6511980000000221","","None","None","None","107","17","","119","Brown","Smooth","18","","","","Palstave (may have been Chisel or Adze)","Hull Museums, No. 213, page 26, Ref. 86","","Joellen mcGann","https://farm4.staticflickr.com/3936/15600432675_a2e792f6c7_b.jpg","https://www.flickr.com/photos/MicroPasts/15600432675","superuser",-0.6512,53.5276,"miscellaneous"
"15397","433","Palstave Adze","","Hull Museum, 148","England,Lincolnshire,Messingham,1926-27","Messingham, North Lincolnshire, UK","53.5275869","-0.6511980000000221","","None","None","1926","109","20","34","142","Bronze to brown patina, flecked green in places.","","18","Thickness: 18mm; 17mm,Weight: 141.75 gms","","","Beautiful condition. Very sharp edge.","Figured and described in ""The Naturalist"", May 1927, p. 140.","","Joellen mcGann","https://farm4.staticflickr.com/3956/15601269242_07e6753c7b_b.jpg","https://www.flickr.com/photos/MicroPasts/15601269242","superuser",-0.6512,53.5276,"miscellaneous"
"15398","433","Palstave Chisel Transverse Axe-Like","A4","Doncaster Museum, 54","England,Lincolnshire,Sandtoft,1816,on the surface","Sandtoft, Doncaster, North Lincolnshire DN8, UK","53.565174","-0.8787770000000137","","None","None","1816","124","22","23","120","","Corroded","23","Width: edge 23mm; middle 22mm; butt 9mm,Thickness: 23mm; 6.5mm","Bronze","","The edge and the socket are in opposite planes.","","","Joellen mcGann","https://farm4.staticflickr.com/3939/15413815959_59fe1d569c_b.jpg","https://www.flickr.com/photos/MicroPasts/15413815959","superuser",-0.8788,53.5652,"miscellaneous"
"15399","433","Collar Joint","","Norwich Castle Museum, Acc. No. 59.108.954","England,Norfolk,Norwich,Eaton,UNE 1884/5,Hoard found 6 Ft deep in digging foundations for new buildings (exact site unknown)","Eaton, Norwich, Norwich, Norfolk NR2, UK","52.62126","1.271429000000012","","None","None","1884","","","","","","","","","","Part of Hoard","Diam. 65mm; Ht. 21mm,? cf. Evans A.B.I., Fig. 503","Proc. Soc. Ant. Lond. 2 Ser, XI, 1885, 42-52","","Joellen mcGann","https://farm4.staticflickr.com/3951/15414324688_59fe1d569c_b.jpg","https://www.flickr.com/photos/MicroPasts/15414324688","superuser",1.2714,52.6213,"miscellaneous"
"15400","433","Flanged Disc","NC","Norwich Castle Museum,Acc. No. 108.954 (59)","England,Norfolk,Norwich,Eaton,Hoard found 6 ft deep in digging foundations for new buildings, 1884.,Exact site unknown","Eaton, Norwich, Norwich, Norfolk NR2, UK","52.62126","1.271429000000012","","None","None","1884","","","","","","","","","","Part of hoard.","Diameter 65mm; Height: 22mm","Proc. Soc. Ant. Lond. 2nd ser. XI (1885) 42-52.,Bronze Age Metalwork in Norwich Castle Museum (1966) 28 and Fig. 77.","Treated 1968-69.","Joellen mcGann","https://farm4.staticflickr.com/3949/15576760646_1500725e17_b.jpg","https://www.flickr.com/photos/MicroPasts/15576760646","superuser",1.2714,52.6213,"miscellaneous"
"15401","433","Four Cast Fragments","","London, British Museum, 1902.5-15.21","England,Shropshire,Clungunford,Broadward Hall","Clungunford, Craven Arms, Shropshire SY7, UK","52.4036029","-2.884545000000003","","None","None","None","","","","","","","","","","","","","See new index.,CI","Joellen mcGann","https://farm4.staticflickr.com/3953/15414835600_4824905009_b.jpg","https://www.flickr.com/photos/MicroPasts/15414835600","superuser",-2.8845,52.4036,"miscellaneous"
"15402","433","Six Nondescript and Amorphous Fragments","","London, British Museum, WG unregistered","England,Shropshire,Clungunford,Broadward Hall","Clungunford, Craven Arms, Shropshire SY7, UK","52.4036029","-2.884545000000003","","None","None","None","","","","","","","","","","","","","See new index.,CI","Joellen mcGann","https://farm4.staticflickr.com/3949/15414324538_ef1baf9e32_b.jpg","https://www.flickr.com/photos/MicroPasts/15414324538","superuser",-2.8845,52.4036,"miscellaneous"
"15403","433","Mould for Socketed Axe","","BM, OA 116","England,Somerset,Quantocks","Quantocks, Bath, Bath and North East Somerset BA2 5PF, UK","51.3608674","-2.3588349000000335","ST 13","None","None","None","","","","","","","","","","","","","CI","Joellen mcGann","https://farm4.staticflickr.com/3953/15601268892_75f88e75b0_b.jpg","https://www.flickr.com/photos/MicroPasts/15601268892","superuser",-2.3588,51.3609,"miscellaneous"
"15404","433","Several Axes","","Unknown","England,Staffordshire,Norbury,Oulton","Oulton, Stone, Staffordshire ST15, UK","52.9180925","-2.135705700000017","c. SJ 78 22","None","None","None","","","","","","","","","","1a. Hoard","","","Archive: AFI,PRBAF: SI,Ext.: CI,Rec. SN Dec. 78,Source: R","Joellen mcGann","https://farm4.staticflickr.com/3949/15414835530_70b8871f3d_b.jpg","https://www.flickr.com/photos/MicroPasts/15414835530","superuser",-2.1357,52.9181,"miscellaneous"
"15405","433","Axe Blade, Fragment Probably from a Palstave","","Ipswich Museum,Christchurch Mansion Collection,No. 1920.51.16","England,Suffolk,""Herr...."",June 9th 1868,Probably Herringswell, perhaps Herringfleet","Herringswell, Bury Saint Edmunds, Suffolk IP28, UK","52.301184","0.5161849999999504","","9","6","1868","80","27","69","251","Green and bronze patina","Slightly bruised","25","","Bronze","","Condition good.","","Labelled: ""Suffolk"" (Found at Herr..., Jun 9, 1868""),CI, SI","Joellen mcGann","https://farm4.staticflickr.com/3945/15576760456_9f4fe50307_b.jpg","https://www.flickr.com/photos/MicroPasts/15576760456","superuser",0.5162,52.3012,"miscellaneous"
"15406","433","Cake Frag.","","London, British Museum, 58.1-13.2","England,Suffolk,Martlesham","Martlesham, Suffolk, UK","52.073269","1.2805650000000242","TM 25 47","None","None","None","77","58","","","","","33","","","Found with Roman bronze pedestal??","","","CI","Joellen mcGann","https://farm4.staticflickr.com/3938/14980274763_19516d97ce_b.jpg","https://www.flickr.com/photos/MicroPasts/14980274763","superuser",1.2806,52.0733,"miscellaneous"
"15407","433","Axe Blade","","Worthing Museum, 54/441,Presented 17 July 1954 by F. L. Williams, 2 Peveril Drive, Sompting","England,Sussex (West),East Preston,The Ridings,""Seaward""","The Ridings, East Preston, Littlehampton, West Sussex BN16 2TW, UK","50.8061608","-0.4853094999999712","TQ 0683 01875","None","None","None","36","30","","","","Dull milky green patina; much pitted to pale green dusty pocks, or purple brown sur.; lumpy corr. developments also.","","","","1b. Hoard","Dimensions: EL 35.5; EWe 30.3,Manufacture: bl. tip hollow on one side; well curved e. bev. close to break on either face,Condition: Most of edge chipped, or patina flaked; main break prob. recent - grey-brown colour.,Attached Material: Fawn Soil traces.","","Labels/Markings: white ink: 54.441,Archive: PIF; AFI,PRBAF: DF (C); SI,Ext. CI,Rec.: SN Nov. 78,Source MV,Old Card: 1","Joellen mcGann","https://farm6.staticflickr.com/5605/15414438527_493533b6f3_b.jpg","https://www.flickr.com/photos/MicroPasts/15414438527","superuser",-0.4853,50.8062,"miscellaneous"
"15408","433","Palstave","Frag","Worthing Museum, 54/441","England,Sussex,East Preston,""Seaward"",The Ridings,Discovered by workmen digging a drainage inspection box immediately to the south of the front door of ""Seaward"", Found 18 ins. deep, July 1954","The Ridings, East Preston, Littlehampton, West Sussex BN16 2TW, UK","50.8061608","-0.4853094999999712","TQ 068018","None","7","1954","","","","","","","","","","9 implements found only one palstave and this fragment remaining.","Frag of blade.","","","Joellen mcGann","https://farm6.staticflickr.com/5615/15576760406_abf4d1808d_b.jpg","https://www.flickr.com/photos/MicroPasts/15576760406","superuser",-0.4853,50.8062,"miscellaneous"
"15409","433","Axe Blade","","Bolton, Mr. J. - private,Scotland House, Binested, Sussex","England,Sussex (West),Madehurst,Rewell Hill","Madehurst, Arundel, West Sussex BN18, UK","50.88476499999999","-0.6000699999999597","c. SU 9952 0972","None","None","None","","","","","","","","","","1b. Hoard","","","Archive: AFI,PRBAF: DF(S); SI,Ext.: CI,Rec.: SN April 79,Source: Sb 1,Sub. Inf.: Newbury, 30/4/79","Joellen mcGann","https://farm6.staticflickr.com/5600/15414438267_4e13f4108b_b.jpg","https://www.flickr.com/photos/MicroPasts/15414438267","superuser",-0.6001,50.8848,"miscellaneous"
"15410","433","Jet","","British Museum, W.G. 2162,Given by J. Pierpont Morgan, Esq. 1909,Greenwell Collection","England,Sussex (East),Lewes","Lewes, Lewes, East Sussex, UK","50.87387200000001","0.008780000000001564","","None","None","None","43","38","","54","Green","Green corroded","","","","Hoard of 5 palstaves, 7 socketed axes, 1 fragment, 1 jet, and 12 copper cakes.","Oval top; unequal ribs below","","Almost OK,New drawing available.,CI","Joellen mcGann","https://farm6.staticflickr.com/5606/14980274213_86b866d834_b.jpg","https://www.flickr.com/photos/MicroPasts/14980274213","superuser",0.0088,50.8739,"miscellaneous"
