"taskID","userID","objectType","rightCorner","collection","site","toSearch","Lat","Lon","gridRef","dateDiscoveryDay","dateDiscoveryMonth","dateDiscoveryYear","length","width","edge","weight","patina","surface","thickness","other","composition","associations","description","publications","remarks","inputBy","imageURL","flickrURL","Processing","lon","lat","project"
"22959","433","Ring","","London, British Museum,93.6-18.12","England,Hampshire,Selbourne,Blackmoor,Woolmer Forest,Hoard I,1840","Woolmer Forest, Hampshire, UK","51.0857837","-0.8658609000000297","SU 78 33","None","None","1840","","20","","","","","","","","7-13","Diameter: 31","","CI","Joellen mcGann","https://farm6.staticflickr.com/5564/14952000739_dc70712205_b.jpg","https://www.flickr.com/photos/MicroPasts/14952000739","superuser",-0.8659,51.0858,"selborne"
"22960","433","Ring","","London, British Museum, 93.6-18.13","England,Hampshire,Selbourne,Blackmoor,Woolmer Forest,Hoard I,1840","Woolmer Forest, Hampshire, UK","51.0857837","-0.8658609000000297","SU 78 33","None","None","1840","","10","","","","","","","","7-13","Diam.: 30","","CI","Joellen mcGann","https://farm4.staticflickr.com/3896/15138322212_1db5acc1b6_b.jpg","https://www.flickr.com/photos/MicroPasts/15138322212","superuser",-0.8659,51.0858,"selborne"
"22961","433","Spearhead","","London, British Museum, WG 2100","England,Hampshire,Selbourne,Blackmoor,Woolmer Forest,1867,Hoard III","Woolmer Forest, Hampshire, UK","51.0857837","-0.8658609000000297","","None","None","1867","317","30","","","","Small spots of green corrosion (Mar. 74)","","","","91.5-14.4-59; WG 2100-2112","","VCH Hants, I, 341, fig. 31.","CI","Joellen mcGann","https://farm6.staticflickr.com/5578/14952153168_fbd5d809cf_b.jpg","https://www.flickr.com/photos/MicroPasts/14952153168","superuser",-0.8659,51.0858,"selborne"
"22962","433","Spearhead VA","P","British Muesum, W.G. 2101,Given by J. Pierpont Morgan, Esq.,(Greenwell Collection),1909","England,Hampshire,Selborne,Blackmoor,Woolmer Forest,Found about 1867 between Hogmoor and Blackmoor House.","Woolmer Forest, Hampshire, UK","51.0857837","-0.8658609000000297","SU 78 33","None","None","1867","233","45","","255","Metallic bronze","Non-corroded,(March 1974 small spot of green corrosion)","18","","","2100-2112; 4 Spearheads, 9 Lanceheads","Ribbed blades, rivet holes.","Victoria Hist.: Hants., 1, 241, fig. 31.","AOK,ND74,CI","Joellen mcGann","https://farm6.staticflickr.com/5553/15138689215_2044f17dd4_b.jpg","https://www.flickr.com/photos/MicroPasts/15138689215","superuser",-0.8659,51.0858,"selborne"
"22963","433","Spearhead","","London, British Museum, WG 2101","England,Hampshire,Selborne,Blackmoor,Woolmer Forest,1867,Hoard III","Woolmer Forest, Hampshire, UK","51.0857837","-0.8658609000000297","","None","None","1867","282","31","","","","Small spots of green corrosion (Mar. 74)","","","","91.5-14.4-58; W.G. 2100-2112","","VCH Hants, I, 341, fig. 31","ND74,CI","Joellen mcGann","https://farm4.staticflickr.com/3908/14952039760_f7abbea728_b.jpg","https://www.flickr.com/photos/MicroPasts/14952039760","superuser",-0.8659,51.0858,"selborne"
"22964","433","Spearhead V A","T","British Museum,W.G. 2102,Given by J. Pierpont-Morgan Esq.,(Greenwell Collection),1909","England,Hampshire,Selborne,Blackmoor,Woolmer Forest,Found about 1867 between Hogmoor and Blackmoor House","Woolmer Forest, Hampshire, UK","51.0857837","-0.8658609000000297","SU 78 33","None","None","1867","268","40","","215","Metallic bronze","Non-corroded","20","","","2100-2112: 4 Spearheads; 9 Lanceheads","Bevelled edges, rivet holes.","Victoria Hist. Hants, 1, 341, fig. 31.","Inacc,ND74,CI","Joellen mcGann","https://farm6.staticflickr.com/5592/15138321462_e26b21c651_b.jpg","https://www.flickr.com/photos/MicroPasts/15138321462","only good record",-0.8659,51.0858,"selborne"
"22965","433","Spearhead","","London, British Museum, W. G. 2102","England,Hampshire,Selborne,Blackmoor,Woolmer Forest,1867,Hoard III","Woolmer Forest, Hampshire, UK","51.0857837","-0.8658609000000297","","None","None","1867","269","26","","","","","","","","91.5-14.4-58; W.G. 2100-2112","","VCH Hants, 1, 341, fig. 31","ND74,CI","Joellen mcGann","https://farm4.staticflickr.com/3886/15138320952_d16fb1d0e3_b.jpg","https://www.flickr.com/photos/MicroPasts/15138320952","superuser",-0.8659,51.0858,"selborne"
"22966","433","Spearhead VA","T","British Museum,W.G. 2103,Given by J. Pierpont Morgan, Esq.,(Greenwell Collection),1909","England,Hampshire,Selborne,Blackmoor,Woolmer Forest,Found about 1867 between Hogmoor and Blackmoor House.","Woolmer Forest, Hampshire, UK","51.0857837","-0.8658609000000297","SU 78 33","None","None","1867","208","37","","160","Brown","Slightly corroded: March 1974 small spots of green corrosion.","15","","","2100-2112: 4 spearheads; 9 lanceheads","With angular socket along the blade.","Victoria Hist. Hants., 1, 341, fig. 31.","AOK,ND74,CI","Joellen mcGann","https://farm4.staticflickr.com/3897/14951999579_d694bb5c5d_b.jpg","https://www.flickr.com/photos/MicroPasts/14951999579","only good record",-0.8659,51.0858,"selborne"
"22967","433","Spearhead","","London, British Museum, WG 2103","England,Hampshire,Selborne,Woolmer Forest,1867,Hoard III","Woolmer Forest, Hampshire, UK","51.0857837","-0.8658609000000297","","None","None","1867","206","26","","","","Small spots of green corrosion (Mar. 74)","","","","91.5-14.4-58; WG 2100-2112","","VCH Hants, I, 341, fig. 31","ND74,CI","Joellen mcGann","https://farm6.staticflickr.com/5566/14952151298_eeef671b9b_b.jpg","https://www.flickr.com/photos/MicroPasts/14952151298","only good record",-0.8659,51.0858,"selborne"
"22968","433","Spearhead V A","T","British Museum, W.G. 2104,Given by J. Pierpont Morgan, Esq.,(Greenwell Collection),1909","England,Hampshire,Selborne,Blackmoor,Woolmer Forest,Found about 1867 between Hogmoor and Blackmoor House","Woolmer Forest, Hampshire, UK","51.0857837","-0.8658609000000297","SU 78 33","None","None","1867","88","32","","50","Metallic bronze","Non-corroded","16","","","2100-2112; 4 spearheads, 9 lanceheads","With large socket and rivet holes","Victoria Hist. Hants., 1, 341, fig. 31","Inacc,ND74,CI","Joellen mcGann","https://farm4.staticflickr.com/3916/15115689466_560ae08c05_b.jpg","https://www.flickr.com/photos/MicroPasts/15115689466","superuser",-0.8659,51.0858,"selborne"
"22969","433","Spearhead","","London, British Museum, W. G. 2104","England,Hampshire,Selborne,Blackmoor,Woolmer Forest,1867,Hoard III","Woolmer Forest, Hampshire, UK","51.0857837","-0.8658609000000297","","None","None","1867","86","25","","","","","","","","91.5-14.4-58,W.G. 2100-2112","","VCH Hants, 1, 341, fig. 31","ND74,CI","Joellen mcGann","https://farm6.staticflickr.com/5554/14952038070_9efae472a2_b.jpg","https://www.flickr.com/photos/MicroPasts/14952038070","superuser",-0.8659,51.0858,"selborne"
"22970","433","Spearhead V","T","British Museum,W.G. 2105,Given by J. Pierpont Morgan, Esq.,(Greenwell Collection),1909","England,Hampshire,Selborne,Blackmoor,Woolmer Forest,Found about 1867 between Hogmoor and Blackmoor House","Woolmer Forest, Hampshire, UK","51.0857837","-0.8658609000000297","SU 78 33","None","None","1867","85","34","","71","Dark brown","Corroded","14","","","2100-2112; 4 spearheads; 9 lanceheads","With seam down the socket and rivet holes","Victoria Hist. Hants, 1, 341, fig. 31","AOK,ND74,CI","Joellen mcGann","https://farm6.staticflickr.com/5552/15138686695_88f31c0a37_b.jpg","https://www.flickr.com/photos/MicroPasts/15138686695","superuser",-0.8659,51.0858,"selborne"
"22971",,,,,,,,,,,,,,,,,,,,,,,,,,,"https://farm6.staticflickr.com/5579/15135720371_d31e6cb197_b.jpg",,"merged",,,"selborne"
"22972",,,,,,,,,,,,,,,,,,,,,,,,,,,"https://farm6.staticflickr.com/5553/15138319722_f5f0c6cb2b_b.jpg",,"merged",,,"selborne"
"22973","734","Spearhead","RED DOT","LONDON, British Museum, WG 2106","HANTS,, Selborne,, Blackmoor,, Woolmer Forest, 1867, Hoard III","",,,"","None","None","1867","82","30","","","","","","4-part, hand-drawn illustration, including 2 cross-sections.  Including notation:  WG 2106.","","91.  5-14.  4-58  /   WG 2100 - 2112","","VCH Hants., 1, 341, fig. 31","In lower left corner:, , , , ND  74, , , , In lower right corner [in pencil]:, , , , C 1","Marilyn Kohn","https://farm6.staticflickr.com/5564/14952150038_7b06bc012a_b.jpg","https://www.flickr.com/photos/MicroPasts/14952150038","only good record",,,"selborne"
"22974","734","Lancehead  V  A","RED DOT, followed by notation in pencil:, , , , T","British Museum., , W. G. 2107, , Given by J. Pierpont Morgan Esqre., , (Greenwell Collection), , 1909","England, Hants., Selborne, Blackmoor, Woolmer Forest., Found about 1867 between, Hogmoor & Blackmoor House.","",,,"SU  78   33","None","None","1867","85","31","","52","Brown","corroded","15","3-part, hand-drawn illustration, including 2 cross-sections.","","2100 -  2112   4 Spearheads    9 Lanceheads","Bevelled blades","Victoria Hist. Hants, , 1, 341.  fig 31.","LOWER LEFT CORNER [in pencil]:, , , , Inacc, ,      ND   74, , , , , , LOWER RIGHT CORNER [in pencil]:, , , , C 1","Marilyn Kohn","https://farm6.staticflickr.com/5574/15135720091_060528b4bf_b.jpg","https://www.flickr.com/photos/MicroPasts/15135720091","only good record",,,"selborne"
"22975","734","Spearhead","RED DOT","LONDON, British Museum, WG 2107","HANTS., Selborne,, Blackmoor,, Woolmer Forst, 1867, Hoard III","",,,"","None","None","1867","85","28","","","","","","4-part, hand-drawn illustration, including 2 cross sections.  With notation: WG 2107.","","91. 5 - 14.   4 - 58  /   WG 2100 - 21112","","VCH Hants, 1, 341, fig. 31","LOWER LEFT CORNER:, , , , ND  74, , , , LOWER RIGHT CORNER [in pencil]:, , , , C 1","Marilyn Kohn","https://farm4.staticflickr.com/3906/14952146327_89e0423bf6_b.jpg","https://www.flickr.com/photos/MicroPasts/14952146327","only good record",,,"selborne"
"22976",,,,,,,,,,,,,,,,,,,,,,,,,,,"https://farm6.staticflickr.com/5580/15115687936_18ea2abeb7_b.jpg",,"merged",,,"selborne"
"22977","734","SPEARHEAD","RED DOT","LONDON, British Museum, WG 2108","HANTS,, Selborne,, Blackmoor,, Woolmer Forest, 1867, Hoard III","",,,"","None","None","1867","35","30","","","","","","4-part, hand-drawn illustration, including 2 cross-sections.  With notation:  WG. 2108.","","91. 5-14.  4-58  /  WG  2100 - 2112","","VEH Hants. 1, 341, fig. 31","LOWER LEFT CORNER:, , , , ND  74, , , , LOWER RIGHT CORNER [in pencil]:, , , , C 1","Marilyn Kohn","https://farm4.staticflickr.com/3858/14952149148_39d2c70026_b.jpg","https://www.flickr.com/photos/MicroPasts/14952149148","only good record",,,"selborne"
"22978","734","Lancehead   V   A   on next line, notation in pencil:  ""Missing?""","RED DOT, , , , followed by notation [in pencil]:, , , , T","British Museum, , W. G. 2109, , Given by J. Pierpont Morgan Esqre., , (Greenwell Collection), ,   1909","England, Hants, Selborne, Blackmoor, Woolmer Forest, Found about 1867 between Hogmoor & Blackmoor House.","",,,"SSU   78    33","None","None","1867","700","34","","47","metallic & black","corroded","18","3-part, hand-drawn illustration, including 2 cross-sections.  With dimensions.","","2100 -- 2112   4 Spearheads 9 Lanceheads","with blunt edges","Victoria Hist. Hants., , 1, 341, fig 31","LOWER RIGHT CORNER [in pencil]:, , , , C 1","Marilyn Kohn","https://farm4.staticflickr.com/3904/15138685695_f311807b93_b.jpg","https://www.flickr.com/photos/MicroPasts/15138685695","only good record",,,"selborne"
"22979","658","Lancehead V","T","British Museum,W.G. 2110,Given by J. Pierpont Morgan, Esq.,(Greenwelll Collection),1909","England,Hants,Selborne,Blackmoor,Woolmer Forest,Found about 1867 between,Hogmoor & Blackmoor House.","Blackmoor, Liss, Hampshire GU33, UK","51.09587","-0.8876400000000331","SU 78,33","None","None","None","89","33","","52","black patina/","slightly corroded","20","ND 74","","2100-2112,4 Spearheads,9 Lanceheads","Imperfect casting.","Victoria Hist. Hants,1, 341. fig. 31","A OK","Susan Magyarody","https://farm4.staticflickr.com/3864/15115686926_223a85afb1_b.jpg","https://www.flickr.com/photos/MicroPasts/15115686926","only good record",-0.8876,51.0959,"selborne"
"22980","658","SPEARHEAD","","LONDON, British Museum, W.G. 2110","HANTS,,Selborne,,Blackmoor,Woolmer Forest, 1867,Hoard III","Blackmoor, Liss, Hampshire GU33, UK","51.09587","-0.8876400000000331","","None","None","1867","89","29","","","","","","ND 74","","91.5-14. 4-58,W.G. 2100-2112","","VCH Hants, I, 341, fig. 31","","Susan Magyarody","https://farm4.staticflickr.com/3850/14951996249_fc215129fb_b.jpg","https://www.flickr.com/photos/MicroPasts/14951996249","only good record",-0.8876,51.0959,"selborne"
"22981","658","Lancehead V","T","British Museum,W.G. 2111,Given by J. Pierpont Morgan, Esq.,(Greenwell Collection),1909","England,Hants,Selborne,Blackmoor,Woolmer Forest,Found about 1867 between,Hogmoor & Blackmoor House.","Blackmoor, Liss, Hampshire","51.09587","-0.8876400000000331","SU 78,33","None","None","1867","84","30","","51","black","slightly corroded","14","Inacc,ND 74","","2100-2112,4 Spearheads,9 Lanceheads","Bevelled blades.","Victoria Hist. Hants,1, 341, fig. 31","","Susan Magyarody","https://farm4.staticflickr.com/3868/14951996059_a7f3128453_b.jpg","https://www.flickr.com/photos/MicroPasts/14951996059","only good record",-0.8876,51.0959,"selborne"
"22982","658","SPEARHEAD","","LONDON, British Museum, W.G. 2111","HANTS,Selborne,,Blackmoor,Woolmer Forest, 1867,Hoard III","Blackmoor, Liss, Hampshire","51.09587","-0.8876400000000331","","None","None","1867","83","29","","","","","","ND 74","","915-14.4-58,W.G. 2100-2112","","VCH Hants, 1, 341, fig. 31","","Susan Magyarody","https://farm6.staticflickr.com/5575/14952144757_decff82fc2_b.jpg","https://www.flickr.com/photos/MicroPasts/14952144757","only good record",-0.8876,51.0959,"selborne"
"22983","658","Lancehead V","T","British Museum,W.G. 2112,Given by J. Pierpont Morgan, Esq.,(Greenwell Collection),1909","England,Hants,Selborne,Blackmoor,Woolmer Forest,Found about 1867 between,Hogmoor & Blackmoor House.","Blackmoor, Liss, Hampshire GU33, UK","51.09587","-0.8876400000000331","SU 78,33","None","None","1867","74","28","","46","dark bronze patina.","non-corroded","14","Inacc.,ND 74","","2100-2112,4 Spearheads,9 Lanceheads","Stumpy.","Victoria Hist. Hants.,1, 341, fig. 31","","Susan Magyarody","https://farm6.staticflickr.com/5587/14951996509_2462a2a304_b.jpg","https://www.flickr.com/photos/MicroPasts/14951996509","only good record",-0.8876,51.0959,"selborne"
"22984","658","SPEARHEAD","","LONDON, British Museum, W.G. 2112","HANTS,,Selborne,,Blackmoor,,Woolmer Forest, 1867,Hoard III","Blackmoor, Liss, Hampshire","51.09587","-0.8876400000000331","","None","None","1867","73","26","","","","","","","","91.5-14. 4-58,W.G. 2100-2112","","VCH Hants, 1, 341, fig. 31","","Susan Magyarody","https://farm4.staticflickr.com/3874/14952034960_37376ffb3f_b.jpg","https://www.flickr.com/photos/MicroPasts/14952034960","only good record",-0.8876,51.0959,"selborne"
"22985","580","Spearhead","","London, British Museum, 91.5-14.4","Hants, Selborne, Blackmoor, Woolmer Forest, 1867, Hoard III","Woolmer Forest, Hampshire, Royaume-Uni","51.0857837","-0.8658609000000297","SU 78 33","None","None","1867","290","31 (socket)","","","","Corroded","","","","91.5-14. 4-58, W.G. 2100-2112","","","ND74, C1","Denis Antoine","https://farm6.staticflickr.com/5554/15115685756_6550767e15_b.jpg","https://www.flickr.com/photos/MicroPasts/15115685756","only good record",-0.8659,51.0858,"selborne"
"22986","580","Spearhead V A","L","British Museum, 91-5-14-4, Purchased from Messrs. Rollin & Fenardent Roots Sale, Christies, 20th April 1891","England, Hants, Selborne, Blackmoor, Part of a hoard found about 1867 between Hogmoor & Blackmoor House, Woolmer Forest, 1867","Woolmer Forest, Hampshire, Royaume-Uni","51.0857837","-0.8658609000000297","SU 78 33","None","None","1867","288","64","","275","black & bronze","corroded","19","","","4-58, 20 Spearheads; 11 Fragments of Swords; 1 Gouge; 16 Rings; 7 Lanceheads","Two lunate openings","","Inacc., See new index, C1","Denis Antoine","https://farm4.staticflickr.com/3882/15115685606_d946740d55_b.jpg","https://www.flickr.com/photos/MicroPasts/15115685606","only good record",-0.8659,51.0858,"selborne"
"22987","580","Spearhead","","London, British Museum, 91.5-14.4","Hants, Selborne, Blackmoor, Woolmer Forest, 1867, Hoard III","Woolmer Forest, Hampshire, Royaume-Uni","51.0857837","-0.8658609000000297","","None","None","None","290","31 (socket)","","","","corroded","","","","91.5-14. 4-58, W.G. 2100-2112","","","ND74, C1","Denis Antoine","https://farm4.staticflickr.com/3922/15135716931_35ba015137_b.jpg","https://www.flickr.com/photos/MicroPasts/15135716931","only good record",-0.8659,51.0858,"selborne"
"22988","580","Spearhead","","London, British Museum, 91.5-14.4","Hants, Selborne, Blackmoor, Woolmer Forest, 1867, Hoard III","Woolmer Forest, Hampshire, Royaume-Uni","51.0857837","-0.8658609000000297","SU 78 33","None","None","None","306","30 (socket)","","","","small spots of green corrosion (Mar. 74)","","","","91.5-14. 4-58, W.G. 2100-2112","","","ND74, C1","Denis Antoine","https://farm4.staticflickr.com/3837/15138316292_3200458f1b_b.jpg","https://www.flickr.com/photos/MicroPasts/15138316292","only good record",-0.8659,51.0858,"selborne"
"22989","580","Spearhead V A","P","British Museum, 91-5-14-5, Purchased from Messrs. Rollin & Fenardent, Roots Sale, Christies, 20th April 1891","England, Hants, Selborne, Blackmoor, Part of a hoard found about 1867 between Hogmoor & Blackmoor House, Woolmer Forest","Woolmer Forest, Hampshire, Royaume-Uni","51.0857837","-0.8658609000000297","SU 78 33","None","None","1867","305","43","","279","brown & bronze","slightly corroded","17","","","4-58, 20 Spearheads; 11 Fragments of Swords; 1 Gouge; 16 Rings; 7 Lanceheads","Leaf shaped with slight riblings, wood in socket.","","March 1974 small spots of green corrosion, A OK, See new index, C1","Denis Antoine","https://farm4.staticflickr.com/3907/15138682545_f256a53640_b.jpg","https://www.flickr.com/photos/MicroPasts/15138682545","superuser",-0.8659,51.0858,"selborne"
"22990","580","Spearhead","","London, British Museum, 91.5-14.5","Hants, Selborne, Blackmoor, Woolmer Forest, 1867, Hoard III","Woolmer Forest, Hampshire, Royaume-Uni","51.0857837","-0.8658609000000297","","None","None","1867","306","30 (socket)","","","","small spots of green corrosion (Mar. 74)","","","","91.5-14. 4-58, W.G. 2100-2112","","","ND74, C1","Denis Antoine","https://farm4.staticflickr.com/3874/14952143267_a0eedbd3bf_b.jpg","https://www.flickr.com/photos/MicroPasts/14952143267","superuser",-0.8659,51.0858,"selborne"
"22991","580","Spearhead","","London, British Museum, 91.5-14.6","Hants, Selborne, Blackmoor, Woolmer Forest, 1867, Hoard III","Woolmer Forest, Hampshire, Royaume-Uni","51.0857837","-0.8658609000000297","SU 78 33","None","None","1867","278","29 (socket)","","","","","","","","91.5-14. 4-58, W.G. 2100-2112","","","ND74, C1","Denis Antoine","https://farm4.staticflickr.com/3885/15135716031_a2a53420df_b.jpg","https://www.flickr.com/photos/MicroPasts/15135716031","only good record",-0.8659,51.0858,"selborne"
"22992","580","Spearhead V A","P","British Museum, 91-5-14-6, Purchased from Messrs. Rollin & Fenardent, Roots Sale, Christies, 20th April 1891","England, Hants, Selborne, Blackmoor, Woolmer Forest, Part of a hoard found about 1867 between Hogmoor & Blackmoor House.","Woolmer Forest, Hampshire, Royaume-Uni","51.0857837","-0.8658609000000297","SU 78 33","None","None","1867","278","40","","231","black & bronze","slightly corroded","17","","","4-58, 20 Spearheads; 11 Fragments of Swords; 1 Gouge; 16 Rings; 7 Lanceheads","Blades not prolonged, wood in socket","","AOK, See new index, C1","Denis Antoine","https://farm6.staticflickr.com/5556/15138682205_77742f7816_b.jpg","https://www.flickr.com/photos/MicroPasts/15138682205","superuser",-0.8659,51.0858,"selborne"
"22993","580","Spearhead","","London, British Museum, 91.5-14.6","Hants, Selborne, Blackmoor, Woolmer Forest, 1867, Hoard III","Woolmer Forest, Hampshire, Royaume-Uni","51.0857837","-0.8658609000000297","","None","None","1867","278","29 (socket)","","","","","","","","91.5-14. 4-58, W.G. 2100-2112","","","ND74, C1","Denis Antoine","https://farm4.staticflickr.com/3897/14952145528_f1bcfffce1_b.jpg","https://www.flickr.com/photos/MicroPasts/14952145528","superuser",-0.8659,51.0858,"selborne"
"22994","580","Spearhead","","London, British Museum, 91.5-14.7","Hants, Selborne, Blackmoor, Woolmer Forest, 1867, Hoard III","Woolmer Forest, Hampshire, Royaume-Uni","51.0857837","-0.8658609000000297","SU 78 33","None","None","1867","248","26 (socket)","","","","","","","","91.5-14. 4-58, W.G. 2100-2112","","","ND74, C1","Denis Antoine","https://farm4.staticflickr.com/3835/15138315472_571c8ec732_b.jpg","https://www.flickr.com/photos/MicroPasts/15138315472","only good record",-0.8659,51.0858,"selborne"
"22995","580","Spearhead V A","T","British Museum, 91-5-14-7, Purchased from Messrs. Rollin & Fenardent, Roots Sale, Christies, 20th April 1891","England, Hants, Selborne, Blackmoor, Woolmer Forest, Part of a hoard found about 1867 between Hogmoor & Blackmoor House.","Woolmer Forest, Hampshire, Royaume-Uni","51.0857837","-0.8658609000000297","SU 78 33","None","None","1867","247","34","","137","metallic bronze","non-corroded","15","","","4-58, 20 Spearheads; 11 Fragments of Swords; 1 Gouge; 16 Rings; 7 Lanceheads","Three dents.","","AOK, See new index, C1","Denis Antoine","https://farm4.staticflickr.com/3864/14951993919_d82320a462_b.jpg","https://www.flickr.com/photos/MicroPasts/14951993919","only good record",-0.8659,51.0858,"selborne"
"22996","580","Spearhead","","London, British Museum, 91.5-14.7","Hants, Selborne, Blackmoor, Woolmer Forest, 1867, Hoard III","Woolmer Forest, Hampshire, Royaume-Uni","51.0857837","-0.8658609000000297","","None","None","1867","248","26 (socket)","","","","","","","","91.5-14. 4-58, W.G. 2100-2112","","","ND74, C1","Denis Antoine","https://farm6.staticflickr.com/5565/15135715451_1bce80618b_b.jpg","https://www.flickr.com/photos/MicroPasts/15135715451","superuser",-0.8659,51.0858,"selborne"
"22997","580","Spearhead","","London, British Museum, 91.5-14.8","Hants, Selborne, Blackmoor, Woolmer Forest, 1867, Hoard III","Woolmer Forest, Hampshire, Royaume-Uni","51.0857837","-0.8658609000000297","SU 78 33","None","None","1867","236","28","","","","small spots of green corrosion (Mar. 74)","","","","91.5-14. 4-58, W.G. 2100-2112","","","ND74, C1","Denis Antoine","https://farm4.staticflickr.com/3879/14952144898_d46373944b_b.jpg","https://www.flickr.com/photos/MicroPasts/14952144898","only good record",-0.8659,51.0858,"selborne"
"22998","580","Spearhead V A","P","British Museum, 91-5-14-8, Purchased from Messrs. Rollin & Fenardent, Roots Sale, Christies, 20th April 1891","England, Hants, Selborne, Blackmoor, Woolmer Forest, Part of a hoard found about 1867 between Hogmoor & Blackmoor House.","Woolmer Forest, Hampshire, Royaume-Uni","51.0857837","-0.8658609000000297","SU 78 33","None","None","1867","235","40","","177","bronze","non corroded","14","","","4-58, 20 Spearheads; 11 Fragments of Swords; 1 Gouge; 16 Rings; 7 Lanceheads","Two ribs.","","March 1974 small spots of green corrosion, AOK, See new index, C1","Denis Antoine","https://farm4.staticflickr.com/3899/14952144818_98af57b8bd_b.jpg","https://www.flickr.com/photos/MicroPasts/14952144818","superuser",-0.8659,51.0858,"selborne"
"22999","580","Spearhead","","London, British Museum, 91.5-14.8","Hants, Selborne, Blackmoor, Woolmer Forest, 1867, Hoard III","Woolmer Forest, Hampshire, Royaume-Uni","51.0857837","-0.8658609000000297","","None","None","1867","236","28","","","","small spots of green corrosion (Mar. 74)","","","","91.5-14. 4-58, W.G. 2100-2112","","","ND74, C1","Denis Antoine","https://farm4.staticflickr.com/3879/14952032120_4d31922fc2_b.jpg","https://www.flickr.com/photos/MicroPasts/14952032120","superuser",-0.8659,51.0858,"selborne"
"23000","580","Spearhead","","London, British Museum, 91.5-14.9","Hants, Selborne, Blackmoor, Woolmer Forest, 1867, Hoard III","Woolmer Forest, Hampshire, Royaume-Uni","51.0857837","-0.8658609000000297","SU 78 33","None","None","1867","229","28","","","","","","","","91.5-14. 4-58, W.G. 2100-2112","","","ND74, C1","Denis Antoine","https://farm6.staticflickr.com/5560/15138314142_e9ec880b09_b.jpg","https://www.flickr.com/photos/MicroPasts/15138314142","superuser",-0.8659,51.0858,"selborne"
"23001","580","Spearhead V","T","British Museum, 91-5-14-9, Purchased from Messrs. Rollin & Fenardent, Roots Sale, Christies, 20th April 1891","England, Hants, Selborne, Blackmoor, Woolmer Forest, Part of a hoard found about 1867 between Hogmoor & Blackmoor House.","Woolmer Forest, Hampshire, Royaume-Uni","51.0857837","-0.8658609000000297","SU 78 33","None","None","1867","230","40","","152","metallic bronze","non-corroded","16","","","4-58, 20 Spearheads; 11 Fragments of Swords; 1 Gouge; 16 Rings; 7 Lanceheads","No ribs, nine dents.","","Inacc., See new index, C1","Denis Antoine","https://farm4.staticflickr.com/3853/14952141217_0c4fc49be5_b.jpg","https://www.flickr.com/photos/MicroPasts/14952141217","superuser",-0.8659,51.0858,"selborne"
"23002","580","Spearhead","","London, British Museum, 91.5-14.9","Hants, Selborne, Blackmoor, Woolmer Forest, 1867, Hoard III","Woolmer Forest, Hampshire, Royaume-Uni","51.0857837","-0.8658609000000297","","None","None","1867","229","28","","","","","","","","91.5-14. 4-58, W.G. 2100-2112","","","ND74, C1","Denis Antoine","https://farm6.staticflickr.com/5564/15135715301_5a8378d793_b.jpg","https://www.flickr.com/photos/MicroPasts/15135715301","superuser",-0.8659,51.0858,"selborne"
"23003","580","Spearhead","","London, British Museum, 91.5-14.10","Hants, Selborne, Blackmoor, Woolmer Forest, 1867, Hoard III","Woolmer Forest, Hampshire, Royaume-Uni","51.0857837","-0.8658609000000297","SU 78 33","None","None","1867","218","","","","","Small spots of green corrosion (Mar. 74)","","","","91.5-14. 4-58, W.G. 2100-2112","","","ND74, C1","Denis Antoine","https://farm4.staticflickr.com/3865/15138313652_4fa697322d_b.jpg","https://www.flickr.com/photos/MicroPasts/15138313652","superuser",-0.8659,51.0858,"selborne"
"23004","580","Spearhead V A","P","British Museum, 91-5-14-10, Purchased from Messrs. Rollin & Fenardent, Roots Sale, Christies, 20th April 1891","England, Hants, Selborne, Blackmoor, Woolmer Forest, Part of a hoard found about 1867 between Hogmoor & Blackmoor House.","Woolmer Forest, Hampshire, Royaume-Uni","51.0857837","-0.8658609000000297","SU 78 33","None","None","1867","218","38","","176","black","corroded","14","March 1974 small spots of green corrosion, A OK, See new index, C1","","4-58, 20 Spearheads; 11 Fragments of Swords; 1 Gouge; 16 Rings; 7 Lanceheads","Two ribs, two dents, wood in socket.","","","Denis Antoine","https://farm4.staticflickr.com/3840/14952140877_ff360424b1_b.jpg","https://www.flickr.com/photos/MicroPasts/14952140877","superuser",-0.8659,51.0858,"selborne"
"23005","580","Spearhead","","London, British Museum, 91.5-14.10","Hants, Selborne, Blackmoor, Woolmer Forest, 1867, Hoard III","Woolmer Forest, Hampshire, Royaume-Uni","51.0857837","-0.8658609000000297","","None","None","1867","218","","","","","small spots of green corrosion (Mar. 74)","","","","91.5-14. 4-58, W.G. 2100-2112","","","ND74, C1","Denis Antoine","https://farm6.staticflickr.com/5552/14952031760_84ed6658a2_b.jpg","https://www.flickr.com/photos/MicroPasts/14952031760","superuser",-0.8659,51.0858,"selborne"
"23006","580","Spearhead","","London, British Museum, 91.5-14.11","Hants, Selborne, Blackmoor, Woolmer Forest, 1867, Hoard III","Woolmer Forest, Hampshire, Royaume-Uni","51.0857837","-0.8658609000000297","SU 78 33","None","None","1867","205","28","","","","","","","","91.5-14. 4-58, W.G. 2100-2112","","","ND74, C1","Denis Antoine","https://farm4.staticflickr.com/3922/15135713921_e29be6f098_b.jpg","https://www.flickr.com/photos/MicroPasts/15135713921","only good record",-0.8659,51.0858,"selborne"
"23007","580","Spearhead V A","P","British Museum, 91-5-14-11, Purchased from Messrs. Rollin & Fenardent, Roots Sale, Christies, 20th April 1891","England, Hants, Selborne, Blackmoor, Woolmer Forest, Part of a hoard found about 1867 between Hogmoor & Blackmoor House.","Woolmer Forest, Hampshire, Royaume-Uni","51.0857837","-0.8658609000000297","SU 78 33","None","None","1867","204","34","","133","black & bronze","corroded","14","","","4-58, 20 Spearheads; 11 Fragments of Swords; 1 Gouge; 16 Rings; 7 Lanceheads","Surface minutely pitted.","","A OK, See new index, C1","Denis Antoine","https://farm6.staticflickr.com/5566/15138313382_afd8f592fb_b.jpg","https://www.flickr.com/photos/MicroPasts/15138313382","only good record",-0.8659,51.0858,"selborne"
"23008","580","Spearhead","","London, British Museum, 91.5-14.11","Hants, Selborne, Blackmoor, Woolmer Forest, 1867, Hoard III","Woolmer Forest, Hampshire, Royaume-Uni","51.0857837","-0.8658609000000297","","None","None","None","205","28","","","","","","","","91.5-14. 4-58, W.G. 2100-2112","","","ND74, C1","Denis Antoine","https://farm4.staticflickr.com/3872/14952139787_c2cbef6475_b.jpg","https://www.flickr.com/photos/MicroPasts/14952139787","only good record",-0.8659,51.0858,"selborne"
"23009","580","Spearhead","","London, British Museum, 91.5-14.12","Hants, Selborne, Blackmoor, Woolmer Forest, 1867, Hoard III","Woolmer Forest, Hampshire, Royaume-Uni","51.0857837","-0.8658609000000297","SU 78 33","None","None","1867","203","29","","","","","","","","91.5-14. 4-58, W.G. 2100-2112","","","ND74, C1","Denis Antoine","https://farm4.staticflickr.com/3843/14952139537_044b1ac949_b.jpg","https://www.flickr.com/photos/MicroPasts/14952139537","only good record",-0.8659,51.0858,"selborne"
"23010","580","Spearhead V A","T","British Museum, 91-5-14-12, Purchased from Messrs. Rollin & Fenardent, Roots Sale, Christies, 20th April 1891","England, Hants, Selborne, Blackmoor, Woolmer Forest, Part of a hoard found about 1867 between Hogmoor & Blackmoor House","Woolmer Forest, Hampshire, Royaume-Uni","51.0857837","-0.8658609000000297","SU 78 33","None","None","1867","201","38","","136","black & bronze","corroded","16","","","4-58, 20 Spearheads; 11 Fragments of Swords; 1 Gouge; 16 Rings; 7 Lanceheads","Extra rivet hole.","","A OK, See new index, C1","Denis Antoine","https://farm4.staticflickr.com/3865/14952030700_afe9cc0ac5_b.jpg","https://www.flickr.com/photos/MicroPasts/14952030700","superuser",-0.8659,51.0858,"selborne"
"23011","580","Spearhead","","London, British Museum, 91.5-14.12","Hants, Selborne, Blackmoor, Woolmer Forest, 1867, Hoard III","Woolmer Forest, Hampshire, Royaume-Uni","51.0857837","-0.8658609000000297","","None","None","1867","203","29","","","","","","","","91.5-14. 4-58, W.G. 2100-2112","","","ND74, C1","Denis Antoine","https://farm4.staticflickr.com/3912/14952030460_ae6f2a96cb_b.jpg","https://www.flickr.com/photos/MicroPasts/14952030460","only good record",-0.8659,51.0858,"selborne"
"23012","580","Spearhead","","London, British Museum, 91.5-14.13","Hants, Selborne, Blackmoor, Woolmer Forest, 1867, Hoard III","Woolmer Forest, Hampshire, Royaume-Uni","51.0857837","-0.8658609000000297","SU 78 33","None","None","1867","196","27","","","","small spots of green corrosion (Mar. 74)","","","","91.5-14. 4-58","","","ND74, C1","Denis Antoine","https://farm6.staticflickr.com/5551/15115681176_693e54ba72_b.jpg","https://www.flickr.com/photos/MicroPasts/15115681176","only good record",-0.8659,51.0858,"selborne"
"23013","580","Spearhead V A","T","British Museum, 91-5-14-13, Purchased from Messrs. Rollin & Fenardent, Roots Sale, Christies, 20th April 1891","England, Hants, Selborne, Blackmoor, Woolmer Forest, Part of a hoard found about 1867 between Hogmoor & Blackmoor House.","Woolmer Forest, Hampshire, Royaume-Uni","51.0857837","-0.8658609000000297","SU 78 33","None","None","1867","195","38","","140","brown","corroded","15","","","4-58, 20 Spearheads; 11 Fragments of Swords; 1 Gouge; 16 Rings; 7 Lanceheads","One rib.","","March 1974 small spots of green corrosion, Inacc., See new index, C1","Denis Antoine","https://farm4.staticflickr.com/3895/14951990789_2e3719771e_b.jpg","https://www.flickr.com/photos/MicroPasts/14951990789","only good record",-0.8659,51.0858,"selborne"
"23014","580","Spearhead","","London, British Museum, 91.5-14.13","Hants, Selborne, Blackmoor, Woolmer Forest, 1867, Hoard III","Woolmer Forest, Hampshire, Royaume-Uni","51.0857837","-0.8658609000000297","x","None","None","1867","196","27","","","","small spots of green corrosion (Mar. 74)","","","","91.5-14. 4-58","","","ND74, C1","Denis Antoine","https://farm4.staticflickr.com/3919/15138678935_a26e10d241_b.jpg","https://www.flickr.com/photos/MicroPasts/15138678935","only good record",-0.8659,51.0858,"selborne"
"23015","580","Spearhead","","London, British Museum, 91.5-14.14","Hants, Selborne, Blackmoor, 1867, Hoard III","Woolmer Forest, Hampshire, Royaume-Uni","51.0857837","-0.8658609000000297","SU 78 33","None","None","1867","167","26","","","","small spots of green corrosion (Mar. 74)","","","","91.5-14. 4-58, W.G. 2100-2112","","","ND74, C1","Denis Antoine","https://farm4.staticflickr.com/3853/14952029830_0eea51a16f_b.jpg","https://www.flickr.com/photos/MicroPasts/14952029830","only good record",-0.8659,51.0858,"selborne"
"23016","580","Spearhead V A","T","British Museum, 91-5-14-14, Purchased from Messrs. Rollin & Fenardent, Roots Sale, Christies, 20th April 1891","England, Hants, Selborne, Blackmoor, Woolmer Forest, Part of a hoard found about 1867 between Hogmoor & Blackmoor House.","Woolmer Forest, Hampshire, Royaume-Uni","51.0857837","-0.8658609000000297","SU 78 33","None","None","1867","167","35","","90","black","corroded","14","","","4-58, 20 Spearheads; 11 Fragments of Swords; 1 Gouge; 16 Rings; 7 Lanceheads","Spring more abrupt.","","March 1974 small spots of green corrosion, Inacc., See new index, C1","Denis Antoine","https://farm4.staticflickr.com/3878/15135712301_bf38e92027_b.jpg","https://www.flickr.com/photos/MicroPasts/15135712301","only good record",-0.8659,51.0858,"selborne"
"23017","580","Spearhead","","London, British Museum, 91.5-14.14","Hants, Selborne, Blackmoor, Woolmer Forest, 1867, Hoard III","Woolmer Forest, Hampshire, Royaume-Uni","51.0857837","-0.8658609000000297","","None","None","1867","167","26","","","","small spots of green corrosion (Mar. 74)","","","","91.5-14. 4-58, W.G. 2100-2112","","","ND74, C1","Denis Antoine","https://farm6.staticflickr.com/5554/15138312272_e137618400_b.jpg","https://www.flickr.com/photos/MicroPasts/15138312272","only good record",-0.8659,51.0858,"selborne"
"23018","580","Spearhead","","London, British Museum, 91.5-14.15","Hants, Selborne, Blackmoor, Woolmer Forest, 1867, Hoard III","Woolmer Forest, Hampshire, Royaume-Uni","51.0857837","-0.8658609000000297","SU 78 33","None","None","1867","102","30","","","","","","","","91.5-14. 4-58, W.G. 2100-2112","","","ND74, C1","Denis Antoine","https://farm4.staticflickr.com/3865/14952141598_e9d657579d_b.jpg","https://www.flickr.com/photos/MicroPasts/14952141598","only good record",-0.8659,51.0858,"selborne"
"23019","580","Spearhead V A","P","British Museum, 91-5-14-15, Purchased from Messrs. Rollin & Fenardent, Roots Sale, Christies, 20th April 1891","England, Hants, Selborne, Blackmoor, Woolmer Forest, Part of a hoard found about 1867 between Hogmoor & Blackmoor House.","Woolmer Forest, Hampshire, Royaume-Uni","51.0857837","-0.8658609000000297","SU 78 33","None","None","1867","259","40","","202","black & bronze","corroded","18","","","4-58, 20 Spearheads; 11 Fragments of Swords; 1 Gouge; 16 Rings; 7 Lanceheads","Much hacked, broken in two.","","Blade missing?, AOK, See new index, C1","Denis Antoine","https://farm6.staticflickr.com/5555/15138311422_0fea2bb894_b.jpg","https://www.flickr.com/photos/MicroPasts/15138311422","superuser",-0.8659,51.0858,"selborne"
"23020","580","Spearhead","","London, British Museum, 91.5-14.15","Hants, Selborne, Blackmoor, Woolmer Forest, 1867, Hoard III","Woolmer Forest, Hampshire, Royaume-Uni","51.0857837","-0.8658609000000297","","None","None","1867","102","30","","","","","","","","91.5-14. 4-58, W.G. 2100-2112","","","ND74, C1","Denis Antoine","https://farm4.staticflickr.com/3846/15138677855_54f5f526fc_b.jpg","https://www.flickr.com/photos/MicroPasts/15138677855","only good record",-0.8659,51.0858,"selborne"
"23021","580","Spearhead","","London, British Museum, 91.5-14.16","Hants, Selborne, Blackmoor, Woolmer Forest, 1867, Hoard III","Woolmer Forest, Hampshire, Royaume-Uni","51.0857837","-0.8658609000000297","SU 78 33","None","None","1867","160","30","","","","","","","","91.5-14. 4-58, W.G. 2100-2112","","","ND74, C1","Denis Antoine","https://farm4.staticflickr.com/3887/15135712061_68b90b1552_b.jpg","https://www.flickr.com/photos/MicroPasts/15135712061","only good record",-0.8659,51.0858,"selborne"
"23022","433","SPearhead V A","T","British Museum, 91.5-14.16,Purchased from Messrs Robbin and Fenardent, Roots Sale, Christies, 20th April 1891","England,Hampshire,Selborne III,Blackmoor,Woolmer Forest,Part of a hoard found about 1867 between Hogmoor and Blackmoor House","Woolmer Forest, Hampshire, UK","51.0857837","-0.8658609000000297","SU 78 33","None","None","1867","161","38","","180","Black and bronze","Corroded","14","","","4-58: 20 spearheads; 7 lanceheads; 11 fragments of swords; 1 gouge; 16 rings","Half of blade lost; hacked; wooden rivet.","","Inacc,See new index,CI","Joellen mcGann","https://farm6.staticflickr.com/5583/14951989339_5e8c44f38e_b.jpg","https://www.flickr.com/photos/MicroPasts/14951989339","superuser",-0.8659,51.0858,"selborne"
"23023","433","Spearhead","","London, British Museum, 91.5-14.16","England,Hampshire,Selborne,Blackmoor,Woolmer Fores,1867,Hoard III","Woolmer Forest, Hampshire, UK","51.0857837","-0.8658609000000297","","None","None","None","160","30","","","","","","","","91.5-14.4-58; W.G. 2100- 2112","","","ND74,CI","Joellen mcGann","https://farm4.staticflickr.com/3921/14951989209_98de7f7131_b.jpg","https://www.flickr.com/photos/MicroPasts/14951989209","superuser",-0.8659,51.0858,"selborne"
"23024","433","Spearhead Frag","","London, British Museum, 91.5-14.17","England,Hampshire,Selborne,Woolmer Forest,1867,Hoard III","Woolmer Forest, Hampshire, UK","51.0857837","-0.8658609000000297","SU 78 33","None","None","1867","95","30","","","","","","","","91.5-14.4-58; W.G. 2100-2112","","","ND 74,CI","Joellen mcGann","https://farm4.staticflickr.com/3925/15135710951_3da43a25d9_b.jpg","https://www.flickr.com/photos/MicroPasts/15135710951","superuser",-0.8659,51.0858,"selborne"
"23025","433","Spearhead V","T","British Museum,91.5.14.17 & 18,Purchased from Messrs. Rollin and Fenardent, Roots Sale, Christies, 20 April 1891","England,Hampshire,Selborne,Blackmoor,Woolmer Forest,Part of a hoard found about 1867 between Hogmoor and Blackmoor House.","Woolmer Forest, Hampshire, UK","51.0857837","-0.8658609000000297","SU 78 33","None","None","1867","97","","","78","Brown","Corroded","","","","4-58: 20 spearheads; 7 lanceheads; 11 fragments of swords; 1 gouge; 16 rings","17) blade missing; 18) point only, two dents,Length: 97mm and 155 mm,Weights: 78 gms and 123 gms.","","Inacc.,Section,CI","Joellen mcGann","https://farm4.staticflickr.com/3869/15115679866_a855467300_b.jpg","https://www.flickr.com/photos/MicroPasts/15115679866","superuser",-0.8659,51.0858,"selborne"
"23026","433","Spearhead Frag","","London, British Museum, 91.5-14.17","England,Hampshire,Selborne,Blackmoor,Woolmer Forest,1867,Hoard III","Woolmer Forest, Hampshire, UK","51.0857837","-0.8658609000000297","","None","None","None","95","30","","","","","","","","91.5-14.4-58; W.G. 2100-2112","","","ND74,CI","Joellen mcGann","https://farm4.staticflickr.com/3857/15138310362_43bd5a2000_b.jpg","https://www.flickr.com/photos/MicroPasts/15138310362","superuser",-0.8659,51.0858,"selborne"
"23027","433","","","","","","51.0857837","-0.8658609000000297","","None","None","None","","","","","","","","","","","","","","Joellen mcGann","https://farm4.staticflickr.com/3925/14952027930_74e17f8103_b.jpg","https://www.flickr.com/photos/MicroPasts/14952027930","superuser",-0.8659,51.0858,"selborne"
"23028","433","Spearhead Frag","","London, British Museum, 91.5-14.18","England,Hampshire,Selborne,Blackmoor,Woolmer Forest,1867,Hoard III","Woolmer Forest, Hampshire, UK","51.0857837","-0.8658609000000297","","None","None","None","158","47","","","","","","","","91.5-14.4-58; W.G. 2100-2112","","","ND 74,CI","Joellen mcGann","https://farm4.staticflickr.com/3856/15135710481_64fc87a25c_b.jpg","https://www.flickr.com/photos/MicroPasts/15135710481","superuser",-0.8659,51.0858,"selborne"
"23029","433","Spearhead Frag","","London, British Museum, 91.5-14.19","England,Hampshire,Selborne,Woolmer Forest,1867,Hoard III","Woolmer Forest, Hampshire, UK","51.0857837","-0.8658609000000297","SU 78 33","None","None","1867","156","35","","","","","","","","91.5-14.4-56; W.G. 2100-2112","","","ND74,CI","Joellen mcGann","https://farm4.staticflickr.com/3870/15135710181_674806758d_b.jpg","https://www.flickr.com/photos/MicroPasts/15135710181","superuser",-0.8659,51.0858,"selborne"
"23030","433","3 Spearhead V","P + Frag 2 other,2 types here","British Museum,91.5.14.19, 20, 21,Purchased from Messrs. Rollin and Fenardent, Roots Sale, Christies, 20th April 1891","England,Hampshire,Selborne,Blackmoor,Woolmer Forest,Part of a hoard found about 1867 between Hogmoor + Blackmoor House","Woolmer Forest, Hampshire, UK","51.0857837","-0.8658609000000297","SU 78 33","None","None","1867","158","","","76","Brown","Corroded","","","","4-58: 20 spearheads; 7 lanceheads; 11 fragments of swords; 1 gouge; 16 rings","19) point only; 20) fragment of centre, rib flattened, two dents; 21) point only,Lengths: 158mm; 40mm; 85mm,Weights: 76 gms; 41 gms; 33 gms","","Inacc,Sections,See new index,CI","Joellen mcGann","https://farm4.staticflickr.com/3868/15115678956_54d57052ce_b.jpg","https://www.flickr.com/photos/MicroPasts/15115678956","superuser",-0.8659,51.0858,"selborne"
"23031","433","Spearhead Frag.","","London, British Museum, 91.5-14.19","England,Hampshire,Selborne,Blackmoor,Woolmer Forest,1867,Hoard III","Woolmer Forest, Hampshire, UK","51.0857837","-0.8658609000000297","","None","None","1867","156","35","","","","","","","","91.5-14.4-56; W.G. 2100-2112","","","ND74,CI","Joellen mcGann","https://farm4.staticflickr.com/3911/14952027480_32da73518d_b.jpg","https://www.flickr.com/photos/MicroPasts/14952027480","superuser",-0.8659,51.0858,"selborne"
"23032","433","Spearhead Frag.","","London, British Museum, 91.5-14.20","England,Hampshire,Selborne,Blackmoor,Woolmer Forest,1867,Hoard III","Woolmer Forest, Hampshire, UK","51.0857837","-0.8658609000000297","SU 78 33","None","None","1867","92","32","","","","","","","","91.5-14.4-58; W.G. 2100-2112","","","ND74,CI","Joellen mcGann","https://farm6.staticflickr.com/5580/15135709551_1d26b741f1_b.jpg","https://www.flickr.com/photos/MicroPasts/15135709551","superuser",-0.8659,51.0858,"selborne"
"23033","433","Spearhead Frag.","","London, British Museum, 91.5-14.20","England,Hampshire,Selborne,Blackmoor,Woolmer Forest,1867,Hoard III","Woolmer Forest, Hampshire, UK","51.0857837","-0.8658609000000297","","None","None","1867","92","32","","","","","","","","91.5-14.4-58,W.G. 2100; 2112","","","ND74,CI","Joellen mcGann","https://farm6.staticflickr.com/5591/14952027310_2a9f72d2be_b.jpg","https://www.flickr.com/photos/MicroPasts/14952027310","superuser",-0.8659,51.0858,"selborne"
"23034","433","Spearhead Frag.","","London, British Museum, 91.5-14.21","England,Hampshire,Selborne,Blackmoor,Woolmer FOrest,1867,Hoard III","Woolmer Forest, Hampshire, UK","51.0857837","-0.8658609000000297","SU 78 33","None","None","1867","87","22","","","","Small spots of green corrosion (Mar. 74)","","","","91.5-14.4-58; W.G. 2100-2112","","","ND74; CI","Joellen mcGann","https://farm6.staticflickr.com/5580/14952026800_e76cf5090e_b.jpg","https://www.flickr.com/photos/MicroPasts/14952026800","superuser",-0.8659,51.0858,"selborne"
"23035","433","Spearhead Frag.","","London, British Museum, 91.5-14.21","England,Hampshire,Selborne,Blackmoor,Woolmer Forest,1867","Woolmer Forest, Hampshire, UK","51.0857837","-0.8658609000000297","","None","None","1867","87","22","","","","Small spots of green corrosion (Mar. 74)","","","","91.5-14.4-58; WG 2100-2112","","","ND74; CI","Joellen mcGann","https://farm6.staticflickr.com/5567/15138309462_678aaa1e1a_b.jpg","https://www.flickr.com/photos/MicroPasts/15138309462","superuser",-0.8659,51.0858,"selborne"
"23036","433","Spearhead Frag.","","London, British Museum, 91.5-14.22","England,Hampshire,Selborne,Blackmoor,Woolmer Forest,1867,Hoard III","Woolmer Forest, Hampshire, UK","51.0857837","-0.8658609000000297","SU 78 33","None","None","1867","68","25","","","","Small spots of green corrosion (Mar. 74)","","","","91.5-14.4-58; W.G. 2100-2112","","","ND74; CI","Joellen mcGann","https://farm4.staticflickr.com/3875/14952026500_4ee2a4845d_b.jpg","https://www.flickr.com/photos/MicroPasts/14952026500","superuser",-0.8659,51.0858,"selborne"
"23037","433","2 Spearheads","Sections,Two types,P + Frag,1 P; 1 other","British Museum,91.5-14.22, 23,Purchased from Messrs. Rollin + Fenardent, Roots Sale, Christies, 20th April 1891","England,Hampshire,Selborne,Blackmoor,Woolmer Forest,Part of a hoard found about 1867 between Hogmoor and Blackmoor House","Woolmer Forest, Hampshire, UK","51.0857837","-0.8658609000000297","SU 78 33","None","None","1867","64","","","33","Brown","Corroded","","","","4-58: 20 spearheads; 7 lanceheads; 11 fragments of swords; 1 gouge; 16 rings","Points only,Length: 64mm; 72mm,Weights: 33 gms; 24 gms","","Inacc.,See new index.,CI","Joellen mcGann","https://farm6.staticflickr.com/5586/15138675565_4a6924aca5_b.jpg","https://www.flickr.com/photos/MicroPasts/15138675565","superuser",-0.8659,51.0858,"selborne"
"23038","433","Spearhead Frag.","","London, British Museum, 91.5-14.22","England,Hampshire,Selborne,Blackmoor,Woolmer Forest,1867,Hoard III","Woolmer Forest, Hampshire, UK","51.0857837","-0.8658609000000297","","None","None","1867","68","25","","","","Small spots of green corrosion (mar. 74)","","","","91.5-14.4-58; W.G. 2100-2112","","","ND74; CI","Joellen mcGann","https://farm6.staticflickr.com/5574/14952026360_2c3c481099_b.jpg","https://www.flickr.com/photos/MicroPasts/14952026360","superuser",-0.8659,51.0858,"selborne"
"23039","433","Spearhead Frag.","","London, British Museum, 91.5-14.23","England,Hampshire,Selborne,Blackmoor,Woolmer Forest,1867,Hoard III","Woolmer Forest, Hampshire, UK","51.0857837","-0.8658609000000297","SU 78 33","None","None","1867","72","32","","","","","","","","91.5-14.4-58; W.G. 2100-2112","","","ND74; CI","Joellen mcGann","https://farm4.staticflickr.com/3893/15115677566_d5a1b04a94_b.jpg","https://www.flickr.com/photos/MicroPasts/15115677566","superuser",-0.8659,51.0858,"selborne"
"23040","580","Spearhead Fragment","","London, British Museum, 91.5-14.23","Hants, Selborne, Blackmoor, Woolmer Forest, 1867, Hoard III","Woolmer Forest, Hampshire, Royaume-Uni","51.0857837","-0.8658609000000297","","None","None","1867","72","32","","","","","","","","91.5-14. 4-58, W.G. 2100-2112","","","ND74, C1","Denis Antoine","https://farm6.staticflickr.com/5553/14951986829_0ae9eff330_b.jpg","https://www.flickr.com/photos/MicroPasts/14951986829","superuser",-0.8659,51.0858,"selborne"
"23041","580","Spearhead","","London, British Museum, 91.5-14.24","Hants, Selborne, Blackmoor, Woolmer Forest, 1867, Hoard III","Woolmer Forest, Hampshire, Royaume-Uni","51.0857837","-0.8658609000000297","SU 78 33","None","None","1867","99","39","","","","","","","","91.5-14. 4-58, W.G. 2100-2112","","","ND74, C1","Denis Antoine","https://farm4.staticflickr.com/3895/14952135447_f70b12c7aa_b.jpg","https://www.flickr.com/photos/MicroPasts/14952135447","superuser",-0.8659,51.0858,"selborne"
"23042","433","Lanceheads V","T","British Museum,91.5-14.24 & 25,Purchased from Messrs, Rollin and Fenardent, Roots Sale, Christies, 20th April 1891","England,Hampshhire,Selborne,Blackmoor,Woolmer Forest,Part of a hoard found about 1867 between Hogmoor and Blackmoor House","Woolmer Forest, Hampshire, UK","51.0857837","-0.8658609000000297","SU 78 33","None","None","1867","102","31","","59","Dark brown","Corroded","17","","","4-58: 20 spearheads; 7 lanceheads; 11 fragments of swords; 1 gouge; 16 rings","Lengths: 102mm; 82mm,Widths: 31mm; 28mm,Thicknesses: 17mm; 14mm,Weights: 59 gms; 49 gms","","AOK,See new index,CI","Joellen mcGann","https://farm4.staticflickr.com/3856/14952135317_23ef4ace6c_b.jpg","https://www.flickr.com/photos/MicroPasts/14952135317","superuser",-0.8659,51.0858,"selborne"
"23043","433","Spearhead","","London, British Museum, 91.5-14.24","England,Hampshire,Selborne,Blackmoor,Woolmer Forest,1867,Hoard III","Woolmer Forest, Hampshire, UK","51.0857837","-0.8658609000000297","","None","None","1867","99","39","","","","","","","","91.5-14.4-58; W.G. 2100-2112","","","ND74; CI","Joellen mcGann","https://farm4.staticflickr.com/3842/14952025500_ed1b3f8944_b.jpg","https://www.flickr.com/photos/MicroPasts/14952025500","superuser",-0.8659,51.0858,"selborne"
"23044","433","Spearhead","","London, British Museum, 91.5-14.25","England,Hampshire,Selborne,Blackmoor,Woolmer Forest,1867,Hoard III","Woolmer Forest, Hampshire, UK","51.0857837","-0.8658609000000297","SU 78 33","None","None","1867","85","28","","","","","","","","91.5-14.4-58","","","ND74,CI","Joellen mcGann","https://farm4.staticflickr.com/3842/14952138298_40c8aa9389_b.jpg","https://www.flickr.com/photos/MicroPasts/14952138298","superuser",-0.8659,51.0858,"selborne"
"23045","433","Spearhead","","London, British Museum, 91.5-14.25","England,Hampshire,Selborne,Blackmoor,Woolmer Forest,1867,Hoard III","Woolmer Forest, Hampshire, UK","51.0857837","-0.8658609000000297","","None","None","1867","85","28","","","","","","","","91.5-14.4-58; WG 2100-2112","","","ND74; CI","Joellen mcGann","https://farm4.staticflickr.com/3842/14951986159_0fb5395e3a_b.jpg","https://www.flickr.com/photos/MicroPasts/14951986159","superuser",-0.8659,51.0858,"selborne"
"23046","433","Spearhead","","London, British Museum, 91.5-14.26","England,Hampshire,Selborne,Blackmoor,Woolmer Forest,1867,Hoard III","Woolmer Forest, Hampshire, UK","51.0857837","-0.8658609000000297","SU 78 33","None","None","1867","85","34","","","","","","","","91.5-14.4-58; W.G. 2100-2112","","","ND74; CI","Joellen mcGann","https://farm4.staticflickr.com/3859/14951985799_71a2291664_b.jpg","https://www.flickr.com/photos/MicroPasts/14951985799","superuser",-0.8659,51.0858,"selborne"
"23047","433","Lanceheads V","T","British Museum, 91.5-14.26 & 27,Purchased from Messrs. Rollin and Fenardent, Roots Sale, Christie's, 20th April 1891","England,Hampshire,Selborne,Blackmoor,Woolmer Forest,Part of a hoard found about 1867 between Hogmoor and Blackmoor House.","Woolmer Forest, Hampshire, UK","51.0857837","-0.8658609000000297","SU 78 33","None","None","1867","86","34","","60","Brown","Corroded","20","","","4-58: 20 spearheads; 7 lanceheads; 11 fragments of swords; 1 gouge; 16 rings","Dimensions: Lengths: 86mm; 84mm,Widths: 34mm; 34mm,Thicknesses: 20mm; 21mm,Weights: 60 gms; 75 gms,26) Two holes from bad casting.; 27) Rough cast.","","Inacc,See new index,CI","Joellen mcGann","https://farm4.staticflickr.com/3845/15115676556_4d3e0e410d_b.jpg","https://www.flickr.com/photos/MicroPasts/15115676556","superuser",-0.8659,51.0858,"selborne"
"23048","433","Spearhead","","London, British Museum, 91.5-14.26","England,Hampshire,Selborne,Blackmoor,Woolmer Forest,1867,Hoard III","Woolmer Forest, Hampshire, UK","51.0857837","-0.8658609000000297","","None","None","1867","85","25","","","","","","","","91.5-14.4-58; W.G. 2100-2112","","","ND74; CI","Joellen mcGann","https://farm4.staticflickr.com/3907/14952134517_412c4f195d_b.jpg","https://www.flickr.com/photos/MicroPasts/14952134517","superuser",-0.8659,51.0858,"selborne"
"23049","433","Spearhead","","London, British Museum, 91.5-14.27","England,Hampshire,Selborne,Blackmoor,Woolmer Forest,1867,Hoard III","Woolmer Forest, Hampshire, UK","51.0857837","-0.8658609000000297","SU 78 33","None","None","1867","84","27","","","","","","","","91.5-14.4-58; W.G. 2100-2112","","","ND74; CI","Joellen mcGann","https://farm6.staticflickr.com/5568/14952134087_baea45b2f3_b.jpg","https://www.flickr.com/photos/MicroPasts/14952134087","superuser",-0.8659,51.0858,"selborne"
"23050","433","Spearhead","","London, British Museum, 91.5-14.27","England,Hampshire,Selborne,Blackmoor,Woolmer Forest,1867,Hoard III","Woolmer Forest, Hampshire, UK","51.0857837","-0.8658609000000297","","None","None","1867","84","27","","","","","","","","91.5-14.4-58; W.G. 2100-2112","","","ND74; CI","Joellen mcGann","https://farm6.staticflickr.com/5556/14951985289_d4bca83d15_b.jpg","https://www.flickr.com/photos/MicroPasts/14951985289","superuser",-0.8659,51.0858,"selborne"
"23051","580","Spearhead","","London, British Museum, 91.5-14.28","Hants, Selborne, Blackmoor, Woolmer Forest, 1867","Woolmer Forest, Hampshire, Royaume-Uni","51.0857837","-0.8658609000000297","SU 78 33","None","None","1867","84","28","","","","","","","","91.5-14. 4-58, W.G. 2100-2112","","","ND74, C1","Denis Antoine","https://farm4.staticflickr.com/3889/14952133567_b283568ce0_b.jpg","https://www.flickr.com/photos/MicroPasts/14952133567","superuser",-0.8659,51.0858,"selborne"
"23052","580","3 Lanceheads V","T","British Museum, 91.5.14.28, 29 & 30","England, Hants, Selborne, Blackmoor, Woolmer Forest, Part of a hoard found about 1867 between Hogmoor & Blackmoor House.","Woolmer Forest, Hampshire, Royaume-Uni","51.0857837","-0.8658609000000297","SU 78 33","None","None","1867","86, 61","32, 29","","63, 43","brown","corroded","18, 15","","","4-58, 20 Spearheads; 11 Fragments of Swords; 1 Gouge; 16 Rings; 7 Lanceheads","28. Socket worn down on one side, 29. Much sharpened & ground down, 30. Socket broken.","","Inacc., See new index, C1","Denis Antoine","https://farm4.staticflickr.com/3906/14951984649_04acc09805_b.jpg","https://www.flickr.com/photos/MicroPasts/14951984649","superuser",-0.8659,51.0858,"selborne"
"23053","580","Spearhead","","London, British Museum, 91.5-14.28","Hants, Selborne, Blackmoor, Woolmer Forest, 1867, Hoard III","Woolmer Forest, Hampshire, Royaume-Uni","51.0857837","-0.8658609000000297","","None","None","1867","84","28","","","","","","","","91.5-14. 4-58, W.G. 2100-2112","","","ND74, C1","Denis Antoine","https://farm4.staticflickr.com/3891/15115675816_9d49368614_b.jpg","https://www.flickr.com/photos/MicroPasts/15115675816","superuser",-0.8659,51.0858,"selborne"
"23054","580","Spearhead","","London, British Museum, 91.5-14.29","Hants, Selborne, Blackmoor, Woolmer Forest, 1867, Hoard III","Woolmer Forest, Hampshire, Royaume-Uni","51.0857837","-0.8658609000000297","SU 78 33","None","None","1867","62","24","","","","","","","","91.5-14. 4-58, W.G. 2100-2112","","","ND74, C1","Denis Antoine","https://farm4.staticflickr.com/3878/14952133097_0c2653cfd6_b.jpg","https://www.flickr.com/photos/MicroPasts/14952133097","only good record",-0.8659,51.0858,"selborne"
"23055","580","Spearhead","","London, British Museum, 91.5-14.29","Hants, Selborne, Blackmoor, Woolmer Forest, 1867, Hoard III","Woolmer Forest, Hampshire, Royaume-Uni","51.0857837","-0.8658609000000297","","None","None","1867","62","24","","","","","","","","91.5-14. 4-58, W.G. 2100-2112","","","ND74, C1","Denis Antoine","https://farm4.staticflickr.com/3876/14951984549_5785c4a903_b.jpg","https://www.flickr.com/photos/MicroPasts/14951984549","only good record",-0.8659,51.0858,"selborne"
"23056","580","Spearhead","","London, British Museum, 91.5-14.30","Hants, Selborne, Blackmoor, Woolmer Forest, 1867, Hoard III","Woolmer Forest, Hampshire, Royaume-Uni","51.0857837","-0.8658609000000297","SU 78 33","None","None","1867","80","28","","","","","","","","91.5-14. 4-58, W.G. 2100-2112","","","ND74, C1","Denis Antoine","https://farm6.staticflickr.com/5571/14952135828_21d4ec901e_b.jpg","https://www.flickr.com/photos/MicroPasts/14952135828","only good record",-0.8659,51.0858,"selborne"
"23057","580","Spearhead","","London, British Museum, 91.5-14.30","Hants, Selborne, Blackmoor, Woolmer Forest, 1867, Hoard III","Woolmer Forest, Hampshire, Royaume-Uni","51.0857837","-0.8658609000000297","","None","None","1867","80","28","","","","","","","","91.5-14. 4-58, W.G. 2100-2112","","","ND74, C1","Denis Antoine","https://farm6.staticflickr.com/5588/15138672165_412d77088b_b.jpg","https://www.flickr.com/photos/MicroPasts/15138672165","only good record",-0.8659,51.0858,"selborne"
"23058","580","Sword Blade","","London, British Museum, 91.5-14.31","Hants, Selborne, Blackmoor, Woolmer Forest, 1867, Hoard III","Woolmer Forest, Hampshire, Royaume-Uni","51.0857837","-0.8658609000000297","SU 78 33","None","None","1867","346","33","","","","","","","","91.5-14. 4-58, W.G. 2100-2112","not full length","","ND74, C1","Denis Antoine","https://farm4.staticflickr.com/3917/14952135518_7d906c877a_b.jpg","https://www.flickr.com/photos/MicroPasts/14952135518","only good record",-0.8659,51.0858,"selborne"
"23059","580","Sword Blade","","British Museum, 91.5.14.31, Purchased from Messrs. Rollin & Fenardent, Roots Sale, Christies, 20th April 1891","England, Hants, Selborne, Blackmoor, Woolmer Forest, Part of a hoard found about 1867 between Hogmoor & Blackmoor House.","Woolmer Forest, Hampshire, Royaume-Uni","51.0857837","-0.8658609000000297","SU 78 33","None","None","1867","353","44","","472","brown","corroded","8","","","4-58, 20 Spearheads; 11 Fragments of Swords; 1 Gouge; 16 Rings; 7 Lanceheads","Bent","","Not full length, See new index, C1","Denis Antoine","https://farm4.staticflickr.com/3856/14952022890_efcf68652a_b.jpg","https://www.flickr.com/photos/MicroPasts/14952022890","only good record",-0.8659,51.0858,"selborne"
"23060","580","Sword Blade","","London, British Museum, 91.5-14.31","Hants, Selborne, Blackmoor, Woolmer Forest, 1867, Hoard III","Woolmer Forest, Hampshire, Royaume-Uni","51.0857837","-0.8658609000000297","","None","None","1867","346","33","","","","","","","","91.5-14. 4-58, W.G. 2100-2112","not full length","","ND74, C1","Denis Antoine","https://farm6.staticflickr.com/5574/14952131847_30362030b8_b.jpg","https://www.flickr.com/photos/MicroPasts/14952131847","only good record",-0.8659,51.0858,"selborne"
"23061","580","Sword Blade","","London, British Museum, 91.5-14.32","Hants, Selborne, Blackmoor, Woolmer Forest, 1867, Hoard III","Woolmer Forest, Hampshire, Royaume-Uni","51.0857837","-0.8658609000000297","SU 78 33","None","None","1867","338","37","","","","","","","","91.5-14. 4-58, W.G. 2100-2112","","","ND74, C1","Denis Antoine","https://farm6.staticflickr.com/5570/14951982349_75a5332fa4_b.jpg","https://www.flickr.com/photos/MicroPasts/14951982349","only good record",-0.8659,51.0858,"selborne"
"23062","580","Sword Blade","","British Museum, 91.5.14.32, Purchased from Messrs. Rollin & Fenardent, Roots Sale, Christies, 20th April 1891","England, Hants, Selborne, Blackmoor, Woolmer Forest, Part of a hoard found about 1867 between Hogmoor & Blackmoor House.","Woolmer Forest, Hampshire, Royaume-Uni","51.0857837","-0.8658609000000297","SU 78 33","None","None","1867","342","46","","477","metallic bronze","non corroded","19","","","4-58, 20 Spearheads; 11 Fragments of Swords; 1 Gouge; 16 Rings; 7 Lanceheads","Slightly bent","","A OK, See new index, C1","Denis Antoine","https://farm6.staticflickr.com/5587/15115673356_5e3b7a059a_b.jpg","https://www.flickr.com/photos/MicroPasts/15115673356","only good record",-0.8659,51.0858,"selborne"
"23063","580","Sword Blade","","London, British Museum, 91.5-14.32","Hants, Selborne, Blackmoor, Woolmer Forest, 1867, Hoard III","Woolmer Forest, Hampshire, Royaume-Uni","51.0857837","-0.8658609000000297","","None","None","1867","338","37","","","","","","","","91.5-14. 4-58, W.G. 2100-2112","","","ND74, C1","Denis Antoine","https://farm4.staticflickr.com/3912/14951982019_14eb637249_b.jpg","https://www.flickr.com/photos/MicroPasts/14951982019","only good record",-0.8659,51.0858,"selborne"
"23064","580","Sword Hilt","","London, British Museum, 91.5-14.33","Hants, Selborne, Blackmoor, Woolmer Forest, 1867, Hoard III","Woolmer Forest, Hampshire, Royaume-Uni","51.0857837","-0.8658609000000297","SU 78 33","None","None","1867","249","37","","","","small patches of bright green corrosion (Mar. 74)","","","","91.5-14. 4-58, W.G. 2100-2112","","","ND74, C1","Denis Antoine","https://farm4.staticflickr.com/3840/14951981799_0d425da410_b.jpg","https://www.flickr.com/photos/MicroPasts/14951981799","only good record",-0.8659,51.0858,"selborne"
"23065","580","Sword Hilt","IIIc","British Museum, 91.5.14.33, Purchased from Messrs. Rollin & Fenardent, Roots Sale, Christies, 20th April 1891","England, Hants, Selborne, Blackmoor, Woolmer Forest, Part of a hoard found about 1867 between Hogmoor & Blackmoor House.","Woolmer Forest, Hampshire, Royaume-Uni","51.0857837","-0.8658609000000297","SU 78 33","None","None","1867","246","27","","263","brown","corroded","7","","","4-58, 20 Spearheads; 11 Fragments of Swords; 1 Gouge; 16 Rings; 7 Lanceheads","With two rivets out of four.","","March 1974 small patches of bright green corrosion, Inacc., See new index, C1","Denis Antoine","https://farm6.staticflickr.com/5568/15138670565_edde018241_b.jpg","https://www.flickr.com/photos/MicroPasts/15138670565","only good record",-0.8659,51.0858,"selborne"
"23066","580","Sword Hilt","","London, British Museum, 91.5-14.33","Hants, Selborne, Blackmoor, Woolmer Forest, 1867, Hoard III","Woolmer Forest, Hampshire, Royaume-Uni","51.0857837","-0.8658609000000297","","None","None","1867","249","37","","","","small patches of bright green corrosion (Mar. 74)","","","","91.5-14. 4-58, W.G. 2100-2112","","","ND74, C1","Denis Antoine","https://farm6.staticflickr.com/5585/14952022760_0303ebd624_b.jpg","https://www.flickr.com/photos/MicroPasts/14952022760","only good record",-0.8659,51.0858,"selborne"
"23067","580","Sword Hilt","","London, British Museum, 91.5-14.34","Hants, Selborne, Blackmoor, Woolmer Forest, 1867, Hoard III","Woolmer Forest, Hampshire, Royaume-Uni","51.0857837","-0.8658609000000297","SU 78 33","None","None","1867","245","27","","","","","","","","91.5-14. 4-58, W.G. 2100-2112","","","ND74, C1","Denis Antoine","https://farm4.staticflickr.com/3871/14952130677_53e1bf70e0_b.jpg","https://www.flickr.com/photos/MicroPasts/14952130677","only good record",-0.8659,51.0858,"selborne"
"23068","580","Sword Hilt","IVa","British Museum, 91.5.14.34, Purchased from Messrs. Rollin & Fenardent, Roots Sale, Christies, 20th April 1891","England, Hants, Selborne, Blackmoor, Woolmer Forest, Part of a hoard found about 1867 between Hogmoor & Blackmoor House.","Woolmer Forest, Hampshire, Royaume-Uni","51.0857837","-0.8658609000000297","SU 78 33","None","None","1867","243","25","","186","brown & bronze","corroded","7","","","4-58, 20 Spearheads; 11 Fragments of Swords; 1 Gouge; 16 Rings; 7 Lanceheads","Two rivets out of five, two other holes partly bored.","","Inacc., See new index, C1","Denis Antoine","https://farm6.staticflickr.com/5589/14952021510_8a08e6cf97_b.jpg","https://www.flickr.com/photos/MicroPasts/14952021510","only good record",-0.8659,51.0858,"selborne"
"23069","580","Sword Hilt","","London, British Museum, 91.5-14.35","Hants, Selborne, Blackmoor, Woolmer Forest, 1867, Hoard III","Woolmer Forest, Hampshire, Royaume-Uni","51.0857837","-0.8658609000000297","SU 78 33","None","None","1867","192","31","","","","","","","","91.5-14. 4-58, W.G. 2100-2112","","","ND74, C1","Denis Antoine","https://farm6.staticflickr.com/5555/15135703321_39b78465ae_b.jpg","https://www.flickr.com/photos/MicroPasts/15135703321","only good record",-0.8659,51.0858,"selborne"
"23070","580","Sword Hilt","IVa","British Museum, 91.5.14.35, Purchased from Messrs. Rollin & Fenardent, Roots Sale, Christies, 20th April 1891","England, Hants, Selborne, Blackmoor, Woolmer Forest, Part of a hoard found about 1867 between Hogmoor & Blackmoor House.","Woolmer Forest, Hampshire, Royaume-Uni","51.0857837","-0.8658609000000297","SU 78 33","None","None","1867","188","30","","190","black","corroded","6","","","4-58, 20 Spearheads; 11 Fragments of Swords; 1 Gouge; 16 Rings; 7 Lanceheads","One rivet out of four.","","Inacc., See new index, C1","Denis Antoine","https://farm6.staticflickr.com/5565/14951981189_be1a554f69_b.jpg","https://www.flickr.com/photos/MicroPasts/14951981189","only good record",-0.8659,51.0858,"selborne"
"23071","580","Sword Hilt","","London, British Museum, 91.5-14.35","Hants, Selborne, Blackmoor, Woolmer Forest, 1867, Hoard III","Woolmer Forest, Hampshire, Royaume-Uni","51.0857837","-0.8658609000000297","","None","None","1867","192","31","","","","","","","","91.5-14. 4-58, W.G. 2100-2112","","","ND74, C1","Denis Antoine","https://farm6.staticflickr.com/5559/14952129767_9ae9baec14_b.jpg","https://www.flickr.com/photos/MicroPasts/14952129767","only good record",-0.8659,51.0858,"selborne"
"23072","580","Sword Fragment","","London, British Museum, 91.5-14.36","Hants, Selborne, Blackmoor, Woolmer Forest, 1867, Hoard III","Woolmer Forest, Hampshire, Royaume-Uni","51.0857837","-0.8658609000000297","SU 78 33","None","None","1867","171","42","","","","","","","","91.5-14. 4-58, W.G. 2100-2112","","","ND74, C1","Denis Antoine","https://farm4.staticflickr.com/3838/15135702671_834864cc7c_b.jpg","https://www.flickr.com/photos/MicroPasts/15135702671","only good record",-0.8659,51.0858,"selborne"
"23073","580","3 Fragments of Swords","","British Museum, 91.5.14.36, 37 & 38, Purchased from Messrs. Rollin & Fenardent, Roots Sale, Christies, 20th April 1891","England, Hants, Selborne, Blackmoor, Woolmer Forest, Part of a hoard found about 1867 between Hogmoor & Blackmoor House.","Woolmer Forest, Hampshire, Royaume-Uni","51.0857837","-0.8658609000000297","SU 78 33","None","None","1867","170, 178, 34","","","190, 135, 15","black & metallic bronze","corroded","","","","4-58, 20 Spearheads; 11 Fragments of Swords; 1 Gouge; 16 Rings; 7 Lanceheads","36. from Middle, many dents, 37. Point of sword much hacked, 38. Point of sword cut off for analysis?","","March 1974 small patch of bright green corrosion on BM N 91.5-14.38, Inacc., See new index, C1","Denis Antoine","https://farm4.staticflickr.com/3886/14952020470_9442f0e9d3_b.jpg","https://www.flickr.com/photos/MicroPasts/14952020470","only good record",-0.8659,51.0858,"selborne"
"23074","580","Sword Fragment","","London, British Museum, 91.5-14.36","Hants, Selborne, Blackmoor, Woolmer Forest, 1867, Hoard III","Woolmer Forest, Hampshire, Royaume-Uni","51.0857837","-0.8658609000000297","","None","None","1867","171","42","","","","","","","","91.5-14. 4-58, W.G. 2100-2112","","","ND74, C1","Denis Antoine","https://farm6.staticflickr.com/5560/14952133308_76f57805a6_b.jpg","https://www.flickr.com/photos/MicroPasts/14952133308","only good record",-0.8659,51.0858,"selborne"
"23075","580","Sword Fragment","","London, British Museum, 91.5-14.37","Hants, Selborne, Blackmoor, Woolmer Forest, 1867, Hoard III","Woolmer Forest, Hampshire, Royaume-Uni","51.0857837","-0.8658609000000297","SU 78 33","None","None","1867","176","39","","","","","","","","91.5-14. 4-58, W.G. 2100-2112","","","ND74, C1","Denis Antoine","https://farm6.staticflickr.com/5592/14952132388_a8ecb5d29f_b.jpg","https://www.flickr.com/photos/MicroPasts/14952132388","only good record",-0.8659,51.0858,"selborne"
"23076","580","Sword Fragment","","London, British Museum, 91.5-14.57","Hants, Selborne, Blackmoor, Woolmer Forest, 1867, Hoard III","Woolmer Forest, Hampshire, Royaume-Uni","51.0857837","-0.8658609000000297","","None","None","1867","178","39","","","","","","","","91.5-14. 4-58, W.G. 2100-2112","","","ND74, C1","Denis Antoine","https://farm6.staticflickr.com/5571/15138302412_5ca58e4fe6_b.jpg","https://www.flickr.com/photos/MicroPasts/15138302412","only good record",-0.8659,51.0858,"selborne"
"23077","580","Sword Fragment","","London, British Museum, 91.5-14.38","Hants, Selborne, Blackmoor, Woolmer Forest, 1867, Hoard III","Woolmer Forest, Hampshire, Royaume-Uni","51.0857837","-0.8658609000000297","SU 78 33","None","None","1867","34","25","","","","small patch of bright green corrosion (Mar. 74)","","","","91.5-14. 4-58, W.G. 2100-2112","","","ND74, C1","Denis Antoine","https://farm4.staticflickr.com/3924/15115671006_2d49c22e8f_b.jpg","https://www.flickr.com/photos/MicroPasts/15115671006","only good record",-0.8659,51.0858,"selborne"
"23078","580","Sword Fragment","","London, British Museum, 91.5-14.38","Hants, Selborne, Blackmoor, Woolmer Forest, 1867, Hoard III","Woolmer Forest, Hampshire, Royaume-Uni","51.0857837","-0.8658609000000297","","None","None","1867","34","25","","","","small patch of bright green corrosion (Mar. 74)","","","","91.5-14. 4-58, W.G. 2100-2112","","","ND74, C1","Denis Antoine","https://farm4.staticflickr.com/3919/15135701801_39636325fd_b.jpg","https://www.flickr.com/photos/MicroPasts/15135701801","only good record",-0.8659,51.0858,"selborne"
"23079","580","Chape","","London, British Museum, 91.5-14.39","Hants, Selborne, Blackmoor, Woolmer Forest, 1867, Hoard III","Woolmer Forest, Hampshire, Royaume-Uni","51.0857837","-0.8658609000000297","SU 78 33","None","None","1867","110","27","","","","small patch of green corrosion (Mar. 74)","","","","91.5-14. 4-58, W.G. 2100-2112","","","ND74, C1","Denis Antoine","https://farm4.staticflickr.com/3891/14952018970_d24d1523a0_b.jpg","https://www.flickr.com/photos/MicroPasts/14952018970","only good record",-0.8659,51.0858,"selborne"
"23080","580","Chape, Scabbard End","I frag","British Museum, 91.5.14.39, Purchased from Messrs. Rollin & Fenardent, Roots Sale, Christies, 20th April 1891","England, Hants, Selborne, Blackmoor, Woolmer Forest, Part of a hoard found about 1867 between Hogmoor & Blackmoor House.","Woolmer Forest, Hampshire, Royaume-Uni","51.0857837","-0.8658609000000297","SU 78 33","None","None","1867","112","22","","90","black & bronze","corroded","11","","","4-58, 20 Spearheads; 11 Fragments of Swords; 1 Gouge; 16 Rings; 7 Lanceheads","Containing point of sword.","","March 1974 small patch of green corrosion, Inacc., See new index, C1","Denis Antoine","https://farm4.staticflickr.com/3924/14951979689_2f63fe52b1_b.jpg","https://www.flickr.com/photos/MicroPasts/14951979689","only good record",-0.8659,51.0858,"selborne"
"23081","580","Chape","","London, British Museum, 91.5-14.39","Hants, Selborne, Blackmoor, Woolmer Forest, 1867, Hoard III","Woolmer Forest, Hampshire, Royaume-Uni","51.0857837","-0.8658609000000297","","None","None","1867","110","27","","","","small patch of green corrosion (Mar. 74)","","","","91.5-14. 4-58, W.G. 2100-2112","","","ND74, C1","Denis Antoine","https://farm4.staticflickr.com/3921/14952018920_5f795be97a_b.jpg","https://www.flickr.com/photos/MicroPasts/14952018920","only good record",-0.8659,51.0858,"selborne"
"23082","580","Sword, Hilt Fragment","","London, British Museum, 91.5-14.40","Hants, Selborne, Blackmoor, Woolmer Forest, 1867, Hoard III","Woolmer Forest, Hampshire, Royaume-Uni","51.0857837","-0.8658609000000297","SU 78 33","None","None","1867","61","28","","","","","","","","91.5-14. 4-58, W.G. 2100-2112","","","ND74, C1","Denis Antoine","https://farm4.staticflickr.com/3835/15135701091_874ed985e6_b.jpg","https://www.flickr.com/photos/MicroPasts/15135701091","only good record",-0.8659,51.0858,"selborne"
"23083","580","2 Hilts of Swords","2III","British Museum, 91.5.14.40 & 41, Purchased from Messrs. Rollin & Fenardent, Roots Sale, Christies, 20th April 1891","England, Hants, Selborne, Blackmoor, Woolmer Forest, Part of a hoard found about 1867 between Hogmoor & Blackmoor House.","Woolmer Forest, Hampshire, Royaume-Uni","51.0857837","-0.8658609000000297","SU 78 33","None","None","None","61, 57","20, 20","","58, 38","black","corroded","8, 3","","","4-58, 20 Spearheads; 11 Fragments of Swords; 1 Gouge; 16 Rings; 7 Lanceheads","","","Inacc., See new index, C1","Denis Antoine","https://farm4.staticflickr.com/3875/14952018540_5be59caa18_b.jpg","https://www.flickr.com/photos/MicroPasts/14952018540","only good record",-0.8659,51.0858,"selborne"
"23084","580","Sword, Hilt Fragment","","London, British Museum, 91.5-14.40","Hants, Selborne, Blackmoor, Woolmer Forest, 1867, Hoard III","Woolmer Forest, Hampshire, Royaume-Uni","51.0857837","-0.8658609000000297","","None","None","1867","61","28","","","","","","","","91.5-14. 4-58, W.G. 2100-2112","","","ND74, C1","Denis Antoine","https://farm4.staticflickr.com/3856/15115670086_aff1a03a7b_b.jpg","https://www.flickr.com/photos/MicroPasts/15115670086","only good record",-0.8659,51.0858,"selborne"
"23085","580","Sword, Hilt Fragment","","London, British Museum, 91.5-14.41","Hants, Selborne, Blackmoor, Woolmer Forest, 1867, Hoard III","Woolmer Forest, Hampshire, Royaume-Uni","51.0857837","-0.8658609000000297","SU 78 33","None","None","1867","58","33","","","","","","","","91.5-14. 4-58, W.G. 2100-2112","","","ND74, C1","Denis Antoine","https://farm4.staticflickr.com/3906/15138301012_00eb8134d8_b.jpg","https://www.flickr.com/photos/MicroPasts/15138301012","only good record",-0.8659,51.0858,"selborne"
"23086","580","Sword, Hilt Fragment","","London, British Museum, 91.5-14.41","Hants, Selborne, Blackmoor, Woolmer Forest, 1867, Hoard III","Woolmer Forest, Hampshire, Royaume-Uni","51.0857837","-0.8658609000000297","","None","None","1867","58","33","","","","","","","","91.5-14. 4-58, W.G. 2100-2112","","","ND74, C1","Denis Antoine","https://farm4.staticflickr.com/3878/15138300882_14cfc84035_b.jpg","https://www.flickr.com/photos/MicroPasts/15138300882","only good record",-0.8659,51.0858,"selborne"
"23087","580","Socketed Gouge","","London, British Museum, 91.5-14.42","Hants, Selborne, Blackmoor, Woolmer Forest, 1867, Hoard III","Woolmer Forest, Hampshire, Royaume-Uni","51.0857837","-0.8658609000000297","SU 78 33","None","None","1867","101","21","","","","","","","","91.5-14. 4-58, W.G. 2100-2112","","","ND74, C1","Denis Antoine","https://farm4.staticflickr.com/3839/14951978509_9439811e2f_b.jpg","https://www.flickr.com/photos/MicroPasts/14951978509","only good record",-0.8659,51.0858,"selborne"
"23088","580","Socketed Gouge","","British Museum, 91.5.14.42, Purchased from Messrs. Rollin & Fenardent, Roots Sale, Christies, 20th April 1891","England, Hants, Selborne, Blackmoor, Woolmer Forest, Part of a hoard found about 1867 between Hogmoor & Blackmoor House.","Woolmer Forest, Hampshire, Royaume-Uni","51.0857837","-0.8658609000000297","SU 78 33","None","None","1867","102","14","","74","metallic bronze","non corroded","8","","","4-58, 20 Spearheads; 11 Fragments of Swords; 1 Gouge; 16 Rings; 7 Lanceheads","Socket slightly split.","","A OK, See new index, C1","Denis Antoine","https://farm4.staticflickr.com/3884/15115669536_b9486b0141_b.jpg","https://www.flickr.com/photos/MicroPasts/15115669536","only good record",-0.8659,51.0858,"selborne"
"23089","580","Socketed Gouge","","London, British Museum, 91.5-14.42","Hants, Selborne, Blackmoor, Woolmer Forest, 1867, Hoard III","Woolmer Forest, Hampshire, Royaume-Uni","51.0857837","-0.8658609000000297","","None","None","1867","101","21","","","","","","","","91.5-14. 4-58, W.G. 2100-2112","","","ND74, C1","Denis Antoine","https://farm6.staticflickr.com/5579/15138666925_3031b252c2_b.jpg","https://www.flickr.com/photos/MicroPasts/15138666925","only good record",-0.8659,51.0858,"selborne"
"23090","580","Ring","","London, British Museum, 91.5-14.43","Hants, Selborne, Blackmoor, Woolmer Forest, 1867, Hoard III","Woolmer Forest, Hampshire, Royaume-Uni","51.0857837","-0.8658609000000297","","None","None","1867","","Dia 59","","","","","","","","91.5-14. 4-58, W.G. 2100-2112","","","ND74","Denis Antoine","https://farm4.staticflickr.com/3880/15138666695_15b9e0eb84_b.jpg","https://www.flickr.com/photos/MicroPasts/15138666695","only good record",-0.8659,51.0858,"selborne"
"23091","580","6 Rings","G","British Museum, 91.5.14. 43-48, Purchased from Messrs. Rollin & Fenardent, Roots Sale, Christies, 20th April 1891","England, Hants, Selborne, Blackmoor, Woolmer Forest, Found about 1867 (part of a hoard) between Hogmoor & Blackmoor House.","Woolmer Forest, Hampshire, Royaume-Uni","51.0857837","-0.8658609000000297","SU 78 33","None","None","1867","60, 49, 57, 53, 64, 49","59, 58, 54, 52, 53, 50","","24, 21, 17, 11, 22, 20","black & bronze","corroded","6, 5, 4, 4, 5, 5","","","4-58, 20 Spearheads; 11 Fragments of Swords; 1 Gouge; 16 Rings; 7 Lanceheads","43. Oval section, 44-48. circular sections.","","A OK, See new index, C1","Denis Antoine","https://farm4.staticflickr.com/3851/15138666645_71b3c6479a_b.jpg","https://www.flickr.com/photos/MicroPasts/15138666645","only good record",-0.8659,51.0858,"selborne"
"23092","580","Ring","","London, British Museum, 91.5-14.43","Hants, Selborne, Blackmoor, Woolmer Forest, 1867, Hoard III","Woolmer Forest, Hampshire, Royaume-Uni","51.0857837","-0.8658609000000297","","None","None","1867","","Dia. 59","","","","","","","","91.5-14. 4-58, W.G. 2100-2112","","","ND74, C1","Denis Antoine","https://farm4.staticflickr.com/3880/15135699671_8fa4b3ac45_b.jpg","https://www.flickr.com/photos/MicroPasts/15135699671","only good record",-0.8659,51.0858,"selborne"
"23093","580","Ring","","London, British Museum, 91.5-14.44","Hants, Selborne, Blackmoor, Woolmer Forest, 1867, Hoard III","Woolmer Forest, Hampshire, Royaume-Uni","51.0857837","-0.8658609000000297","SU 78 33","None","None","1867","56","58 (= max.dia).","","","","","","","","91.5-14. 4-58, W.G. 2100-2112","","","ND74, C1","Denis Antoine","https://farm6.staticflickr.com/5592/15138666575_e5ffdca1fd_b.jpg","https://www.flickr.com/photos/MicroPasts/15138666575","only good record",-0.8659,51.0858,"selborne"
"23094","580","Ring","","London, British Museum, 91.5-14.44","Hants, Selborne, Blackmoor, Woolmer Forest, 1867, Hoard III","Woolmer Forest, Hampshire, Royaume-Uni","51.0857837","-0.8658609000000297","","None","None","1867","56","58 (=max.dia.)","","","","","","","","91.5-14. 4-58, W.G. 2100-2112","","","ND74, C1","Denis Antoine","https://farm6.staticflickr.com/5577/15135699361_de1295b876_b.jpg","https://www.flickr.com/photos/MicroPasts/15135699361","only good record",-0.8659,51.0858,"selborne"
"23095","580","Ring","","London, British Museum, 91.5-14.45","Hants, Selborne, Blackmoor, Woolmer Forest, 1867, Hoard III","Woolmer Forest, Hampshire, Royaume-Uni","51.0857837","-0.8658609000000297","SU 78 33","None","None","1867","","Dia. 54","","","","","","","","91.5-14. 4-58, W.G. 2100-2112","","","ND74, C1","Denis Antoine","https://farm4.staticflickr.com/3853/14952126197_7a43ef6b30_b.jpg","https://www.flickr.com/photos/MicroPasts/14952126197","only good record",-0.8659,51.0858,"selborne"
"23096","580","Ring","","London, British Museum, 91.5-14.45","Hants, Selborne, Blackmoor, Woolmer Forest, 1867, Hoard III","Woolmer Forest, Hampshire, Royaume-Uni","51.0857837","-0.8658609000000297","","None","None","1867","","Dia. 54","","","","","","","","91.5-14. 4-58, W.G. 2100-2112","","","ND74, C1","Denis Antoine","https://farm4.staticflickr.com/3888/15115667996_51abd27a4a_b.jpg","https://www.flickr.com/photos/MicroPasts/15115667996","only good record",-0.8659,51.0858,"selborne"
"23097","580","Ring","","London, British Museum, 91.5-14.46","Hants, Selborne, Blackmoor, Woolmer Forest, 1867, Hoard III","Woolmer Forest, Hampshire, Royaume-Uni","51.0857837","-0.8658609000000297","SU 78 33","None","None","1867","","Max.dia 51","","","","","","","","91.5-14. 4-58, W.G. 2100-2112","","","ND74, C1","Denis Antoine","https://farm4.staticflickr.com/3852/14952015990_6a07ee662c_b.jpg","https://www.flickr.com/photos/MicroPasts/14952015990","only good record",-0.8659,51.0858,"selborne"
"23098","580","Ring","","London, British Museum, 91.5-14.46","Hants, Selborne, Blackmoor, Woolmer Forest, 1867, Hoard III","Woolmer Forest, Hampshire, Royaume-Uni","51.0857837","-0.8658609000000297","","None","None","1867","","Max.dia. 51","","","","","","","","91.5-14. 4-58, W.G. 2100-2112","","","ND74, C1","Denis Antoine","https://farm6.staticflickr.com/5592/14951977239_9287b8dd7e_b.jpg","https://www.flickr.com/photos/MicroPasts/14951977239","only good record",-0.8659,51.0858,"selborne"
"23099","580","Ring","","London, British Museum, 91.5-14.47","Hants, Selborne, Blackmoor, Woolmer Forest, 1867, Hoard III","Woolmer Forest, Hampshire, Royaume-Uni","51.0857837","-0.8658609000000297","SU 78 33","None","None","1867","","Max.dia. 53","","","","","","","","91.5-14. 4-58, W.G. 2100-2112","","","ND74, C1","Denis Antoine","https://farm6.staticflickr.com/5587/15115667686_fa7bb9a1b3_b.jpg","https://www.flickr.com/photos/MicroPasts/15115667686","only good record",-0.8659,51.0858,"selborne"
"23100","580","Ring","","London, British Museum, 91.5-14.47","Hants, Selborne, Blackmoor, Woolmer Forest, 1867, Hoard III","Woolmer Forest, Hampshire, Royaume-Uni","51.0857837","-0.8658609000000297","","None","None","1867","","Max.dia. 53","","","","","","","","91.5-14. 4-58, W.G. 2100-2112","","","ND74, C1","Denis Antoine","https://farm6.staticflickr.com/5586/14952125847_82aeeee392_b.jpg","https://www.flickr.com/photos/MicroPasts/14952125847","only good record",-0.8659,51.0858,"selborne"
"23101","580","Ring","","London, British Museum, 91.5-14.48","Hants, Selborne, Blackmoor, Woolmer Forest, 1867, Hoard III","Woolmer Forest, Hampshire, Royaume-Uni","51.0857837","-0.8658609000000297","SU 78 33","None","None","1867","","Max.dia. 50","","","","","","","","91.5-14. 4-58, W.G. 2100-2112","","","ND74, C1","Denis Antoine","https://farm6.staticflickr.com/5591/14952128698_718ec96713_b.jpg","https://www.flickr.com/photos/MicroPasts/14952128698","only good record",-0.8659,51.0858,"selborne"
"23102","580","Ring","","London, British Museum, 91.5-14.48","Hants, Selborne, Blackmoor, Woolmer Forest, 1867, Hoard III","Woolmer Forest, Hampshire, Royaume-Uni","51.0857837","-0.8658609000000297","","None","None","1867","","Max.dia. 50","","","","","","","","91.5-14. 4-58, W.G. 2100-2112","","","ND74, C1","Denis Antoine","https://farm4.staticflickr.com/3889/14952128588_8881cd55ab_b.jpg","https://www.flickr.com/photos/MicroPasts/14952128588","only good record",-0.8659,51.0858,"selborne"
"23103","580","Ring","","London, British Museum, 91.5-14.49","Hants, Selborne, Blackmoor, Woolmer Forest, 1867, Hoard III","Woolmer Forest, Hampshire, Royaume-Uni","51.0857837","-0.8658609000000297","SU 78 33","None","None","1867","","Max.dia. 49","","","","","","","","91.5-14. 4-58, W.G. 2100-2112","","","ND74, C1","Denis Antoine","https://farm6.staticflickr.com/5594/15115667226_088f1df1f3_b.jpg","https://www.flickr.com/photos/MicroPasts/15115667226","only good record",-0.8659,51.0858,"selborne"
"23104","433","6 Rings","G","British Museum, 91.5-14.49-54,Purchased from Messrs. Rollin and Fenardent, Roots Sale, Christies, 20th April 1891","England,Hampshire,Selborne,Blackmoor,Woolmer Forest,Part of a hoard found about 1867 between Hogmoor + Blackmoor House.","Woolmer Forest, Hampshire, UK","51.0857837","-0.8658609000000297","SU 78 33","None","None","1867","50","48","","24","Black and bronze.","Corroded","6","","","4-58: 20 spearheads; 7 lanceheads; 11 fragments of swords; 1 gouge; 16 rings","Dimensions: Lengths: 49mm; 48mm; 47mm; 46mm; 44mm; 41mm,Widths: 48mm; 48mm; 51mm; 47mm; 44mm; 42mm,Thickness: 6mm; 4mm; 3mm; 4mm; 3mm; 3mm,Weights: 24 gms; 11 gms; 9 gms; 11 gms; 9 gms; 6gms,49, 50) circular section; 51) circular section + bent; 52) oval section; 53) circular section; 54) oval section and bent","","AOK exc. 54,See new index,CI","Joellen mcGann","https://farm4.staticflickr.com/3924/14952128458_508c1b81f1_b.jpg","https://www.flickr.com/photos/MicroPasts/14952128458","superuser",-0.8659,51.0858,"selborne"
"23105","433","Ring","","London, British Museum, 91.5-14.49","England,Hampshire,Selborne,Blackmoor,Woolmer Forest,1867,Hoard III","Woolmer Forest, Hampshire, UK","51.0857837","-0.8658609000000297","","None","None","1867","","","","","","","","","","91.5-14.4-58; W.G. 2100-2112","Max. Dia. 49mm","","ND74; CI","Joellen mcGann","https://farm4.staticflickr.com/3876/14952124617_10aa27969e_b.jpg","https://www.flickr.com/photos/MicroPasts/14952124617","superuser",-0.8659,51.0858,"selborne"
"23106","433","Ring","","London, British Museum, 91.5-14.50","England,Hampshire,Selborne,Blackmoor,Woolmer Forest,1867","Woolmer Forest, Hampshire, UK","51.0857837","-0.8658609000000297","SU 78 33","None","None","1867","","","","","","","","","","91.5-14.4-58; W.G. 2100-2112","Dia. 47mm","","ND74; CI","Joellen mcGann","https://farm4.staticflickr.com/3853/15138297902_fe0c1d4334_b.jpg","https://www.flickr.com/photos/MicroPasts/15138297902","superuser",-0.8659,51.0858,"selborne"
"23107","433","Ring","","London, British Museum, 91.5-15.50","England,Hampshire,Selborne,Blackmoor,Woolmer Forest,1867,Hoard III","Woolmer Forest, Hampshire, UK","51.0857837","-0.8658609000000297","","None","None","1867","","","","","","","","","","91-5-14.4-58; W.G. 2100-2112","Diameter> 47mm","","ND74; CI","Joellen mcGann","https://farm4.staticflickr.com/3860/14952128028_3881a217fe_b.jpg","https://www.flickr.com/photos/MicroPasts/14952128028","superuser",-0.8659,51.0858,"selborne"
"23108","433","Ring","","London, British Museum, 91.5-14.51","England,Hampshire,Selborne,Blackmoor,Woolmer Forest,1867,Hoard III","Woolmer Forest, Hampshire, UK","51.0857837","-0.8658609000000297","SU 78 33","None","None","1867","","","","","","","","","","91.5-14.4-58; W.G.  2100-2112","Max. Dia. 49mm","","ND74; CI","Joellen mcGann","https://farm6.staticflickr.com/5567/15138664465_c6fdcbdaa3_b.jpg","https://www.flickr.com/photos/MicroPasts/15138664465","superuser",-0.8659,51.0858,"selborne"
"23109","433","Ring","","London, British Museum, 91.5-14.51","England,Hampshire,Selborne,Blackmoor,Woolmer Forest,1867,Hoard III","Woolmer Forest, Hampshire, UK","51.0857837","-0.8658609000000297","","None","None","1867","","","","","","","","","","91.5-14.4-58; W.G. 2100-2112","Max. dia. 49mm","","ND74; CI","Joellen mcGann","https://farm4.staticflickr.com/3868/15138297682_463cf861ee_b.jpg","https://www.flickr.com/photos/MicroPasts/15138297682","superuser",-0.8659,51.0858,"selborne"
"23110","433","Ring","","London, British Museum, 91.5-14.52","England,Selborne,Blackmoor,Woolmer Forest,1867","Woolmer Forest, Hampshire, UK","51.0857837","-0.8658609000000297","SU 78 33","None","None","1867","","","","","","","","","","91.5-14.4-58; W.G. 2100-2112","Max. dia. 46","","ND74; CI","Joellen mcGann","https://farm6.staticflickr.com/5586/15138297552_b366905970_b.jpg","https://www.flickr.com/photos/MicroPasts/15138297552","superuser",-0.8659,51.0858,"selborne"
"23111","433","Ring","","London, British Museum, 91.5-14.52","England,Hampshire,Selborne,Blackmoor,Woolmer Forest,1867,Hoard III","Woolmer Forest, Hampshire, UK","51.0857837","-0.8658609000000297","","None","None","1867","","","","","","","","","","91.5-14.4-58; W.G. 2100-2112","Max. dia. 46","","ND74; CI","Joellen mcGann","https://farm4.staticflickr.com/3896/14952123767_608800823a_b.jpg","https://www.flickr.com/photos/MicroPasts/14952123767","superuser",-0.8659,51.0858,"selborne"
"23112","433","Ring","","London, British Museum, 91.5-14.53","England,Hampshire,Selborne,Blackmoor,Woolmer Forest,1867,Hoard III","Woolmer Forest, Hampshire, UK","51.0857837","-0.8658609000000297","SU 78 33","None","None","None","","","","","","","","","","91.5-14.4-58; W. G. 2100-2112","Max. dia. 44mm","","ND74; CI","Joellen mcGann","https://farm4.staticflickr.com/3869/15138297112_058af02693_b.jpg","https://www.flickr.com/photos/MicroPasts/15138297112","superuser",-0.8659,51.0858,"selborne"
"23113","433","Ring","","London, British Museum, 91.5-14.53","England,Hampshire,Selborne,Blackmoor,Woolmer Forest,1867,Hoard III","Woolmer Forest, Hampshire, UK","51.0857837","-0.8658609000000297","","None","None","1867","","","","","","","","","","91.5-14.4-58; W.G. 2100-2112","Max. dia. 44mm","","ND74; CI","Joellen mcGann","https://farm4.staticflickr.com/3891/15135696611_0b15e32c9c_b.jpg","https://www.flickr.com/photos/MicroPasts/15135696611","superuser",-0.8659,51.0858,"selborne"
"23114","433","Ring","","London, British Museum, 91.5-14.54","England,Hampshire,Selborne,Blackmoor,Woolmer Forest,1867,Hoard III","Woolmer Forest, Hampshire, UK","51.0857837","-0.8658609000000297","SU 78 33","None","None","1867","","","","","","","","","","91.5-14.4-58; W. G. 2100-2112","Max. dia. 41mm","","ND74; CI","Joellen mcGann","https://farm4.staticflickr.com/3899/15135696401_2e77474931_b.jpg","https://www.flickr.com/photos/MicroPasts/15135696401","superuser",-0.8659,51.0858,"selborne"
"23115","433","Ring","","London, British Museum, 91.5-14.54","England,Hampshire,Selborne,Blackmoor,Woolmer Forest,1867,Hoard III","Woolmer Forest, Hampshire, UK","51.0857837","-0.8658609000000297","","None","None","1867","","","","","","","","","","91.5-14.4-58; W. G. 2100-2112","Max. dia. 41mm","","ND 74; CI","Joellen mcGann","https://farm6.staticflickr.com/5583/14951974929_b564c02ae5_b.jpg","https://www.flickr.com/photos/MicroPasts/14951974929","superuser",-0.8659,51.0858,"selborne"
"23116","433","Ring","","London, British Museum, 91.5-14.55","England,Hampshire,Selborne,Blackmoor,Woolmer Forest,1867,Hoard III","Woolmer Forest, Hampshire, UK","51.0857837","-0.8658609000000297","SU 78 33","None","None","1867","","","","","","","","","","91.5-14.4-58; W. G. 2100-2112","Dia. 42mm","","ND 74; CI","Joellen mcGann","https://farm4.staticflickr.com/3844/15115665166_8113d8df2d_b.jpg","https://www.flickr.com/photos/MicroPasts/15115665166","superuser",-0.8659,51.0858,"selborne"
"23117","433","4 Rings","G","British Museum, 91.5-14.55-58,Purchased from Messrs. Rollin and Fenardent, Roots Sale, Christies, 20th April 1891.","England,Hampshire,Selborne,Blackmoor,Woolmer Forest,Part of a hoard found about 1867 between Hogmoor and Blackmoor House.","Woolmer Forest, Hampshire, UK","51.0857837","-0.8658609000000297","SU 78 33","None","None","1867","42","43","","9","Black and bronze","Corroded","4","","","4-58: 20 spearheads; 7 lanceheads; 11 fragments of swords; 1 gouge; 16 rings","Lengths: 42mm; 39mm; 39mm; 34mm,Widths: 43mm; 39mm; 39mm; 33mm,Thicknesses: 4mm; 3mm; 3mm; 5mm,Weights: 9 gms; 7 gms; 6 gms; 9 gms,55-57: circular sections; 58: broad and cracked across","","Inacc.,See new index.,CI","Joellen mcGann","https://farm4.staticflickr.com/3862/15138296442_25a571d5d9_b.jpg","https://www.flickr.com/photos/MicroPasts/15138296442","superuser",-0.8659,51.0858,"selborne"
"23118","433","Ring","","London, British Museum, 91.5-14.55","England,Hampshire,Selborne,Blackmoor,Woolmer Forest,1867,Hoard III","Woolmer Forest, Hampshire, UK","51.0857837","-0.8658609000000297","","None","None","1867","","","","","","","","","","91.5-14.4-58; W.G. 2100-2112","Dia. 42mm","","ND 74; CI","Joellen mcGann","https://farm4.staticflickr.com/3850/14952122957_294df83aab_b.jpg","https://www.flickr.com/photos/MicroPasts/14952122957","superuser",-0.8659,51.0858,"selborne"
"23119","433","Ring","","London, British Museum, 91.5-14.54","England,Hampshire,Selborne,Blackmoor,Woolmer Forest,1867,Hoard III","Woolmer Forest, Hampshire, UK","51.0857837","-0.8658609000000297","SU 78 33","None","None","1867","","","","","","","","","","91.5-14.4-58; W.G. 2100-2112","Dia. 39mm","","ND74; CI","Joellen mcGann","https://farm4.staticflickr.com/3852/14952013170_d25dcbe2cc_b.jpg","https://www.flickr.com/photos/MicroPasts/14952013170","superuser",-0.8659,51.0858,"selborne"
"23120","580","Ring","","London, British Museum, 91.5-14.56","Hants, Selborne, Blackmoor, Woolmer Forest, 1867, Hoard III","Woolmer Forest, Hampshire, Royaume-Uni","51.0857837","-0.8658609000000297","","None","None","1867","","Dia. 39","","","","","","","","91.5-14. 4-58, W.G. 2100-2112","","","ND74, C1","Denis Antoine","https://farm4.staticflickr.com/3880/14951974429_cefc84b11c_b.jpg","https://www.flickr.com/photos/MicroPasts/14951974429","superuser",-0.8659,51.0858,"selborne"
"23121","433","Ring","","London, British Museum,91.5-15.57","England,Hampshire,Selborne,Blackmoor,Woolmer Forest,1867","Woolmer Forest, Hampshire, UK","51.0857837","-0.8658609000000297","SU 78 33","None","None","1867","","","","","","","","","","91.5-14.4-58; W. G. 2100-2112","Max. dia. 39mm","","ND74; CI","Joellen mcGann","https://farm4.staticflickr.com/3845/14951974189_6961128e9b_b.jpg","https://www.flickr.com/photos/MicroPasts/14951974189","superuser",-0.8659,51.0858,"selborne"
"23122","433","Ring","","London, British Museum, 91.5-14.57","England,Hampshire,Selborne,Blackmoor,Woolmer Forest,1867,Hoard III","Woolmer Forest, Hampshire, UK","51.0857837","-0.8658609000000297","","None","None","1867","","","","","","","","","","91.5-14.4-58; W.G. 2100-2112","Max. dia. 39mm","","ND74; CI","Joellen mcGann","https://farm6.staticflickr.com/5594/15135695251_eeb38701f4_b.jpg","https://www.flickr.com/photos/MicroPasts/15135695251","superuser",-0.8659,51.0858,"selborne"
"23123","433","Ring","","London, British Museum, 91.5-14.58","England,Hampshire,Selborne,Blackmoor,Woolmer Forest,1867,Hoard III","Woolmer Forest, Hampshire, UK","51.0857837","-0.8658609000000297","SU 78 33","None","None","1867","","","","","","","","","","91.5-14.4-58; W.G. 2100-2112","Max. Dia. 33mm","","ND 74; CI","Joellen mcGann","https://farm4.staticflickr.com/3902/15138662465_c39cf90d1f_b.jpg","https://www.flickr.com/photos/MicroPasts/15138662465","superuser",-0.8659,51.0858,"selborne"
"23124","433","Ring","","London, British Museum, 91.5-14.58","England,Hampshire,Selborne,Blackmoor,Woolmer Forest,1867,Hoard III","Woolmer Forest, Hampshire, UK","51.0857837","-0.8658609000000297","","None","None","1867","","","","","","","","","","91.5-14.4-58; W. G. 2100-2112","Max. Dia. 33mm","","ND74; CI","Joellen mcGann","https://farm4.staticflickr.com/3912/14952121947_8856d6d9e1_b.jpg","https://www.flickr.com/photos/MicroPasts/14952121947","superuser",-0.8659,51.0858,"selborne"
"23125","433","Hoard - Spearhead","","Sotheby's Sale 8/12/94, Lot 80 failed to reach reserve,History: ex MacAlpine Collection No. 626; Ex-P.H. Rives Collection; Ex-George Roots Collection (sold Christies 20/4/91, Lot 33)","England,Hampshire,Probably Blackmoor,On circumstantial evidence (see file notes) rather likely that this is from the Blackmoor Hoard.","Blackmoor, Liss, Hampshire GU33, UK","51.09587","-0.8876400000000331","","None","None","None","","","","","","","","","","","","Mac Gregor, et. al. 1985, 106, No. 11.42","","Joellen mcGann","https://farm4.staticflickr.com/3872/15115663636_8bac46bb95_b.jpg","https://www.flickr.com/photos/MicroPasts/15115663636","superuser",-0.8876,51.0959,"selborne"
"23126","433","Ferrule","VB","Private Collection,Lord Selborne,Blackmoor, Hampshire,46","England,Hampshire,Selborne","Selborne, Alton, Hampshire GU34, UK","51.095022","-0.9392239999999674","","None","None","None","62","16","","80","Dark green and grey, peat stained.","","","","","Hoard of leaf-shaped swords, spearheads, and rings.","Dimensions: Length: 62mm; 80mm,Width: 16mm; 15mm; 12mm; 34mm,Weight: 80 gms,A small piece is missing, between these two parts. The Metal in both is a little out of truth. The large end is solid and concave. The wood remains in ferrule.","White's Selborne Macmillan, 1877, Vol. II, p. 258,White's Selborne, Macmillan, 1877 (Bell), Vol. II, p. 381,Evans, p. 464.","","Joellen mcGann","https://farm6.staticflickr.com/5594/14952125368_8a2680ec10_b.jpg","https://www.flickr.com/photos/MicroPasts/14952125368","superuser",-0.9392,51.095,"selborne"
"23127","433","Spearhead V","P","Private Collection,No. 38/1923,Lord Selborne, Blackmoor, Hampshire","England,Hampshire,Selborne,In the garden of a cottage on the western side of the road ascending from Eveley corner to Hogmoor, Spring 1870.","Selborne, Alton, Hampshire GU34, UK","51.095022","-0.9392239999999674","","None","None","1870","180","21","35","125","Dirty brown colour.","","2","Thickness: 2mm; 6mm; 9mm","","Hoard of leaf-shaped swords, spearheads, ferrule, and rings (53 articles in 63 fragments).","Socket thin and broken, and spear bent sideways.","White's Selborne Macmillan 1877 (?1876), Vol. II, p. 258.,White's Selborne, Macmillan, Bell, 1877, Vol. II, p. 381,Evans, p. 464","","Joellen mcGann","https://farm4.staticflickr.com/3853/15138661585_231e6c72d8_b.jpg","https://www.flickr.com/photos/MicroPasts/15138661585","superuser",-0.9392,51.095,"selborne"
"23128","433","Spearhead V","P","Private Collection,1923,The Earl of Selborne,Blackmoor, Petersfield, Hampshire,40","England,Hampshire,Selborne,In garden of cottage on western side of road ascending from Eveley corner to Hogmoor,Spring 1870","Selborne, Alton, Hampshire GU34, UK","51.095022","-0.9392239999999674","","None","None","1870","240","25","46","125","","Mostly dirty bronze colour, remainder covered with peaty deposit.","","Width: blade 46mm; 26mm; socket 25mm","","A hoard of at least 53 articles in 63 fragments. Mostly swords, spearheads, ferrules, and rings.","A light and weak specimen and much damaged. This has strengthening ribs.","White, Gilbert: Nat. hist of Selborne, Macmillan, 1876, 254-8,White, Gilbert, Nat. Hist of Selborne, Ed. Bell, 1877, 381,Evans, B. Imps, 464","","Joellen mcGann","https://farm4.staticflickr.com/3923/15115663626_df48a5fe85_b.jpg","https://www.flickr.com/photos/MicroPasts/15115663626","superuser",-0.9392,51.095,"selborne"
"23129","433","Spearhead V","P","Private Collection,1923,The Earl of Selborne,Blackmoor, Petersfield, Hampshire,30","England,Hampshire,Selborne,In garden of cottage on western side of road ascending from Eveley to Hogmoor.,Spring 1870","Selborne, Alton, Hampshire GU34, UK","51.095022","-0.9392239999999674","","None","None","1870","198","28","43","245","Dirty green. Stained with peat.","","2","Width: blade 53mm; 43mm; socket 28mm,Thickness: blade 2mm; 5mm; 12mm","","A hoard of at least 53 articles in 63 fragments. Mostly swords, spearheads, ferrules, and rings.","Wooden shaft still fastened by rivet. Strengthening ribs. Ornament 7 parts of concentric circles with border of lines round socket.","White, Gilbert. Nat. Hist. of Selborne, Macmillan, 1876, 254-8,White, Gilbert, Nat. Hist. of Selborne, Ed. Bell, 1877, 391,Evans, A. B. Imps, 464","","Joellen mcGann","https://farm6.staticflickr.com/5592/14951972879_9705e78487_b.jpg","https://www.flickr.com/photos/MicroPasts/14951972879","superuser",-0.9392,51.095,"selborne"
"23130","433","Spearhead V","L","Private Collection,1923,29,Lord Selborne,Blackmoor, Hampshire","England,Hampshire,Selborne,In the garden of a cottage on western side of road ascending from Eveley corner to Hogmoor.,Spring 1870","Selborne, Alton, Hampshire GU34, UK","51.095022","-0.9392239999999674","","None","None","1870","360","30","65","480","Dark green and bronze.","","30","Width: blade 22mm; 65mm; socket 30mm,Weight: 480 gms; wooden shaft 45 gms","","Hoard of leaf-shaped swords, spearheads, ferrules, and rings (53 articles in 63 fragments).","Ornamented round socket with 10 concentric parts of circles, there are 10 of these figures (At B), each consists of 5 fine lines and an outside stronger line. In the centre is a punch mark. -6 circles round rivet holes at A. Damaged edges. A wooden shaft remains in good condition.","White's Selborne Macmillan, 1867, Vol. II, p. 258, illus. plate IV fig. 8,White's Selborne, Bell, 1877, Vol. II, p. 381.,Evans, A. B. Imps., p. 464","","Joellen mcGann","https://farm6.staticflickr.com/5560/15138294112_67326410a3_b.jpg","https://www.flickr.com/photos/MicroPasts/15138294112","superuser",-0.9392,51.095,"selborne"
"23131","433","Spearhead V","T","Private Collection,1923,The Earl of Selborne,Blackmoor, Petersfield, Hampshire,39","England,Hampshire,Selborne,In garden of cottage on western side of road ascending from Eveley corner to Hogmoor. Spring 1870","Selborne, Alton, Hampshire GU34, UK","51.095022","-0.9392239999999674","","None","None","1870","180","26","46","","Green patina with very smooth bronze showing in places.","","13","Width: blade 46mm; 35mm; socket 26mm,Thickness: blade 13mm; 5mm","","A hoard of at least 53 articles in 63 fragments, mostly swords, spearheads, ferrules, and rings.","Rivet remaining in position through shaft. A well made piece.","White, Gilbert, Nat. Hist. of Selborne, Macmillan, 1876, 254-8,White, Gilbert, Nat. Host of Selborne, Ed. Bell, 1877, 381.,Evans, Bronze Imps, 464","","Joellen mcGann","https://farm4.staticflickr.com/3865/14951972639_8eaffdbbea_b.jpg","https://www.flickr.com/photos/MicroPasts/14951972639","superuser",-0.9392,51.095,"selborne"
"23132","433","Spearhead V","T","Private Collection,1923,The Earl of Selborne,Blackmoor, Petersfield, Hampshite,37","England,Hampshire,Selborne,In garden of cottage on western side of road ascending from Eveley corner to Hogmoor. Spring 1870","Selborne, Alton, Hampshire GU34, UK","51.095022","-0.9392239999999674","","None","None","1870","180","26","43","200","Dark green. Dirty greyish red elsewhere.","","10","Width: blade 43mm; 31mm; socket 26mm,Thickness: blade 10mm; 7mm","","A hoard of at least 53 articles in 63 fragments, mostly swords, spearheads, ferrules, and rings.","2 Rivet holes. Fairly good condition. Edges chipped.","White, Gilbert: Nat. Hist. of Selborne, Macmillan, 1876, 254-8,White, Gilbert: Nat. Hist. of Selborne, Ed. Bell, 1877, 381,Evans, B. Imps., 464","","Joellen mcGann","https://farm6.staticflickr.com/5555/14952011230_54649b762c_b.jpg","https://www.flickr.com/photos/MicroPasts/14952011230","superuser",-0.9392,51.095,"selborne"
"23133","433","Spearhead V","T","Earl of Selborne,Blackmoor, Petersfield, Hampshire,No. 47,1923","England,Hampshire,Selborne,In the garden of a cottage on the western side of the road ascending from Eveley corner to Hogmoor, Spring 1870","Selborne, Alton, Hampshire GU34, UK","51.095022","-0.9392239999999674","","None","None","1870","200","27","38","160","Green patina peat stained.","","","","","A hoard of at least 53 articles in 63 fragments, mostly swords, spearheads, ferrules, and rings.","Strengthening ribs long blade.","White, Gilbert: Nat. Hist. of Selborne, Macmillan, 1876, 254-8.,White, Gilbert: Nat. Hist. of Selborne, Ed. Bell, 1877, 381,Evans, B. Imps., 464","","Joellen mcGann","https://farm6.staticflickr.com/5584/15135693721_a823ae943b_b.jpg","https://www.flickr.com/photos/MicroPasts/15135693721","superuser",-0.9392,51.095,"selborne"
"23134","433","Spearhead V","T","Earl of Selborne,Blackmoor, Petersfield, Hampshire,No. 48,1923","England,Hampshire,Selborne,In garden of a cottage on western side of road ascending from Eveley corner to Hogmoor.,Spring 1870","Selborne, Alton, Hampshire GU34, UK","51.095022","-0.9392239999999674","","None","None","1870","95","24","31","35","Dark green.","","27","","","A hoard containing at least 53 articles in 63 fragments, mostly swords, spearheads, ferrules, and rings.","One wing of blade is damaged. Good quality.","White, Gilberts: Nat. Hist. of Selborne, Macmillan, 1876, 254-8.,White, Gilbert: Nat. Hist of Selborne, Ed. Bell, 1877, 381,Evans, B. Imps., 464.","","Joellen mcGann","https://farm4.staticflickr.com/3841/14951972059_020b1b9494_b.jpg","https://www.flickr.com/photos/MicroPasts/14951972059","superuser",-0.9392,51.095,"selborne"
"23135","433","Spearhead V","T","Earl of Selborne,Blackmoor, Petersfield, Hampshire,No. 41,1923","England,Hampshire,Selborne,In the garden of a cottage on the western side of the road ascending from Eveley corner to Hogmoor,Spring 1870","Selborne, Alton, Hampshire GU34, UK","51.095022","-0.9392239999999674","","None","None","1870","84","27","33","65","Light greyish red with specks of dark green.","","","","","A hoard containing at least 53 articles in 63 fragments, mostly swords, spearheads, ferrules, and rings.","2 rivet holes. Good condition. Well made.","White, Gilbert: Nat. Hist. of Selborne, Macmillan, 1876, 254-8,White, Gilbert: Nat. Hist of Selborne, Ed. Bell, 1877, 381,Evans, B. Imps, 464.","","Joellen mcGann","https://farm4.staticflickr.com/3851/15138660355_529da2b0a9_b.jpg","https://www.flickr.com/photos/MicroPasts/15138660355","superuser",-0.9392,51.095,"selborne"
"23136","433","Spearhead V","T","Private Collection,Lord Selborne,Blackmoor, Hampshire,No. 52","England,Hampshire,Selborne","Selborne, Alton, Hampshire GU34, UK","51.095022","-0.9392239999999674","","None","None","None","90","25","30","30","Dark green","","","","","Hoard of Leaf-shaped swords, spears, rings, and ferrule.","Good condition.","White's Selborne, Macmillan, 1877 [?1876], Vol, II, p. 258,Whites Selborne, Bell, 1877, Vol. II, p. 381.,Evans, p. 464","","Joellen mcGann","https://farm4.staticflickr.com/3894/14952120047_0574e10d73_b.jpg","https://www.flickr.com/photos/MicroPasts/14952120047","superuser",-0.9392,51.095,"selborne"
"23137","433","Spearhead V","T","Private Collection,1923,Lord Selborne,Blackmoor, Hampshire,49","England,Hampshire,Selborne","Selborne, Alton, Hampshire GU34, UK","51.095022","-0.9392239999999674","","None","None","1870","83","24","32","35","Remains of patina, olive green.","Bronze colour.","","","","Hoard of leaf shaped swords, spearheads, rungs, and ferrule.","Well made and in good condition.","Whites Selborne, Macmillan, 1877 [1876?], Vol. II, p. 258,White's Selborne, Bell, 1877, Vol. II, p. 381,Evans, p. 464","","Joellen mcGann","https://farm6.staticflickr.com/5591/15135692241_f3da5c523c_b.jpg","https://www.flickr.com/photos/MicroPasts/15135692241","superuser",-0.9392,51.095,"selborne"
"23138","433","Spearhead V","T","Private Collection,1923,Lord Selborne,50,Blackmoor,Hampshire","England,Hampshire,Selborne","Selborne, Alton, Hampshire GU34, UK","51.095022","-0.9392239999999674","","None","None","1870","92","26","35","35","Darkish green good patina.","","","","","Hoard of Leaf-shaped swords, spearheads, rings, and ferrule.","Good condition. Except for small blow holes from casting.","Whites, Selbourne, Macmillan, 1877 [1876?] Vol. II, p. 258,White's Selborne, Bell, 1877, Vol. II, p. 381,Evans, p. 464","","Joellen mcGann","https://farm4.staticflickr.com/3888/14952119317_b843ef833a_b.jpg","https://www.flickr.com/photos/MicroPasts/14952119317","superuser",-0.9392,51.095,"selborne"
"23139","433","Spearhead V","T","Private Collection,36,Earl of Selborne,Blackmoor, Petersfield, Hampshire,1923","England,Hampshire,Selborne,In garden of a cottage on western side of road ascending from Eveley to Hogmoor,Spring 1870","Selborne, Alton, Hampshire GU34, UK","51.095022","-0.9392239999999674","","None","None","1870","230","25","40","170","Dark green.","","5","Thickness: blade 5mm; 16mm","","A hoard of at least 53 articles in 63 fragments, mostly swords, spearheads, ferrules, and rings.","Damaged edges. Rivet remains in position, and part of the shaft.","White, G.: Nat. Hist. of Selborne, Macmillan, 1876, 254-8,White, G.: Nat. Hist. of Selbroen, Ed. Bell, 1877, 381,Evans, 464","","Joellen mcGann","https://farm6.staticflickr.com/5562/15115661426_e9e47d0df5_b.jpg","https://www.flickr.com/photos/MicroPasts/15115661426","superuser",-0.9392,51.095,"selborne"
"23140","433","Spearhead V","T","Private Collection,1923,Lord Selborne,Blackmoor, Hampshire,51","England,Hampshire,Selborne","Selborne, Alton, Hampshire GU34, UK","51.095022","-0.9392239999999674","","None","None","1870","76","25","31","25","Dark green patina.","","","","","Hoard of Leaf-shaped swords, spearheads, rings, and ferrule.","Good condition. Edge chipped.","White's Selborne, Macmillan, 1877 [1876?], Vol. II, p. 258,White's Selborne, Bell, 1877, Vol. II, p. 381,Evans, p. 464","","Joellen mcGann","https://farm4.staticflickr.com/3869/15138292482_0882568e4e_b.jpg","https://www.flickr.com/photos/MicroPasts/15138292482","superuser",-0.9392,51.095,"selborne"
"23141","433","Spearhead V","T","Private Collection,1923,The Earl of Selborne,Blackmoor, Petersfield, Hampshire,35","England,Hampshire,Selborne,In garden of cottage on western side of road ascending from Eveley to Hogmoor.,Spring 1870.","Selborne, Alton, Hampshire GU34, UK","51.095022","-0.9392239999999674","","None","None","1870","236","28","45","205","","","2","Width: blade 45mm; 20mm; socket 28mm,Thickness: 2mm; 5mm; 16mm","","A hoard containing at least 53 articles in 63 fragments, mostly swords, ferrules, spearheads, and rings.","Several holes worn in thin places on one side, through which the wood is seen. Well, but roughly made. Casting flash remains on socket. Shaft end still in socket.","White, Gilbert: Nat. Hist. of Selborne, Macmillan, 1876, 254-8.,White, Gilbert: Nat. Hist. of Selborne, Ed. Bell, 1877, 381,Evans, A. B. Imps., 464","","Joellen mcGann","https://farm6.staticflickr.com/5587/15115661306_698620b2e3_b.jpg","https://www.flickr.com/photos/MicroPasts/15115661306","superuser",-0.9392,51.095,"selborne"
"23142","433","Spearhead V","T","Earl of Selborne,Blackmoor, Petersfield, Hampshire,No. 25,1923","England,Hampshire,Selborne,In garden of a cottage on the western side of the road ascending from Eveley corner to Hogmoor.","Selborne, Alton, Hampshire GU34, UK","51.095022","-0.9392239999999674","","None","None","1870","166","27","41","115","Dark green brown, peat stained.","","10","Width: blade 34mm; 41mm; socket 27mm","","A hoard containing at least 53 articles in 63 fragments, mostly swords, spearheads, ferrules, and rings.","","White: Gilbert: Nat. Hist of Selborne, Macmillan, 1876, 254-8,White, Gilberts: Nat. Hist. of Selborne, Ed. Bell, 1877, 381,Evans, B. Imps, 464.","","Joellen mcGann","https://farm4.staticflickr.com/3891/14951970889_069eec36e0_b.jpg","https://www.flickr.com/photos/MicroPasts/14951970889","superuser",-0.9392,51.095,"selborne"
"23143","433","Spearhead V","T","Private Collection,1923,Lord Selborne, Blackmoor, Hampshire,33","England,Hampshire,Selborne,In the garden of a cottage on western side of road, ascending from Eveley to Hogmoor.,Spring 1870","Selborne, Alton, Hampshire GU34, UK","51.095022","-0.9392239999999674","","None","None","1870","285","25","47","345","Traces of dark green.","Apparently cleaned.","25","Thickness: socket 25mm to 27mm","","Leaf-shaped sword. spearheads, ferrule, and 3 rings (at least 53 articles in 63 fragments).","Good condition (except point). Remains of wood shaft in socket.","White's Selborne, Macmillan, 1876, Vol. II, pp. 254-258,White's Selborne, Bell, 1877, Vol. II, p. 381,Evans. A. B. Imps, p. 464","","Joellen mcGann","https://farm4.staticflickr.com/3860/15138660295_f7416d1883_b.jpg","https://www.flickr.com/photos/MicroPasts/15138660295","superuser",-0.9392,51.095,"selborne"
"23144","433","Spearhead V","P","Private Collection,The Earl of Selborne,Blackmoor, Petersfield, Hampshire,34,1923","England,Hampshire,Selborne,In garden of cottage on western side of road ascending from Eveley corner to Hogmoor,Spring 1870","Selborne, Alton, Hampshire GU34, UK","51.095022","-0.9392239999999674","","None","None","1870","225","25","40","170","Dark green in parts.","","2","Width: blade 22mm; 40mm; socket 25mm,Thickness: blade 2mm; 3mm; 18mm","","A hoard of at least 53 articles in 63 fragments, mostly swords, spearheads, ferrules, and rings.","Good condition. Piece of shaft remains in socket. Edges damaged.","White, Gilbert: Natural Hist. of Selborne, Macmillan, 1867,pp. 254-8.,White, Gilbert: Natural Hist. of Selborne, Ed. Bell, 1877, 381,Evans, A. B. Imps, 464.","","Joellen mcGann","https://farm4.staticflickr.com/3903/15138291852_16dbc258aa_b.jpg","https://www.flickr.com/photos/MicroPasts/15138291852","superuser",-0.9392,51.095,"selborne"
"23145","433","Spearhead V","T","Private Collection,1923,The Earl of Selborne,Blackfield (Blackmoor?), Petersfield, Hampshire,32","England,Hampshire,Selborne,In garden of a cottage on western side of road ascending from Eveley corner to Hogmoor.,Spring 1870","Selborne, Alton, Hampshire GU34, UK","51.095022","-0.9392239999999674","","None","None","1870","240","32","45","230","Dirty grey and green, peat stained.","","18","Width: blade 45mm; 40mm; 29mm; socket 32mm,Thickness: blade 18mm; 5mm","","A hoard of at least 53 articles in 63 fragments, mostly swords, spearheads, ferrules, and rings.","","White, Gilbert: Natural Hist. of Selborne, Macmillan, 1876, 254-8,White, Gilbert: Natural Hist. of Selborne, Ed. Bell, 1877, 381,Evans, A. B. Imps., 464","","Joellen mcGann","https://farm4.staticflickr.com/3864/14952118487_df3d845b4a_b.jpg","https://www.flickr.com/photos/MicroPasts/14952118487","superuser",-0.9392,51.095,"selborne"
"23146","433","Spearhead V","T","Private Collection,1923,26,Lord Selborne,Blackmoor, Hampshire","England,Hampshire,Selborne,In the garden of a cottage on western side of road ascending from Eveley corner to Hogmoor.,Spring 1870","Selborne, Alton, Hampshire GU34, UK","51.095022","-0.9392239999999674","","None","None","1870","139","22","45","","Dark green in places.","Lustrous bronze.","","Length: 139mm; 160mm","","Hoard of leaf-shaped swords, spearheads, ferrules, and rings (53 articles in 63 fragments).","Edges damaged and both sides of socket (between wings)","White's Selborne, Macmillan, 1876, Vol. II, pp. 254-258.,White's Selborne, Bell, 1877, Vol. II, p. 381,Evans, p. 464","","Joellen mcGann","https://farm6.staticflickr.com/5590/15135691201_be0f4c099c_b.jpg","https://www.flickr.com/photos/MicroPasts/15135691201","superuser",-0.9392,51.095,"selborne"
"23147","433","Spearhead V","T","Private Collection,Lord Selborne,Blackmoor, Hampshire","England,Hampshire,Selborne","Selborne, Alton, Hampshire GU34, UK","51.095022","-0.9392239999999674","","None","None","1870","120","26","32","40","Dark green patina.","","","","","Hoard of Leaf-shaped swords, spears, rings, and ferrule.","Edge damaged.","White's Selborne Macmillan 1877 [?1876], Vol. II, p. 258,White's Selborne, Bell, 1877, Vol. II, p. 381,Evans, p. 464.","","Joellen mcGann","https://farm6.staticflickr.com/5573/14952117927_9d8813b424_b.jpg","https://www.flickr.com/photos/MicroPasts/14952117927","superuser",-0.9392,51.095,"selborne"
"23148","433","Spearhead V","C Frag","Earl of Selborne,Blackmoor, Petersfield, Hampshire,No. 27,1923","England,Hampshire,Selborne,In garden of a cottage on western side of the road ascending from Eveley corner to Hogmoor,Spring 1870","Selborne, Alton, Hampshire GU34, UK","51.095022","-0.9392239999999674","","None","None","1870","180","30","38","125","Dark green -+ bronze","","16","","","A hoard containing at least 53 articles in 63 fragments, mostly swords, spearheads, ferrules, and rings.","","White, Gilbert: Nat. Hist of Selborne, Macmillan, 1876, 254-8,White, Gilbert: Nat. Hist. of Selborne, Ed. Bell, 1877, 381,Evans, B. Imps, 464","","Joellen mcGann","https://farm4.staticflickr.com/3856/15115660066_aab5e9120f_b.jpg","https://www.flickr.com/photos/MicroPasts/15115660066","superuser",-0.9392,51.095,"selborne"
"23149","433","Spearhead","","[Sotheby's Sale 8 Dec. 1994, Lot 80 - failed to reach reserve price],Ex-MacAlpine Collection, no. 626,Ex. Pitt Rivers Collection,Ex. George Roots Collection (Sold Christie's 20 april 91, Lot 33)","England,Hampshire,Probably Blackmoor,Alt. Site: Hampshite, Blackmoor Hoard,On circumstantial evidence (see file notes) rather likely that this is from the Blackmoor hoard.","Blackmoor, Liss, Hampshire GU33, UK","51.09587","-0.8876400000000331","","None","None","None","394","29","61","","","Dull dolden colour; v. small traces of v. dk brown sur.","31","","","","Dimensions: L 394mm; Wbl 61.0; Wm 29.3; min B flanges by openings 7.2; openings 10 x 47; 10 x 48.5; Ds 265 (?+); wt,Typology: Loz. section midrib gives way to circular socket around blade base; blade at mouldings are stepped in profile; very acute profile rim round openings; s. mouth [?survinley] flattened.,Manufacture: cg. flash visible only inside lunate openings - off centre on socket sides both towards same face.,Condition: edges intact and sharp; v. slight bend at tip in profile; simple hole perforates socket wall close to mouth; tiny cracks at mouth; ?punched dent in midrib at bl. base.,Attached material: Good length of shaft present - broken end visible has peg impression, this end is very oval in section (hence depth s. measurement goes way beyond).","MacGregor et al, 1985, 106, no. 11.42","Labels/Markings: white ink: , , From Roots Collection, Bt. April 20.91, b51.9.0 Hampshire""; white ink: ""M626"",Metallurgy: Analyst- Northover; Bibliog: MacGregor,Archive: PIF (0); PRBAF Photos: PS 286882; 286883; Rec: SN Deb. 95; Source: Sb. A. (Export Application)","Joellen mcGann","https://farm4.staticflickr.com/3898/14952117707_f0a58aa6a1_b.jpg","https://www.flickr.com/photos/MicroPasts/14952117707","superuser",-0.8876,51.0959,"selborne"
"23150","433","Palstave","I1D","British Museum, 93.6.18.7,Purchased at the sale of the Bateman Collection at Sotheby's through Messrs. Rollin and Fenardent, 1893,Part of lot 45 with lot 68,(7M79 8-13, G210-215)","England,Hampshire,Selborne I,Blackmoor,Woolmer Forest,Found in 1840, 12 ft. deep.","Woolmer Forest, Hampshire, UK","51.0857837","-0.8658609000000297","SU 78 33","None","None","1840","135","25","","365","Metallic bronze","Non-corroded","10","","","7-13: 1 palstave; 4 armlets; 2 finger rings","A rib down centre, one corner injured.","","Inacc,New drawing available,CI","Joellen mcGann","https://farm6.staticflickr.com/5585/15135690901_073e37f2b9_b.jpg","https://www.flickr.com/photos/MicroPasts/15135690901","superuser",-0.8659,51.0858,"selborne"
"23151","433","Bracelet","","London, British Museum, 93.6-18.8","England,Hampshire,Selborne,Blackmoor,Woolmer Forest,Hoard I 1840","Woolmer Forest, Hampshire, UK","51.0857837","-0.8658609000000297","SU 78 33","None","None","1840","","9","","","","","","","","7-13","Diam. 75","","ND 74; CI","Joellen mcGann","https://farm4.staticflickr.com/3905/14952008870_9155d4eb52_b.jpg","https://www.flickr.com/photos/MicroPasts/14952008870","superuser",-0.8659,51.0858,"selborne"
"23152","433","Bracelet","","London, British Museum,93.6-13.9","England,Hampshire,Selbourne,Blackmoor,Woolmer Forest,Hoard I 1840","Woolmer Forest, Hampshire, UK","51.0857837","-0.8658609000000297","SU 78 33","None","None","1840","","6","","","","","","","","7-13","Diam. 76","","ND74; CI","Joellen mcGann","https://farm6.staticflickr.com/5555/14952120798_970a052351_b.jpg","https://www.flickr.com/photos/MicroPasts/14952120798","superuser",-0.8659,51.0858,"selborne"
"23153","433","Bracelet","","London, British Museum, 93.6-18.10","England,Hampshire,Selborne,Blackmoor,Woolmer Forest,Hoard I 1840","Woolmer Forest, Hampshire, UK","51.0857837","-0.8658609000000297","SU 78 33","None","None","1840","","12","","","","","","","","7-13","Diam. 76","","ND74; CI","Joellen mcGann","https://farm6.staticflickr.com/5568/14952008000_ed6b64083a_b.jpg","https://www.flickr.com/photos/MicroPasts/14952008000","superuser",-0.8659,51.0858,"selborne"
"23154","433","Bracelet","","London, British Museum, 93.6-18.11","England,Hampshire,Selborne,Blackmoor,Woolmer Forest,Hoard I,1840","Woolmer Forest, Hampshire, UK","51.0857837","-0.8658609000000297","SU 78 33","None","None","1840","","7","","","","","","","","7-13","Diam. 73","","ND 74; CI","Joellen mcGann","https://farm6.staticflickr.com/5567/14952120528_72410344da_b.jpg","https://www.flickr.com/photos/MicroPasts/14952120528","superuser",-0.8659,51.0858,"selborne"
