"taskID","userID","objectType","rightCorner","collection","site","toSearch","Lat","Lon","gridRef","dateDiscoveryDay","dateDiscoveryMonth","dateDiscoveryYear","length","width","edge","weight","patina","surface","thickness","other","composition","associations","description","publications","remarks","inputBy","imageURL","flickrURL","Processing","lon","lat","project"
"29608","580","Macehead","","B.M. 63 1-20.3","Wiltshire, Great Bedwyn","Great Bedwyn, Marlborough, Wiltshire SN8, Royaume-Uni","51.37982","-1.6028430000000071","SU 27 64","None","None","None","","","","","","","","","","","","","","Denis Antoine","https://farm9.staticflickr.com/8683/16254038258_a45762e77b_b.jpg","https://www.flickr.com/photos/MicroPasts/16254038258","superuser",-1.6028,51.3798,"singleA18"
"29609","580","Socketed Sickle","","London, British Museum, 62.12-9.2","No provenance","","51.37982","-1.6028430000000071","","None","None","None","127","28","","","","","","","","","Ribbed blade. V-ribson socket.","Fox, P.P.S. (1939), 246 no. 45","C1","Denis Antoine","https://farm8.staticflickr.com/7350/16255792247_fea9c81b3e_b.jpg","https://www.flickr.com/photos/MicroPasts/16255792247","superuser",-1.6028,51.3798,"singleA18"
"29610","580","Socketed Hammer","","B.M. 54 12-27.36","No provenance","","51.37982","-1.6028430000000071","","None","None","None","","","","","","","","","","","","","C1","Denis Antoine","https://farm9.staticflickr.com/8651/16441706965_247b0479fb_b.jpg","https://www.flickr.com/photos/MicroPasts/16441706965","superuser",-1.6028,51.3798,"singleA18"
"29611","580","2 Awls very thin","","BM unreg.","No provenance","","51.37982","-1.6028430000000071","","None","None","None","","","","","","","","","","","","","CI","Denis Antoine","https://farm8.staticflickr.com/7439/16254298080_0b83c43c9c_b.jpg","https://www.flickr.com/photos/MicroPasts/16254298080","superuser",-1.6028,51.3798,"singleA18"
"29612","580","Awl","","BM unreg.","No provenance","","51.37982","-1.6028430000000071","","None","None","None","","","","","","","","","","","","","CI","Denis Antoine","https://farm8.staticflickr.com/7345/15821643393_c992ed6fa4_b.jpg","https://www.flickr.com/photos/MicroPasts/15821643393","superuser",-1.6028,51.3798,"singleA18"
"29613","580","Macehead","","B.M. 88 7-19.33","No provenance","","51.37982","-1.6028430000000071","","None","None","None","","","","","","","","","","","","","CI","Denis Antoine","https://farm9.staticflickr.com/8660/16255792317_b72bf18277_b.jpg","https://www.flickr.com/photos/MicroPasts/16255792317","superuser",-1.6028,51.3798,"singleA18"
"29614","580","Macehead","","B.M. Tr. 143","No provenance","","51.37982","-1.6028430000000071","","None","None","None","","","","","","","","","","","","","CI","Denis Antoine","https://farm9.staticflickr.com/8592/16254038328_d4c9d8c40f_b.jpg","https://www.flickr.com/photos/MicroPasts/16254038328","superuser",-1.6028,51.3798,"singleA18"
"29615","580","Macehead","","B.M. 88. 7-19.34","No provenance","","51.37982","-1.6028430000000071","","None","None","None","","","","","","","","","","","","","CI","Denis Antoine","https://farm8.staticflickr.com/7281/16255792347_515fd4f430_b.jpg","https://www.flickr.com/photos/MicroPasts/16255792347","superuser",-1.6028,51.3798,"singleA18"
"29616","580","Macehead","","B.M. 78. 11-1.229","No provenance","","51.37982","-1.6028430000000071","","None","None","None","","","","","","","","","","","","","CI","Denis Antoine","https://farm9.staticflickr.com/8665/16255453269_27473cfb5d_b.jpg","https://www.flickr.com/photos/MicroPasts/16255453269","superuser",-1.6028,51.3798,"singleA18"
"29617","580","Socketed Gouge","","B.M. 78. 11-1.225","No provenance","","51.37982","-1.6028430000000071","","None","None","None","","","","","","","","","","","","","CI","Denis Antoine","https://farm8.staticflickr.com/7318/16254298240_8fe0f742d7_b.jpg","https://www.flickr.com/photos/MicroPasts/16254298240","superuser",-1.6028,51.3798,"singleA18"
"29618","580","Socketed Gouge","","B.M. 78. 11-1.224","No provenance","","51.37982","-1.6028430000000071","","None","None","None","","","","","","","","","","","","","CI","Denis Antoine","https://farm8.staticflickr.com/7446/16439934391_e077747e40_b.jpg","https://www.flickr.com/photos/MicroPasts/16439934391","superuser",-1.6028,51.3798,"singleA18"
"29619","580","Socketed Gouge","","B.M. 78. 11-1.223","No provenance","","51.37982","-1.6028430000000071","","None","None","None","","","","","","","","","","","","","CI","Denis Antoine","https://farm9.staticflickr.com/8623/16439934451_87e302701c_b.jpg","https://www.flickr.com/photos/MicroPasts/16439934451","superuser",-1.6028,51.3798,"singleA18"
"29620","580","Tanged Chisel Collared","","B.M. 1920. 11-9.7","? Great Britain","","51.37982","-1.6028430000000071","","None","None","None","","","","","","","","","","","","","CI","Denis Antoine","https://farm8.staticflickr.com/7428/16255453539_4b5a3739b7_b.jpg","https://www.flickr.com/photos/MicroPasts/16255453539","superuser",-1.6028,51.3798,"singleA18"
"29621","580","Socketed Chisel","","B.M. 91. 5-14.62","R. Thames","","51.4917059","0.7321755000000394","","None","None","None","","","","","","","","","","","","","CI","Denis Antoine","https://farm8.staticflickr.com/7458/16255792597_9acaff6c53_b.jpg","https://www.flickr.com/photos/MicroPasts/16255792597","superuser",0.7322,51.4917,"singleA18"
"29622","580","Tanged Chisel","","British Museum 65.1-25.2","River Thames","","51.4917059","0.7321755000000394","","None","None","None","","","","","","","","","","","","","CI","Denis Antoine","https://farm8.staticflickr.com/7403/15819189744_9390018707_b.jpg","https://www.flickr.com/photos/MicroPasts/15819189744","superuser",0.7322,51.4917,"singleA18"
"29623","580","Tanged Chisel double collared","","B.M. W.G. 1760","R. Thames","","51.4917059","0.7321755000000394","","None","None","None","","","","","","","","","","","","","CI","Denis Antoine","https://farm8.staticflickr.com/7449/15821643973_646e5e7d26_b.jpg","https://www.flickr.com/photos/MicroPasts/15821643973","superuser",0.7322,51.4917,"singleA18"
"29624","580","Socketed Chisel Axe-like","","London, British Museum. WG 2161","East Sussex, Lewes","Lewes, Lewes, Sussex de l'Est, Royaume-Uni","50.87387200000001","0.008780000000001564","TQ 41 10","None","None","None","","","","","","","","","","","","","See new index, CI","Denis Antoine","https://farm8.staticflickr.com/7456/16255792647_23e5bb101f_b.jpg","https://www.flickr.com/photos/MicroPasts/16255792647","superuser",0.0088,50.8739,"singleA18"
"29625","580","Socketed Gouge","","British Museum 1910. 6-18. 3.","England, Sussex East, Alfriston","Alfriston, Polegate, East Sussex BN26, Royaume-Uni","50.808344","0.15635900000006586","TQ 51 03","None","None","None","112","diameter of socket 20","","83","green & grey.","smooth generally but slightly encrusted.","","","","","Bad casting with 3 flaws, two close together about 1/2"" from mouth of socket, the other about 2"" from it. Circular socket edge somewhat chipped","","OK (needs 2nd. section), CI","Denis Antoine","https://farm8.staticflickr.com/7313/16255454239_788cfcc281_b.jpg","https://www.flickr.com/photos/MicroPasts/16255454239","superuser",0.1564,50.8083,"singleA18"
"29626","580","Currier's Knife","","British Museum 1927. 12-12. 5","Suffolk, Mildenhall","Mildenhall, Bury Saint Edmunds, Suffolk IP28, Royaume-Uni","52.3444209","0.5109469999999874","TL 71 74","None","None","None","","","","","","","","","","","","","CI","Denis Antoine","https://farm8.staticflickr.com/7408/16441707515_4a41e4dc7c_b.jpg","https://www.flickr.com/photos/MicroPasts/16441707515","superuser",0.5109,52.3444,"singleA18"
"29627","580","Socketed Sickle","","London, British Museum, 1904. 10-21. 1.","Suffolk, Icklingham, Holywell Row.","Holywell Row, Bury Saint Edmunds, Suffolk IP28, Royaume-Uni","52.36552200000001","0.5088530000000446","TL 77 72","None","None","None","107","18","","","","","","","","","","","CI","Denis Antoine","https://farm8.staticflickr.com/7354/15821644043_57c5c7c90d_b.jpg","https://www.flickr.com/photos/MicroPasts/15821644043","superuser",0.5089,52.3655,"singleA18"
"29628","580","Tanged Chisel","","British Museum, WG 2029","North Yorks, Thinxendale","Thixendale, Malton, North Yorkshire YO17, Royaume-Uni","54.04346899999999","-0.7162479999999505","SE 84 61","None","None","None","","","","","","","","","","","","","CI","Denis Antoine","https://farm8.staticflickr.com/7390/16254038768_10e468fb6b_b.jpg","https://www.flickr.com/photos/MicroPasts/16254038768","superuser",-0.7162,54.0435,"singleA18"
"29629","580","Awl","","BM, WG 2031","Norfolk, Melton Constable","Melton Constable, Melton Constable, Norfolk NR24, Royaume-Uni","52.857864","1.038238999999976","TG 04 33","None","None","None","","","","","","","","","","","","","CI","Denis Antoine","https://farm8.staticflickr.com/7300/16254038778_40ebd82bcb_b.jpg","https://www.flickr.com/photos/MicroPasts/16254038778","superuser",1.0382,52.8579,"singleA18"
"29630","580","Saw","","British Museum, WG 2015","Norfolk, Grimes Graves","Grime's Graves, Thetford Forest Park, Lynford, Thetford, Norfolk IP26 5DE, Royaume-Uni","52.485167","0.6724759999999605","","None","None","None","","","","","","","","","","","","","CI","Denis Antoine","https://farm8.staticflickr.com/7341/16255792907_c6af887a23_b.jpg","https://www.flickr.com/photos/MicroPasts/16255792907","superuser",0.6725,52.4852,"singleA18"
"29631","580","Flanged Chisel Axe-like","","British Museum 52. 4-3. 5","England, Norfolk, Barton Bendish","Barton Bendish, King's Lynn, Norfolk PE33, Royaume-Uni","52.6214299","0.5285169999999653","TF 71 05","None","None","None","103","butt 19; Blade 33","","129","brown","slightly corroded on one face","18","","Bronze","","side flanges, edge of blade broken.","","Found on the Upland, Barton Bendish. Purchased from Samuel Lock, (of Barton Bendish), New drawing available, CI","Denis Antoine","https://farm9.staticflickr.com/8611/16440769612_24cce60efb_b.jpg","https://www.flickr.com/photos/MicroPasts/16440769612","superuser",0.5285,52.6214,"singleA18"
"29632","580","Socketed Gouge","","B.M. WG 2026","Lincs, Scothern","Scothern, Lincoln, Lincolnshire LN2, Royaume-Uni","53.2830749","-0.44959300000004987","TF 03 77","None","None","None","","","","","","","","","","","","","CI","Denis Antoine","https://farm8.staticflickr.com/7446/16441707715_d9cda98c6b_b.jpg","https://www.flickr.com/photos/MicroPasts/16441707715","superuser",-0.4496,53.2831,"singleA18"
"29633","580","Transverse Bronze Palstave Chisel","","British Museum WG 2017","England, Lincolnshire, North Owersby","North Owersby, Market Rasen, Lincolnshire LN8, Royaume-Uni","53.438077","-0.4053109999999833","TF 06 94","None","None","None","146","Butt 16; Blade 15","","165","brown.","smooth.","24","","Bronze","","strong side & stop ridges. edges of blade, & one flange slightly broken. edge on opposite plane.","","Almost OK (section), CI","Denis Antoine","https://farm9.staticflickr.com/8661/15821644413_50202f5a62_b.jpg","https://www.flickr.com/photos/MicroPasts/15821644413","superuser",-0.4053,53.4381,"singleA18"
"29634","580","Palstave Chisel, Transverse","","London, British Museum, W.G. 2017","Lincs, Owersby, North Owersby","North Owersby, Market Rasen, Lincolnshire LN8, Royaume-Uni","53.438077","-0.4053109999999833","TF 06 94","None","None","None","146","25","","","","","","","","","","","MMR, CI","Denis Antoine","https://farm8.staticflickr.com/7447/16439934901_9b7ae66aa6_b.jpg","https://www.flickr.com/photos/MicroPasts/16439934901","superuser",-0.4053,53.4381,"singleA18"
"29635","580","2 ? Sickle fragments","","B.M. 93. 4-26. 141, 143","Kent, Thanet, Minster, Ebbsfleet","Thanet, Kent, Royaume-Uni","51.3602516","1.348466300000041","","None","None","None","","","","","","","","","","","","","See new index, CI","Denis Antoine","https://farm8.staticflickr.com/7303/16439934931_d3f54b114b_b.jpg","https://www.flickr.com/photos/MicroPasts/16439934931","superuser",1.3485,51.3603,"singleA18"
"29636","580","Socketed Gouge","","London, B.M. 93. 2-5. 26","Kent, Stoke, Moo","Hoo, Medway, Royaume-Uni","51.420212","0.5633119999999963","TQ 82 75","None","None","None","62","14","","","","","","","","Founder's hoard","","","CI","Denis Antoine","https://farm8.staticflickr.com/7438/16255454079_6d03fb99f5_b.jpg","https://www.flickr.com/photos/MicroPasts/16255454079","superuser",0.5633,51.4202,"singleA18"
"29637","580","Socketed Gouge","","London, B.M. 93. 2-5. 25","Kent, Stoke, Hoo","Hoo, Medway, Royaume-Uni","51.420212","0.5633119999999963","TQ 82 75","None","None","None","81","17 (tip)","","","","","","","","Founder's hoard","","","CI","Denis Antoine","https://farm8.staticflickr.com/7459/16254039328_9bca9054f7_b.jpg","https://www.flickr.com/photos/MicroPasts/16254039328","superuser",0.5633,51.4202,"singleA18"
"29638","580","Fragment of Sickle","Frag.","British Museum, 93. 4-26. 135, Presented by A.W. Ranks Esq., 26/04/1893","England, Kent, Isle of Thanet, Minster (Ebbs Fleet 1893), Founder's hoard","Minster, Ramsgate, Kent CT12, Royaume-Uni","51.336651","1.3144360000000006","","None","None","None","","","","16","dark green","corroded","","","","9-151, Hoard consisting of 1 palstave, 2 winged celts, 18 socketed celts, 3 spear-heads, fragment of sickle, triangular knife, socketed knife, socketed hammer, fragment of implement, flanged ring, 3 pieces of harness and 2 jets.","Two ribs on one side","V.C.H. Kent. I. 322. 335, Sir C Fox. Arch. Cambrensis Dec. 1941 p. 142, No. 11., Proc. S.A. 2nd. S. vol XIV p. 309 & XV, 138, R.F. Jessup 'Kent' 259. Pl. VI","Almost OK, See new index, CI","Denis Antoine","https://farm8.staticflickr.com/7294/16440770092_0a84a11b9f_b.jpg","https://www.flickr.com/photos/MicroPasts/16440770092","superuser",1.3144,51.3367,"singleA18"
"29639","580","Hog Back Knife","","British Museum, 93. 4-26. 138, Presented by A.W. Ranks Esq., 26/4/1893","England, Kent, Isle of Thanet, Minster (Ebbs Fleet 1893), Founder's hoard","Minster, Ramsgate, Kent CT12, Royaume-Uni","51.336651","1.3144360000000006","","None","None","1893","80","40","","71","dark green metallic","Corroded in parts","7","","","9-151, Hoard consisting of 1 palstave, 2 winged celts, 13 socketed celts, 3 spear-heads, fragment of sickle, triangular knife, socketed knife, socketed hammer, fragment of implement, flanged ring 3 pieces of harness, and 2 jets.","Triangular knife pierced.","V.C.H. Kent, I, 322, 335., Proc. S.A. 2nd. S. vol. XIV, p. 309 & XV, 138., R.F. Jessups 'Kent' 110, 259.","Inacc., See new index, CI","Denis Antoine","https://farm8.staticflickr.com/7388/16254039508_a26705cf8d_b.jpg","https://www.flickr.com/photos/MicroPasts/16254039508","superuser",1.3144,51.3367,"singleA18"
"29640","580","Socketed Knife","B","British Museum, 93. 4-26. 136., Presented by A.W. Ranks Esq., 26/4/1893","England, Kent, Isle of Thanet, Minster (Ebbs Fleet 1893), Founder's hoard","Minster, Ramsgate, Kent CT12, Royaume-Uni","51.336651","1.3144360000000006","","None","None","1893","64","27","","45","brownish green","corroded","13","Section [","","9-151, Hoard consisting of 1 palstave, 2 winged celts, 13 socketed celts, 3 spear-heads, fragment of sickle, triangular knife, socketed knife, socketed hammer, fragment of implement, flanged ring 3 pieces of harness, and 2 jets.","","Proc. S.A. 2nd. S. vol. XIV p. 309","Section, inacc., See new index, CI","Denis Antoine","https://farm9.staticflickr.com/8578/16441708295_7532b14472_b.jpg","https://www.flickr.com/photos/MicroPasts/16441708295","superuser",1.3144,51.3367,"singleA18"
"29641",,,,,,,,,,,,,,,,,,,,,,,,,,,"https://farm9.staticflickr.com/8566/16255794317_6480fe1328_b.jpg",,"merged",,,"singleA18"
"29642",,,,,,,,,,,,,,,,,,,,,,,,,,,"https://farm9.staticflickr.com/8606/16415729306_a3589f4bd9_b.jpg",,"merged",,,"singleA18"
"29643",,,,,,,,,,,,,,,,,,,,,,,,,,,"https://farm8.staticflickr.com/7287/16439935791_307e60bd86_b.jpg",,"merged",,,"singleA18"
"29644",,,,,,,,,,,,,,,,,,,,,,,,,,,"https://farm9.staticflickr.com/8678/16254300150_5f2c23dee0_b.jpg",,"merged",,,"singleA18"
"29645",,,,,,,,,,,,,,,,,,,,,,,,,,,"https://farm8.staticflickr.com/7296/16254300190_eea165b27f_b.jpg",,"merged",,,"singleA18"
"29646",,,,,,,,,,,,,,,,,,,,,,,,,,,"https://farm9.staticflickr.com/8624/16440770872_d5ea088c56_b.jpg",,"merged",,,"singleA18"
"29647",,,,,,,,,,,,,,,,,,,,,,,,,,,"https://farm9.staticflickr.com/8601/16439936111_452d9226eb_b.jpg",,"merged",,,"singleA18"
"29648",,,,,,,,,,,,,,,,,,,,,,,,,,,"https://farm8.staticflickr.com/7416/16255455409_56e2065638_b.jpg",,"merged",,,"singleA18"
"29649",,,,,,,,,,,,,,,,,,,,,,,,,,,"https://farm8.staticflickr.com/7318/16441709305_389ff774c7_b.jpg",,"merged",,,"singleA18"
"29650",,,,,,,,,,,,,,,,,,,,,,,,,,,"https://farm8.staticflickr.com/7323/16254040818_8c722d9dda_b.jpg",,"merged",,,"singleA18"
"29651",,,,,,,,,,,,,,,,,,,,,,,,,,,"https://farm9.staticflickr.com/8635/16441709535_8b513f1300_b.jpg",,"merged",,,"singleA18"
"29652",,,,,,,,,,,,,,,,,,,,,,,,,,,"https://farm8.staticflickr.com/7443/16441709495_0894bfa6c1_b.jpg",,"merged",,,"singleA18"
"29653",,,,,,,,,,,,,,,,,,,,,,,,,,,"https://farm8.staticflickr.com/7362/16255794897_c65e72862d_b.jpg",,"merged",,,"singleA18"
"29654",,,,,,,,,,,,,,,,,,,,,,,,,,,"https://farm8.staticflickr.com/7348/15821646273_662fa5b556_b.jpg",,"merged",,,"singleA18"
"29655",,,,,,,,,,,,,,,,,,,,,,,,,,,"https://farm9.staticflickr.com/8654/16415730246_7c3b03677f_b.jpg",,"merged",,,"singleA18"
"29656",,,,,,,,,,,,,,,,,,,,,,,,,,,"https://farm8.staticflickr.com/7348/15821646383_e5c40e0ff5_b.jpg",,"merged",,,"singleA18"
"29657",,,,,,,,,,,,,,,,,,,,,,,,,,,"https://farm8.staticflickr.com/7431/16439937081_8101c9d63b_b.jpg",,"merged",,,"singleA18"
"29658",,,,,,,,,,,,,,,,,,,,,,,,,,,"https://farm8.staticflickr.com/7440/16254041168_ea06654a9e_b.jpg",,"merged",,,"singleA18"
"29659",,,,,,,,,,,,,,,,,,,,,,,,,,,"https://farm8.staticflickr.com/7334/16441709985_f215c4eba0_b.jpg",,"merged",,,"singleA18"
"29660",,,,,,,,,,,,,,,,,,,,,,,,,,,"https://farm8.staticflickr.com/7434/16254301100_ab5fd72d8b_b.jpg",,"merged",,,"singleA18"
"29661",,,,,,,,,,,,,,,,,,,,,,,,,,,"https://farm9.staticflickr.com/8592/15821646823_7e1ab5ffda_b.jpg",,"merged",,,"singleA18"
"29662",,,,,,,,,,,,,,,,,,,,,,,,,,,"https://farm9.staticflickr.com/8662/15819192604_54ccb7b164_b.jpg",,"merged",,,"singleA18"
"29663",,,,,,,,,,,,,,,,,,,,,,,,,,,"https://farm8.staticflickr.com/7295/16254041668_9b036e14d9_b.jpg",,"merged",,,"singleA18"
"29664",,,,,,,,,,,,,,,,,,,,,,,,,,,"https://farm8.staticflickr.com/7378/16254301480_c88fb4bbb6_b.jpg",,"merged",,,"singleA18"
"29665",,,,,,,,,,,,,,,,,,,,,,,,,,,"https://farm8.staticflickr.com/7287/16255795977_5dd9272175_b.jpg",,"merged",,,"singleA18"
"29666",,,,,,,,,,,,,,,,,,,,,,,,,,,"https://farm8.staticflickr.com/7387/16255795827_ac4acf03a5_b.jpg",,"merged",,,"singleA18"
"29667",,,,,,,,,,,,,,,,,,,,,,,,,,,"https://farm9.staticflickr.com/8615/15819192924_5c81fcb8f8_b.jpg",,"merged",,,"singleA18"
"29668",,,,,,,,,,,,,,,,,,,,,,,,,,,"https://farm9.staticflickr.com/8619/16440772392_52489349a4_b.jpg",,"merged",,,"singleA18"
"29669",,,,,,,,,,,,,,,,,,,,,,,,,,,"https://farm8.staticflickr.com/7404/16441710765_b32832132e_b.jpg",,"merged",,,"singleA18"
"29670",,,,,,,,,,,,,,,,,,,,,,,,,,,"https://farm8.staticflickr.com/7323/16441710875_60277bf905_b.jpg",,"merged",,,"singleA18"
"29671",,,,,,,,,,,,,,,,,,,,,,,,,,,"https://farm8.staticflickr.com/7342/16254042278_af83f1e166_b.jpg",,"merged",,,"singleA18"
"29672",,,,,,,,,,,,,,,,,,,,,,,,,,,"https://farm8.staticflickr.com/7356/16415731716_16a3ea61ff_b.jpg",,"merged",,,"singleA18"
"29673",,,,,,,,,,,,,,,,,,,,,,,,,,,"https://farm8.staticflickr.com/7432/16254302160_9e555b55f2_b.jpg",,"merged",,,"singleA18"
"29674",,,,,,,,,,,,,,,,,,,,,,,,,,,"https://farm8.staticflickr.com/7354/16415731776_7ba43c11c8_b.jpg",,"merged",,,"singleA18"
"29675",,,,,,,,,,,,,,,,,,,,,,,,,,,"https://farm8.staticflickr.com/7424/16254302360_53df0720d1_b.jpg",,"merged",,,"singleA18"
"29676",,,,,,,,,,,,,,,,,,,,,,,,,,,"https://farm8.staticflickr.com/7450/16415731976_1263c8d49d_b.jpg",,"merged",,,"singleA18"
"29677",,,,,,,,,,,,,,,,,,,,,,,,,,,"https://farm8.staticflickr.com/7383/15821647793_f0a4456de1_b.jpg",,"merged",,,"singleA18"
"29678",,,,,,,,,,,,,,,,,,,,,,,,,,,"https://farm9.staticflickr.com/8617/15819193714_9581c05bac_b.jpg",,"merged",,,"singleA18"
"29679","658","KNIFE,Leaf[...] flat [...]","","B.M. WG. 2022","NORTH YORKSHIRE,Seamer Carr","Scarborough, North Yorkshire, UK","54.283113","-0.39975200000003497","","None","None","None","","","","","","","","","","","","","No drawing of artifact attached.","Susan Magyarody","https://farm9.staticflickr.com/8672/16440773272_4c6012e6dd_b.jpg","https://www.flickr.com/photos/MicroPasts/16440773272","only good record",-0.3998,54.2831,"singleA18"
"29680","658","TANGED KNIFE","D2","B.M. 65. 6-20. 2.","GREATER LONDON,R. Thames","Greater London, UK","51.4309209","-0.09364959999993516","","None","None","None","","","","","","","","","","","","","No drawing of artifact attached.","Susan Magyarody","https://farm9.staticflickr.com/8578/15821647953_0e2353e686_b.jpg","https://www.flickr.com/photos/MicroPasts/15821647953","only good record",-0.0936,51.4309,"singleA18"
"29681","658","CURVED KNIFE,tanged","","British Museum, WG 1775","GREATER LONDON,R. Thames,,Wandsworth","London Borough of Wandsworth, Greater London, UK","51.4570716","-0.1817823999999746","TQ 25,74","None","None","None","","","","","","","","No drawing of artifact attached.","","","","","","Susan Magyarody","https://farm8.staticflickr.com/7375/15821648073_77956b5229_b.jpg","https://www.flickr.com/photos/MicroPasts/15821648073","only good record",-0.1818,51.4571,"singleA18"
"29682",,,,,,,,,,,,,,,,,,,,,,,,,,,"https://farm9.staticflickr.com/8595/16440773482_f0c14902f7_b.jpg",,"merged",,,"singleA18"
"29683",,,,,,,,,,,,,,,,,,,,,,,,,,,"https://farm8.staticflickr.com/7336/15821648233_f780d5bfe7_b.jpg",,"merged",,,"singleA18"
"29684","580","Hog Back Knife","","British Museum, 1931 - 3 - 14 - 6","Greater London, Bexley Heath, Founder's hoard, Discovered in 1930 in a sandpit belonging to Mr. Buxley, at a depth of 15-20 ft from the surface","Bexleyheath, Grand Londres, Royaume-Uni","51.45334099999999","0.13822000000004664","TQ 48 75","None","None","1930","82","49","","97","blue green","corroded","8","","","1-29, 21 Socketed Celts, 16 Fragments Socketed Celts, 1 Chisel?, 1 Knife, 1 Gouge, 1 Spearhead, 1 Sword, 1 Copper cake, Fragments Copper cakes","Perforated near back.","Antiquaries Journal vol. XI p. 170","Almost OK, CI, ND: 1974","Denis Antoine","https://farm8.staticflickr.com/7376/16439938711_a946c74572_b.jpg","https://www.flickr.com/photos/MicroPasts/16439938711","superuser",0.1382,51.4533,"singleA18"
"29685","580","Knife Leaf-bladed Flat-stemmed","","B.M. WG 2023","Grampian, Braemar, near","Braemar, Ballater, Aberdeenshire AB35, Royaume-Uni","57.006353","-3.3980320000000575","NO 15 91","None","None","None","","","","","","","","","","","","","CI","Denis Antoine","https://farm8.staticflickr.com/7337/16415732506_d3dca6a7c4_b.jpg","https://www.flickr.com/photos/MicroPasts/16415732506","superuser",-3.398,57.0064,"singleA18"
"29686","580","? Knife fragment","","B.M. 79. 12-9. 1783","Cumbria, Ulverston","Ulverston, Ulverston, Cumbrie LA12, Royaume-Uni","54.195138","-3.0926699999999983","","None","None","None","","","","","","","","","","","","","CI","Denis Antoine","https://farm8.staticflickr.com/7313/16255797317_2d1a05bffd_b.jpg","https://www.flickr.com/photos/MicroPasts/16255797317","superuser",-3.0927,54.1951,"singleA18"
"29687","580","Spearhead IV B","H","British Museum, 1902. 6 16 30, given by Wm. Hawley, Figheldean, Salisbury","England, Wiltshire, Brigmerston Down","Brigmerston, Salisbury, Wiltshire SP4, Royaume-Uni","51.210869","-1.7674319999999852","SU 16 45","None","None","None","189","blade 48; socket 25","","165.76","very fine dark green. bronze shows.","a few scratches.","blade 18; socket 27","","","","2 diamond shaped loops, outlined with incised lines. 2 Rivet holes. Rows of punched dots on blade. Incised decoration on socket.","","Inacc. drawing, CI","Denis Antoine","https://farm9.staticflickr.com/8650/15821648583_8d3633c6e2_b.jpg","https://www.flickr.com/photos/MicroPasts/15821648583","superuser",-1.7674,51.2109,"singleA18"
"29688","580","Spearhead fragment","L","B.M. 1902. 6-16. 31","England, Wilts, Milston Brigmerston, Brigmerston Down","Brigmerston, Salisbury, Wiltshire SP4, Royaume-Uni","51.210869","-1.7674319999999852","SU 16 45","None","None","None","","","","","","","","","","","","","CI","Denis Antoine","https://farm9.staticflickr.com/8654/16255458399_6119945614_b.jpg","https://www.flickr.com/photos/MicroPasts/16255458399","superuser",-1.7674,51.2109,"singleA18"
"29689","580","Spearhead","","London, British Museum, W.G. 2041","Wilts, Aldbourn","Aldbourne, Wiltshire, Royaume-Uni","51.479233","-1.6205300000000307","","None","None","None","106+","14","","","","dark green","","","","","tip broken, loops broken, irregular lower socket body","","MJR","Denis Antoine","https://farm9.staticflickr.com/8595/16440774012_086586af77_b.jpg","https://www.flickr.com/photos/MicroPasts/16440774012","superuser",-1.6205,51.4792,"singleA18"
"29690","580","Spearhead IV","F","British Museum WG 2041.","England, Wiltshire, Aldbourne","Aldbourne, Wiltshire, Royaume-Uni","51.479233","-1.6205300000000307","SU 26 75","None","None","None","105","blade 14; socket 15","","31.6","patches of bright green, over a closely grained dark brown bronze surface. A few patches of red brown on patina.","","blade 9; socket 15","","","","Internal socket. Side view of remaining loops. ?? Rib on socket, Point broken & both loops. Socket is uneven, with small hole in under part. Socket is quadrangular in central portion.","","Inacc. drawing, New drawing available, CI","Denis Antoine","https://farm9.staticflickr.com/8630/16254043638_787d101284_b.jpg","https://www.flickr.com/photos/MicroPasts/16254043638","superuser",-1.6205,51.4792,"singleA18"
"29691","580","Spearhead I","A","British Museum 56 6 27 44, purchased 1856","England, Isle of Wight, Arreton Down","Arreton, Newport, Isle of Wight PO30, Royaume-Uni","50.677772","-1.2437529999999697","SZ 54 86","None","None","None","216","blade 39; 27.","","146.75","brown, green & black marks. Reverse dark brown. Bronze shows.","smooth.","blade 10","","","","Left edge & tang chipped. High central ridge, bordered with 3 incised lines. Grooved edges.","","Inacc. drawing, CI","Denis Antoine","https://farm8.staticflickr.com/7362/16255797747_1bb7fd4883_b.jpg","https://www.flickr.com/photos/MicroPasts/16255797747","superuser",-1.2438,50.6778,"singleA18"
"29692","580","Spearhead","","British Museum","locality unknown","","50.677772","-1.2437529999999697","","None","None","None","213","blade 42; socket 28","","202.19","very dark brown, almost black, showing golden bronze.","rather flaky.","blade 16; socket 26.5","","","","Ribs down blade project slightly at sides, with rivet holes through them.","","","Denis Antoine","https://farm8.staticflickr.com/7424/16441712275_b3c9a44351_b.jpg","https://www.flickr.com/photos/MicroPasts/16441712275","superuser",-1.2438,50.6778,"singleA18"
"29693","580","Spearhead","","British Museum","locality unknown","","50.677772","-1.2437529999999697","","None","None","None","100","edge 33; socket 25","","53.61","remains of patina dark brown.","rough.","blade 15; socket 24","","","","2 rivet holes. left one broken.","","","Denis Antoine","https://farm9.staticflickr.com/8598/16254043748_55dbe7d751_b.jpg","https://www.flickr.com/photos/MicroPasts/16254043748","superuser",-1.2438,50.6778,"singleA18"
"29694","580","Spearhead","","British Museum","locality unknown","","50.677772","-1.2437529999999697","","None","None","None","91","blade 24","","29.6","very dark green, light near rib, with small dark red patches on face, greenish black on reverse.","pitted in centre","blade 10","","","","remains of rivet holes, in damaged socket.","","","Denis Antoine","https://farm8.staticflickr.com/7426/16439939421_392a543eed_b.jpg","https://www.flickr.com/photos/MicroPasts/16439939421","superuser",-1.2438,50.6778,"singleA18"
"29695","580","Spearhead","","British Museum","locality unknown.","","50.677772","-1.2437529999999697","","None","None","None","361","blade 31.5; 51; socket 23","","265.23","","finely pitted all over. bright gold & bronze.","socket 24.5; blade 20","","","","2 rivet holes. Carck across blade. Blade is much bent.","","","Denis Antoine","https://farm8.staticflickr.com/7295/16439939531_55d70f3634_b.jpg","https://www.flickr.com/photos/MicroPasts/16439939531","superuser",-1.2438,50.6778,"singleA18"
"29696","580","Spearhead","","British Museum, no number.","locality unknown","","50.677772","-1.2437529999999697","","None","None","None","93","blade 14; socket 19","","53.61","rusty black (greenish on reverse).","rough.","socket 18","","","","2 rivet holes, upper half of right one, not pierced. Slightly grooved towards point.","","blade section & blade thickness","Denis Antoine","https://farm8.staticflickr.com/7349/16439939611_e13d8d9f03_b.jpg","https://www.flickr.com/photos/MicroPasts/16439939611","superuser",-1.2438,50.6778,"singleA18"
"29697","580","Spearhead","","British Museum 63 1 22 96., from Mus. Pract. Geol.","locality unknown.","","50.677772","-1.2437529999999697","","None","None","None","88","blade 22; socket 17.","","35.43","medium green, over dark bronze on blade, & in patches on socket.","encrusted on blade & some roughness on socket.","socket 17; blade 8","","","","","","CI","Denis Antoine","https://farm9.staticflickr.com/8640/16440774752_509ba81791_b.jpg","https://www.flickr.com/photos/MicroPasts/16440774752","superuser",-1.2438,50.6778,"singleA18"
"29698","580","Spearhead","","British Museum 63 1 22 104, from Mus. Pract. Geol.","locality unknown.","","50.677772","-1.2437529999999697","","None","None","None","245","blade 38; socket 28","","192.11","","bright green corrosive spots on dull bronze. Roughish surface & rather dented.","blade 18; socket 23","","","","2 rivet holes. Socket end much dented. Point missing.","","""I doubt these being Irish"" AWF, CI","Denis Antoine","https://farm8.staticflickr.com/7366/16440774802_0afcb5bb13_b.jpg","https://www.flickr.com/photos/MicroPasts/16440774802","superuser",-1.2438,50.6778,"singleA18"
"29699","580","Spearhead","","British Museum 63 1. 22 89, from Mus. Pract. Geol.","locality unknown","","50.677772","-1.2437529999999697","","None","None","None","128","blade 20; socket 14","","49.61","black","smooth","blaaaade 9; socket 14","","","","Edges are damaged. Socket rim is worn","","CI","Denis Antoine","https://farm9.staticflickr.com/8615/16441712795_67abb1131c_b.jpg","https://www.flickr.com/photos/MicroPasts/16441712795","superuser",-1.2438,50.6778,"singleA18"
"29700","580","Spearhead","","British Museum 63 1 22 99, (Mus. Pract. Geol.)","locality unknown.","","50.677772","-1.2437529999999697","","None","None","None","152","blade 33; socket 22","","107.81","slight traces of (probably green) patina & dull brown","pitted","blade 14; socket 22","","","","Socket is damaged.","","CI","Denis Antoine","https://farm9.staticflickr.com/8613/16439939961_e4bd4a32c3_b.jpg","https://www.flickr.com/photos/MicroPasts/16439939961","superuser",-1.2438,50.6778,"singleA18"
"29701","580","Spearhead","","British Museum 54 7 14 233, Collecton of Cook of Parsonstown","locality unknown","","50.677772","-1.2437529999999697","","None","None","None","250","blade 43; socket 26","","248.56","some bright green patina towards point. Golden bronze on edges of wings.","several holes in centre rib. pit on right side. Dull bronze.","blade 17; socket 27","","","","Mended across bottom of blade.","","CI","Denis Antoine","https://farm9.staticflickr.com/8636/15819195524_6e59001cb1_b.jpg","https://www.flickr.com/photos/MicroPasts/15819195524","superuser",-1.2438,50.6778,"singleA18"
"29702","580","Spearhead","","British Museum 54 7 14 232, Cooke Collection Parsonstown.","locality unknown","","50.677772","-1.2437529999999697","","None","None","None","155","blade 50; socket 26","","190.52","some patina, light brown.","rubbed smooth in places & mottled.","blade 18; socket 25","","","","hole in reverse on central rib.","","CI","Denis Antoine","https://farm8.staticflickr.com/7327/16254044328_629b6e0a24_b.jpg","https://www.flickr.com/photos/MicroPasts/16254044328","superuser",-1.2438,50.6778,"singleA18"
"29703","580","Spearhead","","British Museum 54 7 14 231, Cooke Collection","locality unknown","","50.677772","-1.2437529999999697","","None","None","None","177","blade 58; socket 29","","195.86","blackish brown.","rough, much scratched & notched especially on reverse. 2 small holes in blade.","blade 14.5; socket 29","","said to be copper","","2 holes in blade for fastening. crack under right hand one. Edges damaged, also rim of socket.","","CI","Denis Antoine","https://farm8.staticflickr.com/7407/15819195684_4eb013040c_b.jpg","https://www.flickr.com/photos/MicroPasts/15819195684","superuser",-1.2438,50.6778,"singleA18"
"29704","580","Spearhead tip","frag.","B.M. 95. 7-23. 34","Berks, Wilts or Somerset, Kennet and Avon Canal","Canal Kennet et Avon, Royaume-Uni","51.3753126","-1.88837680000006","","None","None","None","","","","","","","","","","","","","Perhaps most probably Wiltshire - part of the collection of Rev. Duke of Lake, Wilts. (RM Thomas 18.7.82), CI","Denis Antoine","https://farm8.staticflickr.com/7448/16255798737_531b003be3_b.jpg","https://www.flickr.com/photos/MicroPasts/16255798737","superuser",-1.8884,51.3753,"singleA18"
"29705","580","Spearhead","","British Museum 55 8 4 33, (Chaffer's Sale)","locality unknown","","51.3753126","-1.88837680000006","","None","None","None","122","blade 40","","29.46","rusty brown & dark green on rib. blue patch on tip of right wing.","scratched on nupper part of rib.","blade 17","","","","Point bent forward. Back part of socket broken away.","","Rather inacc.","Denis Antoine","https://farm8.staticflickr.com/7404/16440775372_5dd4af6ea8_b.jpg","https://www.flickr.com/photos/MicroPasts/16440775372","superuser",-1.8884,51.3753,"singleA18"
"29706","580","Spearhead","","British Museum","locality unknown","","51.3753126","-1.88837680000006","","None","None","None","119","blade 46","","81.96","dark green.","rather rough.","blade 13","","","","2 openings in blade, with raised rib round them. Point is missing. Deep crack across rib on reverse. Socket is badly broken & more broken away on reverse, showing shaft in remains of socket.","","Rather inacc.","Denis Antoine","https://farm8.staticflickr.com/7430/16254304800_76085c2a95_b.jpg","https://www.flickr.com/photos/MicroPasts/16254304800","superuser",-1.8884,51.3753,"singleA18"
"29707","580","Spearhead","","British Museum 73 6 2 22 (Midland Counties Works of Art Exhibition)","locality unknown.","","51.3753126","-1.88837680000006","","None","None","None","118","blade 21; socket 23","","78.21","very dark green, mottled with black, & some lighter green.","pitted.","blade 12; socket 23","","","","2 rivet holes, one slightly broken. Point missing.","","Rather inacc.","Denis Antoine","https://farm9.staticflickr.com/8561/16440775432_99fc6d9468_b.jpg","https://www.flickr.com/photos/MicroPasts/16440775432","superuser",-1.8884,51.3753,"singleA18"
"29708","580","Spearhead","","British Museum 63 1 22 103, from Mus. Pract. Geol.","locality unknown.","","51.3753126","-1.88837680000006","","None","None","None","353","blade 60; socket 21","","291.08","light brown with green patches, black on socket.","","blade 15; socket 21","","","","2 small holes in blade with high ears.","","Inacc. (""I doubt these being Irish"" A.W. Franks)","Denis Antoine","https://farm8.staticflickr.com/7371/16254304810_77c7ca6186_b.jpg","https://www.flickr.com/photos/MicroPasts/16254304810","superuser",-1.8884,51.3753,"singleA18"
"29709","580","Spearhead","","British Museum, Un numbered, Table case","locality unknown.","","51.3753126","-1.88837680000006","","None","None","None","263","blade 29; 40; socket 20.","","163.01","","dull bronze. dark stains. also speckled.","blade 13; socket 20","","","","Socket rim is chipped. The blade is ribbed.","Hor. Fer. VI 17.","","Denis Antoine","https://farm9.staticflickr.com/8621/16415734036_8e8ff78dfc_b.jpg","https://www.flickr.com/photos/MicroPasts/16415734036","superuser",-1.8884,51.3753,"singleA18"
"29710","580","Spearhead","","British Museum","locality unknown","","51.3753126","-1.88837680000006","","None","None","None","219","blade 49; socket 36","","189.02","brown","heavily corroded & covered with whitish encrustation.","blade 17","","","","Socket badly damaged. Edges much worn.","","","Denis Antoine","https://farm8.staticflickr.com/7373/16255459579_d795365b8e_b.jpg","https://www.flickr.com/photos/MicroPasts/16255459579","superuser",-1.8884,51.3753,"singleA18"
"29711","580","Tanged Spearhead","A","B.M. 56. 6-27. 43","England, No provenance, (? Hintlesham, Suffolk)","Angleterre, Royaume-Uni","52.3555177","-1.1743197000000691","","None","None","None","","","","","","","","","","","","","","Denis Antoine","https://farm9.staticflickr.com/8589/16440775612_4a60ae739c_b.jpg","https://www.flickr.com/photos/MicroPasts/16440775612","superuser",-1.1743,52.3555,"singleA18"
"29712","580","Spearhead","G","B.M. Unregistered","No provenance","","52.3555177","-1.1743197000000691","","None","None","None","","","","","","","","","","","","","CI","Denis Antoine","https://farm8.staticflickr.com/7343/16415734126_c94fa03fb9_b.jpg","https://www.flickr.com/photos/MicroPasts/16415734126","superuser",-1.1743,52.3555,"singleA18"
"29713","580","Spearhead","T","B.M. 68. 8-15. 9","No provenance","","52.3555177","-1.1743197000000691","","None","None","None","","","","","","","","","","","","","CI","Denis Antoine","https://farm8.staticflickr.com/7419/16254044698_ed477ffa12_b.jpg","https://www.flickr.com/photos/MicroPasts/16254044698","superuser",-1.1743,52.3555,"singleA18"
"29714","580","Spearhead","T","B.M. 88. 7-19. 25","No provenance","","52.3555177","-1.1743197000000691","","None","None","None","","","","","","","","","","","","","CI","Denis Antoine","https://farm8.staticflickr.com/7287/15821649993_a0856ceb46_b.jpg","https://www.flickr.com/photos/MicroPasts/15821649993","superuser",-1.1743,52.3555,"singleA18"
"29715","580","2 Spearhead fragments","","B.M. 88. 7-19. 26-27","No provenance","","52.3555177","-1.1743197000000691","","None","None","None","","","","","","","","","","","","","CI","Denis Antoine","https://farm8.staticflickr.com/7333/15819196124_1da3781bdb_b.jpg","https://www.flickr.com/photos/MicroPasts/15819196124","superuser",-1.1743,52.3555,"singleA18"
"29716","580","Spearhead","","British Museum 88 7 19 23, Londesborough Sale.","locality unknown","","52.3555177","-1.1743197000000691","","None","None","None","182","blade 40; socket 23","","111.06","chocolate. broken along edges especially, leaving surface rusty.","","socket 23; blade 14","","","","2 rivet holes. Edges chipped & socket rim slightly so. Two holes near point & one on side of socket.","","Rather inacc., CI","Denis Antoine","https://farm8.staticflickr.com/7402/15819196204_f5ea05e550_b.jpg","https://www.flickr.com/photos/MicroPasts/15819196204","superuser",-1.1743,52.3555,"singleA18"
"29717","580","Spearhead","","British Museum 66 6 27 120","locality unknown","","52.3555177","-1.1743197000000691","","None","None","None","123","blade 28; socket 20","","58.95","slight patina dark greenish brown","smooth. finely striped","blade 12; socket 21","","","","","","Rather inacc., CI","Denis Antoine","https://farm8.staticflickr.com/7406/16441713625_ac33227149_b.jpg","https://www.flickr.com/photos/MicroPasts/16441713625","superuser",-1.1743,52.3555,"singleA18"
"29718","580","Spearhead V","T","British Museum S.L 447.","Scotland","Ã‰cosse, Royaume-Uni","56.49067119999999","-4.2026458000000275","","None","None","None","277","blade 52; socket 29","","304.76","","dull bronze pitted with black. Rough.","socket 29; blade 18","","","","Crack through blade (larger on reverse). Socket broken in two & pieces missing.","","Amost OK, CI","Denis Antoine","https://farm8.staticflickr.com/7351/15821650153_242ffc305a_b.jpg","https://www.flickr.com/photos/MicroPasts/15821650153","superuser",-4.2026,56.4907,"singleA18"
"29719","580","Spearhead","","Private","No provenance","","56.49067119999999","-4.2026458000000275","","None","None","None","","","","","","","","","","","","","See new index","Denis Antoine","https://farm9.staticflickr.com/8592/16254044898_54e6255c70_b.jpg","https://www.flickr.com/photos/MicroPasts/16254044898","superuser",-4.2026,56.4907,"singleA18"
"29720","580","Spearhead","","London, British Museum, 73. 5-1. 1","England","Angleterre, Royaume-Uni","52.3555177","-1.1743197000000691","","None","None","None","191","41","","","","matt dark green-brown, blade edges broken, face worn away","","","","","","","MJR","Denis Antoine","https://farm8.staticflickr.com/7331/16441713795_6828034a24_b.jpg","https://www.flickr.com/photos/MicroPasts/16441713795","superuser",-1.1743,52.3555,"singleA18"
"29721","580","Spearhead III A","XG","British Museum 73 5 1 1","England (probably)","Angleterre, Royaume-Uni","52.3555177","-1.1743197000000691","","None","None","None","191","blade 41; socket 23","","133.81","dark brown on socket, dull greenish brown on blade.","fairly smooth, a little rubbed & scratched in places.","blade 15; socket 22","","","","Two rivet holes in socket","","Internal section, [...] of loops, New drawing available, CI","Denis Antoine","https://farm8.staticflickr.com/7353/16255799377_f8382de09b_b.jpg","https://www.flickr.com/photos/MicroPasts/16255799377","superuser",-1.1743,52.3555,"singleA18"
"29722","580","Spearhead","","British Museum 66 6 27 117, Christy Collection","locality unknown","",,,"","None","None","None","170","blade 45; socket 25","","150.83","remains of green.","dull brown, finely pitted on socket.","socket 25; blade 14","","","","Socket end rather battered. Two rivet holes.","","CI","Denis Antoine","https://farm8.staticflickr.com/7396/15821650373_bfc6f253bd_b.jpg","https://www.flickr.com/photos/MicroPasts/15821650373","superuser",,,"singleA18"
"29723","580","Spearhead","","British Museum 66 6 27 116","locality unknown","",,,"","None","None","None","176","blade 44; socket 24","","127.56","(on wing) dark brown.","smooth","blade 14; socket 24","","","","front of socket broken. 2 rivet holes.","","CI","Denis Antoine","https://farm8.staticflickr.com/7293/16415734546_56efdc2369_b.jpg","https://www.flickr.com/photos/MicroPasts/16415734546","superuser",,,"singleA18"
"29724","580","Spearhead V","T, Int. Sect.","British Museum WG 1646","England, Tyne & Wear, Newcastle Bridge, R. Tyne","Tyne and Wear, Royaume-Uni","54.9951837","-1.5666991000000507","NZ 24 64","None","None","None","405","blade 65; socket 22","","440.92","very drak green, partly flaked off.","","blade 17; socket 20","","","","No rivet holes. Socket rim broken. Two deep cracks across rib & decayed spot in centre. End of blade bent & twisted.","","AOK, Internal section, CI","Denis Antoine","https://farm8.staticflickr.com/7363/16439940891_264e3006e2_b.jpg","https://www.flickr.com/photos/MicroPasts/16439940891","superuser",-1.5667,54.9952,"singleA18"
"29725","580","Spearhead V","L","British Museum WG 1667.","England, Tyne & Wear, Newcastle upon Tyne, Elswick, N. bank of Tyne at King's Meadows","Elswick, Newcastle upon Tyne, Newcastle upon Tyne, Tyne and Wear NE4, Royaume-Uni","54.968284","-1.648392000000058","","None","None","None","234","blade 67; socket 26","","267.98","brown & black with a few light green patches especially on reverse.","rough","blade 21; socket 28","","","","Socket battered. Two openings in blade. 2 rivet holes. Blade end is bent.","","CI","Denis Antoine","https://farm8.staticflickr.com/7318/16441713915_3866d1b6e5_b.jpg","https://www.flickr.com/photos/MicroPasts/16441713915","superuser",-1.6484,54.9683,"singleA18"
"29726","580","Spearhead III","X F","British Museum 56. 7 1 1364, Roach Smith Collection","England, Thames, no provenance","","54.968284","-1.648392000000058","","None","None","None","219","blade 43; socket 21","","157.17","","rusty bronze.","blade 14; socket 21","","","","Blade bent at point. Two ribs round edges. Traces of ribbing on socket.","","Internal section, Side view of loops., Inacc., New drawing available","Denis Antoine","https://farm9.staticflickr.com/8634/15819196504_f27da91db6_b.jpg","https://www.flickr.com/photos/MicroPasts/15819196504","superuser",-1.6484,54.9683,"singleA18"
"29727","580","Spearhead V A","X J","British Museum 66 12 11 5","England, R. Thames","Angleterre, Royaume-Uni","52.3555177","-1.1743197000000691","","None","None","None","345","blade 61; socket 23","","349.31","black showing bright on centre right edge.","a little rust on reverse. Mostly smooth.","blade 18; socket 23","","","","2 small loops with ears, in blade","","Not quite accurate., Internal socket, blade section across loops., CI","Denis Antoine","https://farm9.staticflickr.com/8626/16254305500_c71de87ec1_b.jpg","https://www.flickr.com/photos/MicroPasts/16254305500","superuser",-1.1743,52.3555,"singleA18"
"29728","580","Spearhead","S","B.M. 63 1-22. 127","R. Thames","Tamise","51.4917059","0.7321755000000394","","None","None","None","","","","","","","","","","","","","CI","Denis Antoine","https://farm9.staticflickr.com/8663/16255799657_93a24d91f7_b.jpg","https://www.flickr.com/photos/MicroPasts/16255799657","superuser",0.7322,51.4917,"singleA18"
"29729","580","Spearhead V","T, Int. Sect.","British Museum 55 9 27 1","England, R. Thames","Tamise","51.4917059","0.7321755000000394","","None","None","None","326","blade 61; socket 24","","338.11","patches of black patina","scraped bright bronze.","socket 24; blade 16","","","","Part of old shaft remains.","","Inacc., Internal section., CI","Denis Antoine","https://farm8.staticflickr.com/7364/16254045358_7b844702d8_b.jpg","https://www.flickr.com/photos/MicroPasts/16254045358","superuser",0.7322,51.4917,"singleA18"
"29730","580","Spearhead","G.","BM 56 7-1 1367","Prob. Thames","","51.4917059","0.7321755000000394","","None","None","None","","","","","","","","","","","","","CI","Denis Antoine","https://farm9.staticflickr.com/8609/16255799697_e35fe8e5ef_b.jpg","https://www.flickr.com/photos/MicroPasts/16255799697","superuser",0.7322,51.4917,"singleA18"
"29731","580","Spearhead","G/H","British Museum 56 7 1 1367, C.R.S.","River Thames (probably), locality unknown","","51.4917059","0.7321755000000394","","None","None","None","240","blade 50; socket 21","","209.27","patches of black on dull golden bronze","smooth.","blade 16; socket 22.5","","","","Small oval hole in right of socket. Chip at right loop.","","On display, CI","Denis Antoine","https://farm9.staticflickr.com/8621/16255799807_c3f330e0a7_b.jpg","https://www.flickr.com/photos/MicroPasts/16255799807","superuser",0.7322,51.4917,"singleA18"
"29732","580","Spearhead V","T, Int. sect.","British Museum 67 3 24 1","England, R. Thames","Tamise","51.4917059","0.7321755000000394","","None","None","None","424","blade 54; socket 25","","","black patina with dark purple patches on face","much encrusted with sand. brown & white","blade 16; socket 25","","443.42","","2 Rivet holes at side, filled in.","","Almost OK, Internal section, CI","Denis Antoine","https://farm8.staticflickr.com/7381/16439941241_a8d422ddec_b.jpg","https://www.flickr.com/photos/MicroPasts/16439941241","superuser",0.7322,51.4917,"singleA18"
"29733","580","Spearhead V","T, Int. sect.","British Museum 67 10 12 1","England, R. Thames","Tamise","51.4917059","0.7321755000000394","","None","None","None","362","blade 58","","378.13","dark green. bronze shows on centre.","much worn & pitted.","blade 15","","","","Edges very rough. Socket broken off at wings. Point is bent (towards back).","","Inacc. drawing., Internal section., CI","Denis Antoine","https://farm8.staticflickr.com/7300/16415735016_2f9027fc2c_b.jpg","https://www.flickr.com/photos/MicroPasts/16415735016","superuser",0.7322,51.4917,"singleA18"
"29734","580","Spearhead","","London, British Museum, 75. 4-1. 43","R. Thames","Tamise","51.4917059","0.7321755000000394","","None","None","None","84","22","","","","matt black; edge damaged","","","","","","","MJR","Denis Antoine","https://farm8.staticflickr.com/7412/15821650863_15a9361b9e_b.jpg","https://www.flickr.com/photos/MicroPasts/15821650863","superuser",0.7322,51.4917,"singleA18"
"29735","580","Spearhead IV B","G/H","British Museum 75 4 1 43","England, R. Thames, 24. 7. 66.","Tamise","51.4917059","0.7321755000000394","","None","None","None","85","blade 22; socket 17","","44.77","slight patina black","finely pitted","blade 12; socket 16","","","","Edges chipped. 3 cracks across blade. Socket rim battered.","","Inacc., Internal socket, Rib on socket? YES, Side view of loops, New drawing available, CI","Denis Antoine","https://farm8.staticflickr.com/7389/16441714395_9dfeaf8a13_b.jpg","https://www.flickr.com/photos/MicroPasts/16441714395","superuser",0.7322,51.4917,"singleA18"
"29736","580","Spearhead","","London, British Museum, 75. 4-1. ?42","R. Thames","Tamise","51.4917059","0.7321755000000394","","None","None","None","112","32 ex","","","","matt dark brown-green; edges broken, clay core still remains in part of the midrib","","","","","","","MJR","Denis Antoine","https://farm8.staticflickr.com/7389/16441714455_0300e60af5_b.jpg","https://www.flickr.com/photos/MicroPasts/16441714455","superuser",0.7322,51.4917,"singleA18"
"29737","580","Spearhead IV B","Internal section, Side view of loops, X, G/H,","British Museum 75 4 1 42., purchased (1875)","England, R. Thames","Tamise","51.4917059","0.7321755000000394","","None","None","None","112","blade 32; socket 23","","54.36","slight patina, rusty green.","","blade 14; socket 23","","","","Blade damaged, socket is broken.","","Redraw, New drawing available, CI","Denis Antoine","https://farm9.staticflickr.com/8593/16254045678_8c53e6fcbc_b.jpg","https://www.flickr.com/photos/MicroPasts/16254045678","superuser",0.7322,51.4917,"singleA18"
"29738","580","Spearhead V","T","British Museum 1853. 4-12. 10.","England, Sussex East, Lewes, South Downs, near","South Downs, Plumpton Green, Lewes, East Sussex BN7, Royaume-Uni","50.9306215","-0.05956330000003618","","None","None","None","164","42","","99","Green & brown patina, occurring in mixed streaks of colour; apparently due to modern attemps to clean off the green patina.","smooth and clean.","24","","","","Good condition except for chips off the edgesn and one or two pits on midrib. Large rivet holes.","Horae Ferales Pl. VI,  28.","OK? Almost, Section, CI","Denis Antoine","https://farm9.staticflickr.com/8586/16441714635_0395364c1d_b.jpg","https://www.flickr.com/photos/MicroPasts/16441714635","superuser",-0.0596,50.9306,"singleA18"
"29739",,,,,,,,,,,,,,,,,,,,,,,,,,,"https://farm8.staticflickr.com/7454/15819196964_6a20ba2f2f_b.jpg",,"merged",,,"singleA18"
"29740",,,,,,,,,,,,,,,,,,,,,,,,,,,"https://farm8.staticflickr.com/7321/16440776692_79c707627a_b.jpg",,"merged",,,"singleA18"
"29741",,,,,,,,,,,,,,,,,,,,,,,,,,,"https://farm8.staticflickr.com/7434/15819197164_e33f0f1c52_b.jpg",,"merged",,,"singleA18"
"29742",,,,,,,,,,,,,,,,,,,,,,,,,,,"https://farm8.staticflickr.com/7384/15819197214_30f9f1d651_b.jpg",,"merged",,,"singleA18"
"29743",,,,,,,,,,,,,,,,,,,,,,,,,,,"https://farm8.staticflickr.com/7325/16255460989_193ebbd23c_b.jpg",,"merged",,,"singleA18"
"29744",,,,,,,,,,,,,,,,,,,,,,,,,,,"https://farm9.staticflickr.com/8605/15819197314_b9eace36aa_b.jpg",,"merged",,,"singleA18"
"29745",,,,,,,,,,,,,,,,,,,,,,,,,,,"https://farm8.staticflickr.com/7326/15819197354_a8f60d5375_b.jpg",,"merged",,,"singleA18"
"29746",,,,,,,,,,,,,,,,,,,,,,,,,,,"https://farm8.staticflickr.com/7439/16440777022_99967c3dce_b.jpg",,"merged",,,"singleA18"
"29747",,,,,,,,,,,,,,,,,,,,,,,,,,,"https://farm9.staticflickr.com/8658/16255800397_ea02642778_b.jpg",,"merged",,,"singleA18"
"29748",,,,,,,,,,,,,,,,,,,,,,,,,,,"https://farm9.staticflickr.com/8583/16440777132_ca3d56a3f6_b.jpg",,"merged",,,"singleA18"
"29749",,,,,,,,,,,,,,,,,,,,,,,,,,,"https://farm9.staticflickr.com/8618/16441715085_ca1395aa01_b.jpg",,"merged",,,"singleA18"
"29750",,,,,,,,,,,,,,,,,,,,,,,,,,,"https://farm8.staticflickr.com/7345/16439942031_4fd28a3d8f_b.jpg",,"merged",,,"singleA18"
"29751",,,,,,,,,,,,,,,,,,,,,,,,,,,"https://farm8.staticflickr.com/7398/16255461269_163536115c_b.jpg",,"merged",,,"singleA18"
"29752",,,,,,,,,,,,,,,,,,,,,,,,,,,"https://farm9.staticflickr.com/8679/15821651873_8c07c4c5b5_b.jpg",,"merged",,,"singleA18"
"29753",,,,,,,,,,,,,,,,,,,,,,,,,,,"https://farm8.staticflickr.com/7377/16440777392_55d0f7c113_b.jpg",,"merged",,,"singleA18"
"29754",,,,,,,,,,,,,,,,,,,,,,,,,,,"https://farm8.staticflickr.com/7419/16254046718_555ebbf149_b.jpg",,"merged",,,"singleA18"
"29755",,,,,,,,,,,,,,,,,,,,,,,,,,,"https://farm8.staticflickr.com/7292/15821652013_98ee176f49_b.jpg",,"merged",,,"singleA18"
"29756",,,,,,,,,,,,,,,,,,,,,,,,,,,"https://farm9.staticflickr.com/8612/16440777512_7db5dba385_b.jpg",,"merged",,,"singleA18"
"29757",,,,,,,,,,,,,,,,,,,,,,,,,,,"https://farm8.staticflickr.com/7281/16439942391_cef42922ec_b.jpg",,"merged",,,"singleA18"
"29758",,,,,,,,,,,,,,,,,,,,,,,,,,,"https://farm8.staticflickr.com/7387/16254306840_bf6cbb2669_b.jpg",,"merged",,,"singleA18"
"29759","580","Spearhead fragment","","?","Salop, Clungunford, Broadward Hall","Clungunford, Craven Arms, Shropshire SY7, Royaume-Uni","52.4036029","-2.884545000000003","","None","None","None","","","","","","","","","","","","not illustrated by Bugess","","Denis Antoine","https://farm9.staticflickr.com/8615/16415736396_1b0fbaa256_b.jpg","https://www.flickr.com/photos/MicroPasts/16415736396","superuser",-2.8845,52.4036,"singleA18"
"29760","580","Spearhead fragment","","?","Salop, Clungunford, Broadward Hall","Clungunford, Craven Arms, Shropshire SY7, Royaume-Uni","52.4036029","-2.884545000000003","","None","None","None","","","","","","","","","","","","not illustrated by Burgess et al","","Denis Antoine","https://farm8.staticflickr.com/7354/16254306950_143913373f_b.jpg","https://www.flickr.com/photos/MicroPasts/16254306950","superuser",-2.8845,52.4036,"singleA18"
"29761","580","3 Spearheads & 2 Sword fragments","","?","Salop, Clungunford, Broadward Hall","Clungunford, Craven Arms, Shropshire SY7, Royaume-Uni","52.4036029","-2.884545000000003","","None","None","None","","","","","","","","","","","","? no. 6, 62, 7, WG 2205, 2208, 1902, 5-15, 8","","Denis Antoine","https://farm8.staticflickr.com/7295/16440777692_db7a295028_b.jpg","https://www.flickr.com/photos/MicroPasts/16440777692","superuser",-2.8845,52.4036,"singleA18"
"29762","580","Spearhead fragment, tip","frag","London, British Museum, unreg.","Salop, Clungunford, Broadward Hall","Clungunford, Craven Arms, Shropshire SY7, Royaume-Uni","52.4036029","-2.884545000000003","","None","None","None","38","22","","","","","","","","Large hoard","","","KW","Denis Antoine","https://farm8.staticflickr.com/7418/15819198064_144b86b737_b.jpg","https://www.flickr.com/photos/MicroPasts/15819198064","superuser",-2.8845,52.4036,"singleA18"
"29763","580","Spearhead fragment","frag.","London, British Museum, 72. 3-29.7","Salop, Clungunford, Broadward Hall","Clungunford, Craven Arms, Shropshire SY7, Royaume-Uni","52.4036029","-2.884545000000003","SO 39 78","None","None","None","60.5","","","","","","","","","Large hoard","","","KW","Denis Antoine","https://farm9.staticflickr.com/8653/15821652293_5042e2220b_b.jpg","https://www.flickr.com/photos/MicroPasts/15821652293","superuser",-2.8845,52.4036,"singleA18"
"29764","580","Spearhead fragment","frag.","London, British Museum, 72.3-29.6","Salop, Clungunford, Broadward Hall","Clungunford, Craven Arms, Shropshire SY7, Royaume-Uni","52.4036029","-2.884545000000003","SO 39 78","None","None","None","60","","","","","","","","","Large hoard","","","KW, CI","Denis Antoine","https://farm9.staticflickr.com/8634/16415736536_5e09e67270_b.jpg","https://www.flickr.com/photos/MicroPasts/16415736536","superuser",-2.8845,52.4036,"singleA18"
"29765","580","Spearhead fragment","? R","London, British Museum, 72.3-29.5","Salop, Clungunford, Broadward Hall","Clungunford, Craven Arms, Shropshire SY7, Royaume-Uni","52.4036029","-2.884545000000003","SO 39 78","None","None","None","130.5","","","","","","","","","Large hoard","","","KW, CI","Denis Antoine","https://farm9.staticflickr.com/8581/16439942591_8eef7c0466_b.jpg","https://www.flickr.com/photos/MicroPasts/16439942591","superuser",-2.8845,52.4036,"singleA18"
"29766","580","Spearhead","T","London, British Museum, 72.3-29.4","Salop, Clungunford, Broadward Hall","Clungunford, Craven Arms, Shropshire SY7, Royaume-Uni","52.4036029","-2.884545000000003","SO 39 78","None","None","None","204","","","","","","","","","Large hoard","","","KW, CI","Denis Antoine","https://farm8.staticflickr.com/7338/16254307040_6540cc347d_b.jpg","https://www.flickr.com/photos/MicroPasts/16254307040","superuser",-2.8845,52.4036,"singleA18"
"29767","580","Spearhead","M","London, British Museum, 72.3-29.3","Salop, Clungunford, Broadward Hall","Clungunford, Craven Arms, Shropshire SY7, Royaume-Uni","52.4036029","-2.884545000000003","SO 39 78","None","None","None","117","","","","","","","","","Large hoard","","","KW, CI","Denis Antoine","https://farm9.staticflickr.com/8599/16254047048_c997e6b8ef_b.jpg","https://www.flickr.com/photos/MicroPasts/16254047048","superuser",-2.8845,52.4036,"singleA18"
"29768","580","Spearhead","M","London, British Museum, 72.3-29.2","Salop, Clungunford, Broadward Hall","Clungunford, Craven Arms, Shropshire SY7, Royaume-Uni","52.4036029","-2.884545000000003","SO 39 78","None","None","None","132","","","","","","","","","Large hoard","","","KW, CI","Denis Antoine","https://farm8.staticflickr.com/7402/16254047088_4c97c660e6_b.jpg","https://www.flickr.com/photos/MicroPasts/16254047088","superuser",-2.8845,52.4036,"singleA18"
"29769","580","Spearhead","M","London, British Museum, 72.3-29.1","Salop, Clungunford, Broadward Hall","Clungunford, Craven Arms, Shropshire SY7, Royaume-Uni","52.4036029","-2.884545000000003","SO 39 78","None","None","None","163","","","","","","","","","Large hoard","","","KW, CI","Denis Antoine","https://farm8.staticflickr.com/7449/16415736766_6731ea8f0c_b.jpg","https://www.flickr.com/photos/MicroPasts/16415736766","superuser",-2.8845,52.4036,"singleA18"
"29770","580","Spearhead","","London, British Museum, 1902.5-15.7","Salop, Clungunford, Broadward Hall","Clungunford, Craven Arms, Shropshire SY7, Royaume-Uni","52.4036029","-2.884545000000003","SO 39 78","None","None","None","146","43","","","","","","","","Large hoard","","","KW, CI","Denis Antoine","https://farm9.staticflickr.com/8603/16440778022_649aab184c_b.jpg","https://www.flickr.com/photos/MicroPasts/16440778022","superuser",-2.8845,52.4036,"singleA18"
"29771",,,,,,,,,,,,,,,,,,,,,,,,,,,"https://farm8.staticflickr.com/7397/16441716035_8f9ecb8594_b.jpg",,"merged",,,"singleA18"
"29772",,,,,,,,,,,,,,,,,,,,,,,,,,,"https://farm9.staticflickr.com/8572/16439942911_13ca4cbf9b_b.jpg",,"merged",,,"singleA18"
"29773",,,,,,,,,,,,,,,,,,,,,,,,,,,"https://farm9.staticflickr.com/8563/16255801327_74d5441dbf_b.jpg",,"merged",,,"singleA18"
"29774","243","SPEARHEAD","Mx,{Red Dot}","LONDON, British Museum, 1902.5-15.3","SALOP,Clungunford,Broadward Hall","Clungunford, Craven Arms, Shropshire SY7, UK","52.4036029","-2.884545000000003","SO 39 78","None","None","None","146","70","","","","","","4 cross section drawings of spearhead on reverse.,Spearhead is quite broad, appears to be pock marked or corroded in drawing.,Edges quite deteriorated was likely either more broad or longer than currently stands.,Spearhead is socketed, one portion of socket mouth missing, more on one side than other.  Socket appears to be fairly round, tapers in vague cone shape most of the way up blade.  Just below blade there is a rivet hole on either side of the socket neck, in line with the blades.","","Large hoard","","","KW,CI","Jeff Okazaki","https://farm8.staticflickr.com/7287/16439942931_071b607cf5_b.jpg","https://www.flickr.com/photos/MicroPasts/16439942931","superuser",-2.8845,52.4036,"singleA18"
"29775",,,,,,,,,,,,,,,,,,,,,,,,,,,"https://farm8.staticflickr.com/7303/16441716125_ccf1fcd8ce_b.jpg",,"merged",,,"singleA18"
"29776",,,,,,,,,,,,,,,,,,,,,,,,,,,"https://farm8.staticflickr.com/7422/15821652623_fc232d368f_b.jpg",,"merged",,,"singleA18"
"29777",,,,,,,,,,,,,,,,,,,,,,,,,,,"https://farm8.staticflickr.com/7376/16415737026_590718bf14_b.jpg",,"merged",,,"singleA18"
"29778",,,,,,,,,,,,,,,,,,,,,,,,,,,"https://farm8.staticflickr.com/7406/16440778302_625fa2644a_b.jpg",,"merged",,,"singleA18"
"29779",,,,,,,,,,,,,,,,,,,,,,,,,,,"https://farm8.staticflickr.com/7419/16439943121_c391970094_b.jpg",,"merged",,,"singleA18"
"29780",,,,,,,,,,,,,,,,,,,,,,,,,,,"https://farm8.staticflickr.com/7444/16255462419_19e06c1f69_b.jpg",,"merged",,,"singleA18"
"29781",,,,,,,,,,,,,,,,,,,,,,,,,,,"https://farm9.staticflickr.com/8564/16440778562_429a2a59c7_b.jpg",,"merged",,,"singleA18"
"29782",,,,,,,,,,,,,,,,,,,,,,,,,,,"https://farm8.staticflickr.com/7382/16439943291_1381057e9e_b.jpg",,"merged",,,"singleA18"
"29783",,,,,,,,,,,,,,,,,,,,,,,,,,,"https://farm8.staticflickr.com/7285/16255801897_beb2edaf48_b.jpg",,"merged",,,"singleA18"
"29784",,,,,,,,,,,,,,,,,,,,,,,,,,,"https://farm8.staticflickr.com/7390/16441716525_b9f4236197_b.jpg",,"merged",,,"singleA18"
"29785",,,,,,,,,,,,,,,,,,,,,,,,,,,"https://farm8.staticflickr.com/7281/15821653083_f100faa4ab_b.jpg",,"merged",,,"singleA18"
"29786",,,,,,,,,,,,,,,,,,,,,,,,,,,"https://farm8.staticflickr.com/7348/16440778872_6f0d75e917_b.jpg",,"merged",,,"singleA18"
"29787",,,,,,,,,,,,,,,,,,,,,,,,,,,"https://farm9.staticflickr.com/8580/16254047948_72ba893653_b.jpg",,"merged",,,"singleA18"
"29788",,,,,,,,,,,,,,,,,,,,,,,,,,,"https://farm8.staticflickr.com/7453/15821653143_1cafe8eefa_b.jpg",,"merged",,,"singleA18"
"29789",,,,,,,,,,,,,,,,,,,,,,,,,,,"https://farm8.staticflickr.com/7310/16254048018_6a0a4489da_b.jpg",,"merged",,,"singleA18"
"29790",,,,,,,,,,,,,,,,,,,,,,,,,,,"https://farm9.staticflickr.com/8665/16255462809_d3dda114f1_b.jpg",,"merged",,,"singleA18"
"29791",,,,,,,,,,,,,,,,,,,,,,,,,,,"https://farm9.staticflickr.com/8655/16415737596_b371dbd4aa_b.jpg",,"merged",,,"singleA18"
"29792",,,,,,,,,,,,,,,,,,,,,,,,,,,"https://farm9.staticflickr.com/8597/15819199114_39476c8723_b.jpg",,"merged",,,"singleA18"
"29793",,,,,,,,,,,,,,,,,,,,,,,,,,,"https://farm8.staticflickr.com/7436/15821653333_078697399d_b.jpg",,"merged",,,"singleA18"
"29794",,,,,,,,,,,,,,,,,,,,,,,,,,,"https://farm8.staticflickr.com/7366/16254048328_7f5cf5256a_b.jpg",,"merged",,,"singleA18"
"29795",,,,,,,,,,,,,,,,,,,,,,,,,,,"https://farm8.staticflickr.com/7394/16254308280_1bd2735f7d_b.jpg",,"merged",,,"singleA18"
"29796",,,,,,,,,,,,,,,,,,,,,,,,,,,"https://farm8.staticflickr.com/7309/16254048458_61afaa556d_b.jpg",,"merged",,,"singleA18"
"29797",,,,,,,,,,,,,,,,,,,,,,,,,,,"https://farm8.staticflickr.com/7412/15819199504_83bb1a4375_b.jpg",,"merged",,,"singleA18"
"29798",,,,,,,,,,,,,,,,,,,,,,,,,,,"https://farm9.staticflickr.com/8594/15819199534_b531f086a5_b.jpg",,"merged",,,"singleA18"
"29799",,,,,,,,,,,,,,,,,,,,,,,,,,,"https://farm8.staticflickr.com/7454/15819199634_ebb4a8b004_b.jpg",,"merged",,,"singleA18"
"29800",,,,,,,,,,,,,,,,,,,,,,,,,,,"https://farm9.staticflickr.com/8571/16255802907_64e1b75c0e_b.jpg",,"merged",,,"singleA18"
"29801",,,,,,,,,,,,,,,,,,,,,,,,,,,"https://farm8.staticflickr.com/7365/15821653883_4ef45a08eb_b.jpg",,"merged",,,"singleA18"
"29802",,,,,,,,,,,,,,,,,,,,,,,,,,,"https://farm9.staticflickr.com/8589/16441717655_365e4e76cc_b.jpg",,"merged",,,"singleA18"
"29803",,,,,,,,,,,,,,,,,,,,,,,,,,,"https://farm9.staticflickr.com/8682/16415738316_e0ee44d813_b.jpg",,"merged",,,"singleA18"
"29804",,,,,,,,,,,,,,,,,,,,,,,,,,,"https://farm9.staticflickr.com/8677/16440779712_efa0bccb57_b.jpg",,"merged",,,"singleA18"
"29805",,,,,,,,,,,,,,,,,,,,,,,,,,,"https://farm8.staticflickr.com/7435/16440779812_57c94247cc_b.jpg",,"merged",,,"singleA18"
"29806",,,,,,,,,,,,,,,,,,,,,,,,,,,"https://farm8.staticflickr.com/7346/16255803087_ff0f600c33_b.jpg",,"merged",,,"singleA18"
"29807",,,,,,,,,,,,,,,,,,,,,,,,,,,"https://farm8.staticflickr.com/7379/15821654093_84fa91c5ed_b.jpg",,"merged",,,"singleA18"
"29808",,,,,,,,,,,,,,,,,,,,,,,,,,,"https://farm8.staticflickr.com/7348/16441717855_a9248cb372_b.jpg",,"merged",,,"singleA18"
"29809",,,,,,,,,,,,,,,,,,,,,,,,,,,"https://farm8.staticflickr.com/7370/16254309060_ed92737026_b.jpg",,"merged",,,"singleA18"
"29810",,,,,,,,,,,,,,,,,,,,,,,,,,,"https://farm8.staticflickr.com/7378/16441717905_e993b03f21_b.jpg",,"merged",,,"singleA18"
"29811",,,,,,,,,,,,,,,,,,,,,,,,,,,"https://farm9.staticflickr.com/8578/16415738646_bed38fed32_b.jpg",,"merged",,,"singleA18"
"29812",,,,,,,,,,,,,,,,,,,,,,,,,,,"https://farm9.staticflickr.com/8623/16254309120_49dce542a8_b.jpg",,"merged",,,"singleA18"
"29813",,,,,,,,,,,,,,,,,,,,,,,,,,,"https://farm8.staticflickr.com/7424/16440780082_594dee991f_b.jpg",,"merged",,,"singleA18"
"29814",,,,,,,,,,,,,,,,,,,,,,,,,,,"https://farm9.staticflickr.com/8609/16439944881_130666ae56_b.jpg",,"merged",,,"singleA18"
"29815",,,,,,,,,,,,,,,,,,,,,,,,,,,"https://farm8.staticflickr.com/7417/16441718215_34253a5345_b.jpg",,"merged",,,"singleA18"
"29816",,,,,,,,,,,,,,,,,,,,,,,,,,,"https://farm8.staticflickr.com/7281/16440780292_1dde4eba5f_b.jpg",,"merged",,,"singleA18"
"29817",,,,,,,,,,,,,,,,,,,,,,,,,,,"https://farm8.staticflickr.com/7459/16254049498_18b65fc766_b.jpg",,"merged",,,"singleA18"
"29818",,,,,,,,,,,,,,,,,,,,,,,,,,,"https://farm8.staticflickr.com/7427/16255803517_2ffe1885b4_b.jpg",,"merged",,,"singleA18"
"29819",,,,,,,,,,,,,,,,,,,,,,,,,,,"https://farm9.staticflickr.com/8580/16255463919_380835e3d6_b.jpg",,"merged",,,"singleA18"
"29820",,,,,,,,,,,,,,,,,,,,,,,,,,,"https://farm8.staticflickr.com/7394/16255463979_800da23a2b_b.jpg",,"merged",,,"singleA18"
"29821",,,,,,,,,,,,,,,,,,,,,,,,,,,"https://farm8.staticflickr.com/7426/16254309610_fe52411e00_b.jpg",,"merged",,,"singleA18"
"29822","580","Spearhead V A","T","British Museum WG. 2113, lent by Capt. Stoddart.","England, Humberside (South), Scunthorpe, Ironstone Mines, 10 ft. yellow sand, 2 ft. White sand & 6 ft. black peat.","Scunthorpe, Scunthorpe, Lincolnshire du Nord, Royaume-Uni","53.588646","-0.6544129999999768","SE 89 10","None","None","None","220","blade 42; socket 28","","212.86","dark brown, bronze shows on right wing.","a little scratched & flaked.","blade 14; socket 29","","","","2 rivet holes.","","Not quite acc., CI","Denis Antoine","https://farm8.staticflickr.com/7369/16441718535_7d78bffb1a_b.jpg","https://www.flickr.com/photos/MicroPasts/16441718535","superuser",-0.6544,53.5886,"singleA18"
"29823","580","Spearhead","","London, B.M. 1911. 7-10. 65","Humberside, Ulrome, West Furze","Ulrome, Driffield, East Riding of Yorkshire YO25, Royaume-Uni","53.99312399999999","-0.22490500000003522","TA 1485 5670","None","None","None","","","","","","","","","","","","","Context: 3a. Settlement, CI, AFI, DF: S, SI","Denis Antoine","https://farm8.staticflickr.com/7290/16254309660_55bcf3ae59_b.jpg","https://www.flickr.com/photos/MicroPasts/16254309660","superuser",-0.2249,53.9931,"singleA18"
"29824","580","Spearhead III","E, X","British Museum 94 12 14 1, purchased 1894","England, Humberside (Lincolnshire), Haxey","Haxey, Doncaster, North Lincolnshire, Royaume-Uni","53.492476","-0.8354779999999664","SK 76 99","None","None","None","239","blade 63; socket 21","","222.95","dull sage green, showing golden bronze.","rubbed smooth on face of blade. Pitted on reverse & on socket.","blade 12; socket 21","","","","Socket rather dented in casting.","Proc. Soc. Ant. XV 139","Internal socket, Side view of loops, On display, CI","Denis Antoine","https://farm8.staticflickr.com/7322/15821654803_75283b4234_b.jpg","https://www.flickr.com/photos/MicroPasts/15821654803","superuser",-0.8355,53.4925,"singleA18"
"29825","580","Spearhead","X, M","British Museum WG 2057","England, Humberside, Ferriby, R. Humber","Ferriby, North Ferriby, North Ferriby, East Riding of Yorkshire HU14, Royaume-Uni","53.71717","-0.5078399999999874","","None","None","None","275","blade 57; 62; socket 22","","308.76","no patina","dull bronze","blade 9; socket 23","","","","2 rivet holes. Two holes broken through rib on face., Internal section, Total length of socket hollow, Section where last the internal surface links up with the rounded outline of the socket-mouth.","Arch. LXI. Pl. LXXIV, 56","AOK, CI","Denis Antoine","https://farm9.staticflickr.com/8652/16439945461_12bef8140f_b.jpg","https://www.flickr.com/photos/MicroPasts/16439945461","superuser",-0.5078,53.7172,"singleA18"
"29826","580","Spearhead","frag.","WG. 2025","Humberside, Beverley, Market Place","Market Place, Beverley, Beverley, East Riding of Yorkshire HU17, Royaume-Uni","53.8428421","-0.43273150000004534","TA 03 39","None","None","None","","","","","","","","","","","","","CI","Denis Antoine","https://farm9.staticflickr.com/8618/16254309920_5bf29eb538_b.jpg","https://www.flickr.com/photos/MicroPasts/16254309920","superuser",-0.4327,53.8428,"singleA18"
"29827","580","Spearhead IV","F","British Museum, WG 2042","Scotland, Highland, Inverness, Abriackan, Brackle Farm","Abriachan, Inverness, Highland IV3, Royaume-Uni","57.384635","-4.40341699999999","NH 55 35","None","None","None","129","blade 28; socket 20","","62.7","dull brown.","rubbed smooth.","blade 15; socket 21","","","","Loops a little broken. Small chip in rib near point. Small round hole inside upper part of socket.","","Almost OK, CI","Denis Antoine","https://farm8.staticflickr.com/7408/16254309940_fc8f20f393_b.jpg","https://www.flickr.com/photos/MicroPasts/16254309940","superuser",-4.4034,57.3846,"singleA18"
"29828","580","Spearhead","","London, British Museum, 56. 7-1. 1364","R. Thames, London","Londres, Royaume-Uni","51.5073509","-0.12775829999998223","","None","None","None","218","42","","","no patina","","","","","","Groove facetting on upper part of socket plus rib extending to lower line of loops., blade tip bent over, undamaged","","MJR","Denis Antoine","https://farm8.staticflickr.com/7432/16255803917_0ac327809b_b.jpg","https://www.flickr.com/photos/MicroPasts/16255803917","superuser",-0.1278,51.5074,"singleA18"
"29829","580","Spearhead","","British Museum 56 7 1 1368, C.R.S.","Greater London, R. Thames, Locality unknown","Grand Londres, Royaume-Uni","51.4309209","-0.09364959999993516","","None","None","None","304","blade 43; socket 25","","294.33","slight patina, black. dull peacock patch on front of socket","fairly smooth, but some whie encrustations.","blade 18; socket 25","","","","Part of shaft in socket.","","CI","Denis Antoine","https://farm8.staticflickr.com/7349/15819200944_39465787f3_b.jpg","https://www.flickr.com/photos/MicroPasts/15819200944","superuser",-0.0936,51.4309,"singleA18"
"29830","473","Spearhead IIIA","F","British Museum 75,4 1,41,purchased 1875","GREATER LONDON (near),Thames","Greater London, UK","51.4309209","-0.09364959999993516","","None","None","None","126","blade 36 socket 18","","75.63","slight. dark brown. Two small light green patches on face.","roughened in parts.","blade 12 socket 18","","","","Edges slightly grooved. Two diamond shaped loops. Socket end seems ornamented with notches.","","Inacc. New drawing available","Dina Fathalla","https://farm8.staticflickr.com/7343/15821655123_0bf6d57424_b.jpg","https://www.flickr.com/photos/MicroPasts/15821655123","superuser",-0.0936,51.4309,"singleA18"
"29831","473","SPEARHEAD","","LONDON, British Museum, 75.4-1.41","GREATER LONDON (near),R. Thames","Greater London, UK","51.4309209","-0.09364959999993516","","None","None","None","128","35","","","","dark; undamaged","","Bottom left initials: ""MJR""","","","","","","Dina Fathalla","https://farm8.staticflickr.com/7296/16255464509_96aef2f2dd_b.jpg","https://www.flickr.com/photos/MicroPasts/16255464509","superuser",-0.0936,51.4309,"singleA18"
"29832","473","Spearhead","","British Museum 56, 7 1,1366,C.R.S.","GREATER LONDON,,River Thames,locality unknown","River Thames","51.4917059","0.7321755000000394","","None","None","None","232","blade 47 socket 23","","201.94","patches of dark brown. purple + peacock + dull bronze.","encrusted with sand.","blade 16 socket 24","","","","Small pebble in the left side loop. Loops are diamond shaped","","See new index - new drawing avail.","Dina Fathalla","https://farm9.staticflickr.com/8576/16254310110_daa7118d77_b.jpg","https://www.flickr.com/photos/MicroPasts/16254310110","superuser",0.7322,51.4917,"singleA18"
"29833","473","SPEARHEAD","","LONDON, British Museum, 56. 7-1. 1366","GREATER LONDON,,R. Thames","River Thames","51.4917059","0.7321755000000394","","None","None","None","230","46","","","","brown-black; corroded; gold patina on one side (probably through cleaning), fine gravel deposit on the other","","Bottom left initials: ""MJR""","","","","","","Dina Fathalla","https://farm9.staticflickr.com/8634/15821655243_4b967ee293_b.jpg","https://www.flickr.com/photos/MicroPasts/15821655243","superuser",0.7322,51.4917,"singleA18"
"29834",,,,,,,,,,,,,,,,,,,,,,,,,,,"https://farm9.staticflickr.com/8655/16441719075_a27e8c53d4_b.jpg",,"merged",,,"singleA18"
"29835",,,,,,,,,,,,,,,,,,,,,,,,,,,"https://farm8.staticflickr.com/7360/16254310290_97b4cd846f_b.jpg",,"merged",,,"singleA18"
"29836",,,,,,,,,,,,,,,,,,,,,,,,,,,"https://farm9.staticflickr.com/8674/15821655293_2c907ec7da_b.jpg",,"merged",,,"singleA18"
"29837",,,,,,,,,,,,,,,,,,,,,,,,,,,"https://farm8.staticflickr.com/7344/16441719225_4e583e1984_b.jpg",,"merged",,,"singleA18"
"29838",,,,,,,,,,,,,,,,,,,,,,,,,,,"https://farm8.staticflickr.com/7455/16255804437_fe1e1650d6_b.jpg",,"merged",,,"singleA18"
"29839",,,,,,,,,,,,,,,,,,,,,,,,,,,"https://farm8.staticflickr.com/7370/16255464979_0d0f423b47_b.jpg",,"merged",,,"singleA18"
"29840",,,,,,,,,,,,,,,,,,,,,,,,,,,"https://farm9.staticflickr.com/8571/15821655553_a081384ec0_b.jpg",,"merged",,,"singleA18"
"29841",,,,,,,,,,,,,,,,,,,,,,,,,,,"https://farm8.staticflickr.com/7328/16255804517_ea65dbab5a_b.jpg",,"merged",,,"singleA18"
"29842",,,,,,,,,,,,,,,,,,,,,,,,,,,"https://farm9.staticflickr.com/8626/15819201624_ec8af01d28_b.jpg",,"merged",,,"singleA18"
"29843",,,,,,,,,,,,,,,,,,,,,,,,,,,"https://farm9.staticflickr.com/8674/16254310640_d9243e9ca2_b.jpg",,"merged",,,"singleA18"
"29844",,,,,,,,,,,,,,,,,,,,,,,,,,,"https://farm8.staticflickr.com/7447/16254310740_1403cc1a86_b.jpg",,"merged",,,"singleA18"
"29845",,,,,,,,,,,,,,,,,,,,,,,,,,,"https://farm8.staticflickr.com/7348/16415740296_dec4ea2942_b.jpg",,"merged",,,"singleA18"
"29846",,,,,,,,,,,,,,,,,,,,,,,,,,,"https://farm8.staticflickr.com/7337/16440781582_451d013604_b.jpg",,"merged",,,"singleA18"
"29847",,,,,,,,,,,,,,,,,,,,,,,,,,,"https://farm9.staticflickr.com/8678/16440781592_21ec79912b_b.jpg",,"merged",,,"singleA18"
"29848",,,,,,,,,,,,,,,,,,,,,,,,,,,"https://farm8.staticflickr.com/7347/15821655733_52f35e4b51_b.jpg",,"merged",,,"singleA18"
"29849",,,,,,,,,,,,,,,,,,,,,,,,,,,"https://farm8.staticflickr.com/7398/16254310880_08ccb8f359_b.jpg",,"merged",,,"singleA18"
"29850",,,,,,,,,,,,,,,,,,,,,,,,,,,"https://farm9.staticflickr.com/8662/16415740456_9b82c86300_b.jpg",,"merged",,,"singleA18"
"29851",,,,,,,,,,,,,,,,,,,,,,,,,,,"https://farm8.staticflickr.com/7324/15821655843_4bde4f29c0_b.jpg",,"merged",,,"singleA18"
"29852",,,,,,,,,,,,,,,,,,,,,,,,,,,"https://farm8.staticflickr.com/7456/16415740496_7193d2b1bc_b.jpg",,"merged",,,"singleA18"
"29853",,,,,,,,,,,,,,,,,,,,,,,,,,,"https://farm8.staticflickr.com/7289/16255465749_87283c8bc5_b.jpg",,"merged",,,"singleA18"
"29854",,,,,,,,,,,,,,,,,,,,,,,,,,,"https://farm8.staticflickr.com/7415/16255465789_690b1261c2_b.jpg",,"merged",,,"singleA18"
"29855",,,,,,,,,,,,,,,,,,,,,,,,,,,"https://farm8.staticflickr.com/7362/16255465799_51c272ffd3_b.jpg",,"merged",,,"singleA18"
"29856",,,,,,,,,,,,,,,,,,,,,,,,,,,"https://farm8.staticflickr.com/7302/16441720065_945848e9be_b.jpg",,"merged",,,"singleA18"
"29857",,,,,,,,,,,,,,,,,,,,,,,,,,,"https://farm8.staticflickr.com/7361/16440781842_91a280b011_b.jpg",,"merged",,,"singleA18"
"29858",,,,,,,,,,,,,,,,,,,,,,,,,,,"https://farm8.staticflickr.com/7377/15819202184_8c0b13a807_b.jpg",,"merged",,,"singleA18"
"29859","727","Spearhead IV A","XF","British Museum  WG.  1664.","Greater London, R. Thames, Richmond, Glover's Island","London, UK","51.5073509","-0.12775829999998223","TQ, 17, 74","None","None","None","99","See description","-","26.26","black","smooth, two holes","See description","Lower left corner: ""On display"" and ""New drawing available""","-","-","Width as: â€œblade 20, socket 14â€œ  Thickness as: â€œblade 6, socket 15â€œ, , , , 2 loops, the right-hand one is partially splayed on face.","-","-","MARLA WALCOTT","https://farm8.staticflickr.com/7287/16440781982_c1f1b570e1_b.jpg","https://www.flickr.com/photos/MicroPasts/16440781982","only good record",-0.1278,51.5074,"singleA18"
"29860","727","","-","London, British Museum,  W.G. 1664","R. Thames, London, Richmond-upon-Thames, Glover Island","London, UK","51.5073509","-0.12775829999998223","-","None","None","None","99","21","-","-","-","Matt black","-","Lower left corner: MJR","-","-","-","-","-","MARLA WALCOTT","https://farm8.staticflickr.com/7361/16255805357_ff1b171e02_b.jpg","https://www.flickr.com/photos/MicroPasts/16255805357","only good record",-0.1278,51.5074,"singleA18"
"29861","580","Spearhead IV B","Internal socket; Side view of loops, X, H","British Museum WG 1654.","England, Thames, Greater London, R. Thames, Twickenham","Twickenham, Grand Londres, Royaume-Uni","51.44458100000001","-0.3352459999999837","TQ 16 73","None","None","None","246","blade 44; socket 22.5","","189.52","some patina dark green & brown (flaking off) on dull golden bronze.","mostly rather rough","blade 17; socket 21.5","","","","Point is worn, socket rim is bent, 2 flat loops. Part of shaft in socket.","Archaeologia LXI Pl. 65, No. 27","Inacc., New drawing available, CI","Denis Antoine","https://farm9.staticflickr.com/8601/16255805437_a6950fc06b_b.jpg","https://www.flickr.com/photos/MicroPasts/16255805437","superuser",-0.3352,51.4446,"singleA18"
"29862","580","Spearhead","","London, British Museum, W.G. 1654","R. Thames, London, Richmond upon Thames, Twickenham","Twickenham, Grand Londres, Royaume-Uni","51.44458100000001","-0.3352459999999837","","None","None","None","246","43","","","","black","","","","","socket base squashed, otherwise undamaged","","MJR","Denis Antoine","https://farm8.staticflickr.com/7325/15819202514_69833d76a9_b.jpg","https://www.flickr.com/photos/MicroPasts/15819202514","superuser",-0.3352,51.4446,"singleA18"
"29863","580","Spearhead","","London, British Museum, W.G. 1656","R. Thames, London, Richmond upon Thames, Teddington","Teddington, Grand Londres, Royaume-Uni","51.426799","-0.3313419999999496","","None","None","None","168","33","","","","dark brown","","","","","undamaged, crude casting","","MJR","Denis Antoine","https://farm8.staticflickr.com/7322/16440782142_219400a77d_b.jpg","https://www.flickr.com/photos/MicroPasts/16440782142","superuser",-0.3313,51.4268,"singleA18"
"29864","580","Spearhead IV A","Internal socket, side view of loops, X, F","British Museum WG 1662.","Greater London, Thames, Hampton Court, R. Thames","ChÃ¢teau de Hampton Court, East Molesey, Molesey, East Molesey, Grand Londres KT8, Royaume-Uni","51.404199","-0.3406210000000556","NI, TQ 13 70","None","None","None","159.5","blade 29; socket 17","","59.95","slight patina, black","dull golden bronze","blade 10; socket 17","","","","Left loop is blocked with grain of dark sand. Hole in socket. Edges a little chipped & bent. Socket rim is bent.","","Inacc., New drawing available, CI","Denis Antoine","https://farm9.staticflickr.com/8630/16254051718_ec6c377e03_b.jpg","https://www.flickr.com/photos/MicroPasts/16254051718","superuser",-0.3406,51.4042,"singleA18"
"29865","580","Spearhead","","London, British Museum, W.G. 1662","R. Thames, London, Richmond Upon Thames, Hampton Court","ChÃ¢teau de Hampton Court, East Molesey, Molesey, East Molesey, Grand Londres KT8, Royaume-Uni","51.404199","-0.3406210000000556","","None","None","None","160","28","","","","","","","","","Socket base fractured; thin blade, imperfect casting at side of one loop","","MJR","Denis Antoine","https://farm9.staticflickr.com/8613/16254051738_136962a143_b.jpg","https://www.flickr.com/photos/MicroPasts/16254051738","superuser",-0.3406,51.4042,"singleA18"
"29866","580","Spearhead VI","X, M","British Museum 65 12 20 6","Greater London, Plaistow Marshes","Plaistow, London E13, Royaume-Uni","51.527552","0.012627000000065891","","None","None","None","272","blade 67; socket 23","","320.18","dark greenish brown. two or three spots of bright blue.","flaky, some sand encrusted at base of wings on reverse","blade 10; socket 20","","","","Internal section; Indicate total length of socket hollow; section at last point where internal surface links up with roundedoutline of mouth, Small piece out of socket. One long rivet.","","Almost OK, CI","Denis Antoine","https://farm8.staticflickr.com/7361/16440782212_ba392dd493_b.jpg","https://www.flickr.com/photos/MicroPasts/16440782212","superuser",0.0126,51.5276,"singleA18"
"29867","580","Spearhead IV B","X, H","British Museum 59 3 29 1","Greater London, In Thames at Lambeth","Lambeth, Londres, Royaume-Uni","51.4935082","-0.11784239999997226","TQ 30 78","None","None","None","189","blade 31.5; socket 19","","131.06","dark brown on face, chestnut on reverse of blade.","rather heavy white encrustations.","blade 15; socket 20","","","","Internal socket, side view of loops, 2 small loops nearly filled with encrustment. Socket rim a little broken.","","Inacc., New drawing available, CI","Denis Antoine","https://farm8.staticflickr.com/7407/15819202704_d3c258aee2_b.jpg","https://www.flickr.com/photos/MicroPasts/15819202704","superuser",-0.1178,51.4935,"singleA18"
"29868","580","Spearhead","","London, British Museum, 59.3-29.1","Greater London, In Thames at Lambeth","Borough londonien de Lambeth, Grand Londres, Royaume-Uni","51.4571477","-0.12306809999995494","","None","None","None","189","31","","","","corroded, undamaged","","","","","","","MJR","Denis Antoine","https://farm8.staticflickr.com/7423/16254052018_4bbc5eb3cc_b.jpg","https://www.flickr.com/photos/MicroPasts/16254052018","superuser",-0.1231,51.4571,"singleA18"
"29869","580","Spearhead fragment","frag, Int. sect.","British Museum 63 1 22 125, Mus. Prac. Geol.","Greater London, Kingston Upon Thames, (Museum of Pract. Geology)","Kingston upon Thames, Greater London, Royaume-Uni","51.41233","-0.30068900000003396","TQ 17 69","None","None","None","223","blade 50","","265.98","slightly dark greenish brown","thick rust coloured patch of encrustation on face.","blade 19","","","","Shaft shows in socket at A.","","AOK, CI","Denis Antoine","https://farm8.staticflickr.com/7442/16254052138_373bce25db_b.jpg","https://www.flickr.com/photos/MicroPasts/16254052138","superuser",-0.3007,51.4123,"singleA18"
"29870","580","Spearhead","","London, British Museum, 63.1-22.126","Greater London, Thames at Kingston' Bridge, Kingston-upon-Thames","Kingston Bridge, Kingston upon Thames, Greater London KT1, Royaume-Uni","51.4111552","-0.3090641000000005","","None","None","None","137","23","","","","black sooty colour","","","","","casting incomplete around one loop, distorting it in the process; otherwise undamaged","","MJR","Denis Antoine","https://farm8.staticflickr.com/7291/16440782462_08a57aac22_b.jpg","https://www.flickr.com/photos/MicroPasts/16440782462","superuser",-0.3091,51.4112,"singleA18"
"29871","580","Spearhead IV","Internal socket, side view of loops, F","British Museum 63 1 22 126, from Mus. Prac. Geol.","Greater London, Thames at Kingston Bridge, Kingston","Kingston Bridge, Kingston upon Thames, Greater London KT1, Royaume-Uni","51.4111552","-0.3090641000000005","TQ 17 69","None","None","None","137","blade 22; 23; socket 18","","49.61","","dull gold, with black stains. Rather rough","blade 9; socket 18","","","","Edge of socket rim chipped. Large hole near loop.","","Inacc. drawing., New drawing available, CI","Denis Antoine","https://farm8.staticflickr.com/7445/16441720685_2d40f4f239_b.jpg","https://www.flickr.com/photos/MicroPasts/16441720685","superuser",-0.3091,51.4112,"singleA18"
"29872","580","2 Joined Spearheads","T","BM. 60.7-13. 1.","Greater London, In Thames near Kingston","Kingston upon Thames, Greater London, Royaume-Uni","51.41233","-0.30068900000003396","TQ 17 69","None","None","None","","","","","","","","","","","","","CI","Denis Antoine","https://farm9.staticflickr.com/8665/16415741386_815c228845_b.jpg","https://www.flickr.com/photos/MicroPasts/16415741386","superuser",-0.3007,51.4123,"singleA18"
"29873","580","Spearhead III A","X, G","British Museum WG 2255","England, Greater London, Croydon, Wandle Valley, gravel pit. 9.1/2 feet deep.","Croydon, Grand Londres, Royaume-Uni","51.376165","-0.09823400000004767","TQ 32 66","None","None","None","897","blade 12; 29.; 40 69 19; socket 31","","approx. 1899.45","bright green showing metal towards socket","heavily corroded","blade 18; socket 30","","","","Internal section; 2nd section higher up blade; side view of loops, It is in 5 fragments, of which the point section is a replacement. (Patches of plaster at joints) Edges ragged & thickened by corrosion","Proc. Soc. Antiqs. XVIII 352","Please indicate total length of socket, Prob. inacc., CI","Denis Antoine","https://farm8.staticflickr.com/7318/15819203024_dc2206d25f_b.jpg","https://www.flickr.com/photos/MicroPasts/15819203024","superuser",-0.0982,51.3762,"singleA18"
"29874","580","Spearhead III A","","British Museum 75 4 1 40","England, Greater London, Islington, Pentonville, near River Works","Pentonville, London N1, Royaume-Uni","51.530994","-0.11068199999999706","TQ 31 84","None","None","None","358","blade 50; socket 24","","220.95","some patina, medium green","dull golden bronze, bright on central rib. Rather heavily encrusted.","blade 15; socket 24","","","","Hole in central rib. Left loop not entirely pierced.","","Inacc. drawing., CI","Denis Antoine","https://farm9.staticflickr.com/8629/16440782562_4dcb987f4a_b.jpg","https://www.flickr.com/photos/MicroPasts/16440782562","superuser",-0.1107,51.531,"singleA18"
"29875","580","Spearhead","H","WG. 1652","Greater London, R. Thames, Hounslow, Chiswivk","Chiswick, Grand Londres, Royaume-Uni","51.4876272","-0.267173200000002","TQ 20 78","None","None","None","","","","","","","","","","","","","","Denis Antoine","https://farm8.staticflickr.com/7351/16255805857_a6ecbe8f27_b.jpg","https://www.flickr.com/photos/MicroPasts/16255805857","superuser",-0.2672,51.4876,"singleA18"
"29876","580","Spearhead","","London, British Museum, W.G. 1655","R. Thames, London, Hounslow, Chiswick, near pier","Chiswick Pier, Corney Reach Way, Chiswick, London W4 2UH, Royaume-Uni","51.4824636","-0.25132320000000163","","None","None","None","193","35","","","","dark olive-brown","","","","","edges slightly damaged","","MJR","Denis Antoine","https://farm8.staticflickr.com/7342/15819203144_07b0b30aff_b.jpg","https://www.flickr.com/photos/MicroPasts/15819203144","superuser",-0.2513,51.4825,"singleA18"
"29877","580","Spearhead IV","F","British Museum 88 5 15 1","Greater London, Hampton, R. Thames","Hampton, Greater London, Royaume-Uni","51.4133939","-0.3667120000000068","TQ 13 70","None","None","None","125.5","blade 42; socket 18.5","","94.38","","dull golden bronze with black stains. Mostly smooth, roughened on central parts of reverse.","blade 10; socket 19","","","","","","Internal socket, side view of loops., On display, CI","Denis Antoine","https://farm8.staticflickr.com/7392/16439947501_3596b50edd_b.jpg","https://www.flickr.com/photos/MicroPasts/16439947501","superuser",-0.3667,51.4134,"singleA18"
"29878","580","Spearhead","","London, British Museum, W.G. 1653","R. Thames, London, Hammersmith","Hammersmith, London W6, Royaume-Uni","51.4911875","-0.22373149999998532","","None","None","None","239","52","","","","dark matt colour","","","","","blade slightly bent and cracked along one internal bevel","","MJR","Denis Antoine","https://farm8.staticflickr.com/7425/16255466639_6f78a7c516_b.jpg","https://www.flickr.com/photos/MicroPasts/16255466639","superuser",-0.2237,51.4912,"singleA18"
"29879","580","Spearhead V","T","British Museum WG 1643.","Greater London, Thames, Hammersmith, R. Thames","Hammersmith, London W6, Royaume-Uni","51.4911875","-0.22373149999998532","TQ 22 78","None","None","None","321","blade 57.5; socket 24","","350.03","greenish black.","Part of the surface""spongy"" especially on reverse. Two holes towards back of socket. face of wing (left) & socket (at wing), nearly covered with yellow encrustation & light green patches.","blade 17; socket 24","","","","2 rivet holes. Part of shaft remains","","AOK, Internal section, CI","Denis Antoine","https://farm8.staticflickr.com/7341/16254052348_034bff61a2_b.jpg","https://www.flickr.com/photos/MicroPasts/16254052348","superuser",-0.2237,51.4912,"singleA18"
"29880","580","Spearhead III A","X, G","British Museum WG 1653.","Greater London, Thames, Hammersmith, June 23rd 1905","Hammersmith, London W6, Royaume-Uni","51.4911875","-0.22373149999998532","TQ 22 78","23","6","1905","241","blade 53; socket 23","","192.11","black with rusty patches. Traces of green.","white encrustations. Rough.","blade 16; socket 24","","","","Top of blade is bent. 2 rivet holes. Part of shaft remains in socket. Long crack on left side of blade & one across reverse of central rib.","","Internal section, side view of loops., Inacc., New drawing available., CI","Denis Antoine","https://farm8.staticflickr.com/7370/15819203254_2efe3f1cf3_b.jpg","https://www.flickr.com/photos/MicroPasts/15819203254","superuser",-0.2237,51.4912,"singleA18"
"29881","580","Spearhead","","London, British Museum, W.G. 1663","R. Thames, London, Hammersmith, Crabtree","Hammersmith, London W6, Royaume-Uni","51.4911875","-0.22373149999998532","","None","None","None","142","27","","","shiny black","","","","","","slight casting damage under one loop, cracked at base","","MJR","Denis Antoine","https://farm9.staticflickr.com/8600/16440782802_9568a3274f_b.jpg","https://www.flickr.com/photos/MicroPasts/16440782802","superuser",-0.2237,51.4912,"singleA18"
"29882",,,,,,,,,,,,,,,,,,,,,,,,,,,"https://farm8.staticflickr.com/7313/16439947801_f6ff62c75d_b.jpg",,"merged",,,"singleA18"
"29883",,,,,,,,,,,,,,,,,,,,,,,,,,,"https://farm9.staticflickr.com/8663/15819203444_b3901ca227_b.jpg",,"merged",,,"singleA18"
"29884",,,,,,,,,,,,,,,,,,,,,,,,,,,"https://farm9.staticflickr.com/8659/16415741866_1186d09bd9_b.jpg",,"merged",,,"singleA18"
"29885",,,,,,,,,,,,,,,,,,,,,,,,,,,"https://farm8.staticflickr.com/7452/16440782972_f01e7986e6_b.jpg",,"merged",,,"singleA18"
"29886",,,,,,,,,,,,,,,,,,,,,,,,,,,"https://farm8.staticflickr.com/7332/16254312670_c13d0950c0_b.jpg",,"merged",,,"singleA18"
"29887",,,,,,,,,,,,,,,,,,,,,,,,,,,"https://farm8.staticflickr.com/7409/16439948031_56720749cb_b.jpg",,"merged",,,"singleA18"
"29888",,,,,,,,,,,,,,,,,,,,,,,,,,,"https://farm8.staticflickr.com/7303/15819203774_fb03a524d4_b.jpg",,"merged",,,"singleA18"
"29889",,,,,,,,,,,,,,,,,,,,,,,,,,,"https://farm9.staticflickr.com/8679/15819203844_f1a8ccea9c_b.jpg",,"merged",,,"singleA18"
"29890",,,,,,,,,,,,,,,,,,,,,,,,,,,"https://farm8.staticflickr.com/7295/15821657413_a10bff0b0c_b.jpg",,"merged",,,"singleA18"
"29891",,,,,,,,,,,,,,,,,,,,,,,,,,,"https://farm8.staticflickr.com/7319/16440783422_ac03a3b92f_b.jpg",,"merged",,,"singleA18"
"29892",,,,,,,,,,,,,,,,,,,,,,,,,,,"https://farm8.staticflickr.com/7382/16440783312_f6e2df3aae_b.jpg",,"merged",,,"singleA18"
"29893",,,,,,,,,,,,,,,,,,,,,,,,,,,"https://farm9.staticflickr.com/8575/16255806617_010067cf0b_b.jpg",,"merged",,,"singleA18"
"29894","580","Spearhead IV A","F","British Museum W.G. 2034.","England, Durham, Bowes, Nr. Startforth","Bowes, Barnard Castle, Durham DL12, Royaume-Uni","54.5169053","-2.007951700000035","NZ 04 16","None","None","None","142.5","blade 30; socket 19","","101.97","some patina brown & dull bronze.","rather cracked","blade 12; socket 20","","","","Edges a little worn.","","Internal socket, side view of loops., Inacc., CI","Denis Antoine","https://farm8.staticflickr.com/7455/16254313100_404fe288bf_b.jpg","https://www.flickr.com/photos/MicroPasts/16254313100","superuser",-2.008,54.5169,"singleA18"
"29895","580","Spearhead IV","F","British Museum 71 12 19 1","Scotland, Dumfries & Galloway, Lockerbie, Fairholme","Lockerbie, Lockerbie, Dumfries and Galloway DG11, Royaume-Uni","55.12224500000001","-3.349008000000026","NY 13 81","None","None","None","132.5","blade 24; socket 13","","45.77","sage green showing golden bronze.","rough. a scratch & a dent near loop.","blade 8","","","","Loops worn very thin. Socket rim is battered.","","Rather inacc., CI","Denis Antoine","https://farm8.staticflickr.com/7453/15819204014_2446a5f590_b.jpg","https://www.flickr.com/photos/MicroPasts/15819204014","superuser",-3.349,55.1222,"singleA18"
"29896","580","Spearhead","","London, British Museum, 92. 9-1. 318","Dorset, Tarrant Gunville","Tarrant Gunville, Blandford Forum, Dorset DT11, Royaume-Uni","50.914454","-2.1072659999999814","","None","None","None","142","21","","","","brown/green","","","","","blade edges nicked","","MJR","Denis Antoine","https://farm9.staticflickr.com/8614/15819204044_54d5f29af9_b.jpg","https://www.flickr.com/photos/MicroPasts/15819204044","superuser",-2.1073,50.9145,"singleA18"
"29897","580","Spearhead IV A","F","British Museum 92 9 1 318, Cat. 40.","England, Dorset, Tarrant Gunville","Tarrant Gunville, Blandford Forum, Dorset DT11, Royaume-Uni","50.914454","-2.1072659999999814","ST 92 12","None","None","None","142","blade 21; socket 16","","47.77","sage green.","very rusty. rubbed smooth on reverse.","blade10; socket 15","","","","A dent on mid rib. The loop holes are oblong.","","Inacc., New drawing available, CI","Denis Antoine","https://farm8.staticflickr.com/7362/15819204264_4b0e6b83db_b.jpg","https://www.flickr.com/photos/MicroPasts/15819204264","superuser",-2.1073,50.9145,"singleA18"
"29898","580","Spearhead","","London, British Museum, 92. 9-1. 319","Dorset, Blandford Forum","Blandford Forum, Blandford Forum, Dorset DT11, Royaume-Uni","50.856908","-2.165352999999982","","None","None","None","86 ex.","19","","","","dark brown","","","","","blade brown, shattered at socket and base","","MJR","Denis Antoine","https://farm8.staticflickr.com/7455/16254053158_56516973e5_b.jpg","https://www.flickr.com/photos/MicroPasts/16254053158","superuser",-2.1654,50.8569,"singleA18"
"29899","580","Spearhead IV","F","British Museum 92 9 1 319, Durden Collection","England, Dorset, Blandford, 1855","Blandford Forum, Blandford Forum, Dorset DT11, Royaume-Uni","50.856908","-2.165352999999982","ST 88 06","None","None","1855","86","blade 19; socket 19","","49.61","brownish green.","overlaid with light brownsoil on blade. Lightly pitted","blade 11; socket 19","","","","Large hole in centre & also in socket rim. Point of blade missing","","Side view if loops, Inacc. drawing, New drawing available, CI","Denis Antoine","https://farm9.staticflickr.com/8605/15821657943_39efbcbe2f_b.jpg","https://www.flickr.com/photos/MicroPasts/15821657943","superuser",-2.1654,50.8569,"singleA18"
"29900","580","Socket V A","T","British Museum WG. 2115.","England, Devonshire, Dartmoor, Chagford (near)","Chagford, Newton Abbot, Devon TQ13, Royaume-Uni","50.673066","-3.840265000000045","SX 70 87","None","None","None","130","blade 33; socket 27","","107.56","remains of patina, black, on clean bronze","","blade 16; socket 26","","","","2 small chips in socket rim & blade.","","Internal section, Almost OK, CI","Denis Antoine","https://farm9.staticflickr.com/8579/16415742686_7056435f64_b.jpg","https://www.flickr.com/photos/MicroPasts/16415742686","superuser",-3.8403,50.6731,"singleA18"
"29901","580","Spearhead V","T","British Museum WG 2114","England, Devonshire, Dartmoor, Chagford, near","Chagford, Newton Abbot, Devon TQ13, Royaume-Uni","50.673066","-3.840265000000045","SX 70 87","None","None","None","181","blade 32; socket 25","","108.56","remains of brown patina, on dull bronze.","smooth","blade 13; socket 25","","","","2 rivet holes. The left one is broken. Crack near point.","","Almost OK, Internal section, CI","Denis Antoine","https://farm8.staticflickr.com/7329/16254313330_8e8bdf29d1_b.jpg","https://www.flickr.com/photos/MicroPasts/16254313330","superuser",-3.8403,50.6731,"singleA18"
"29902",,,,,,,,,,,,,,,,,,,,,,,,,,,"https://farm9.staticflickr.com/8615/16439948941_b79476418c_b.jpg",,"merged",,,"singleA18"
"29903",,,,,,,,,,,,,,,,,,,,,,,,,,,"https://farm8.staticflickr.com/7298/15821658163_84d5ec6c79_b.jpg",,"merged",,,"singleA18"
"29904",,,,,,,,,,,,,,,,,,,,,,,,,,,"https://farm9.staticflickr.com/8621/16415742896_72b852330c_b.jpg",,"merged",,,"singleA18"
"29905",,,,,,,,,,,,,,,,,,,,,,,,,,,"https://farm9.staticflickr.com/8674/15821658263_60cf53c6a8_b.jpg",,"merged",,,"singleA18"
"29906",,,,,,,,,,,,,,,,,,,,,,,,,,,"https://farm8.staticflickr.com/7398/16441722115_e29cccfc66_b.jpg",,"merged",,,"singleA18"
"29907",,,,,,,,,,,,,,,,,,,,,,,,,,,"https://farm9.staticflickr.com/8637/16441722145_aa0e7bbf03_b.jpg",,"merged",,,"singleA18"
"29908",,,,,,,,,,,,,,,,,,,,,,,,,,,"https://farm9.staticflickr.com/8632/16255807427_e2c5a3b6ef_b.jpg",,"merged",,,"singleA18"
"29909",,,,,,,,,,,,,,,,,,,,,,,,,,,"https://farm8.staticflickr.com/7324/15821658473_86618be540_b.jpg",,"merged",,,"singleA18"
"29910",,,,,,,,,,,,,,,,,,,,,,,,,,,"https://farm8.staticflickr.com/7333/16441722275_3939f7080f_b.jpg",,"merged",,,"singleA18"
"29911",,,,,,,,,,,,,,,,,,,,,,,,,,,"https://farm8.staticflickr.com/7403/16415743186_5ee71d673c_b.jpg",,"merged",,,"singleA18"
"29912",,,,,,,,,,,,,,,,,,,,,,,,,,,"https://farm9.staticflickr.com/8678/15821658513_5b31d5d677_b.jpg",,"merged",,,"singleA18"
"29913",,,,,,,,,,,,,,,,,,,,,,,,,,,"https://farm8.staticflickr.com/7326/16415743236_9994f8bbfe_b.jpg",,"merged",,,"singleA18"
"29914",,,,,,,,,,,,,,,,,,,,,,,,,,,"https://farm9.staticflickr.com/8569/16440784292_f9e147e0a3_b.jpg",,"merged",,,"singleA18"
"29915",,,,,,,,,,,,,,,,,,,,,,,,,,,"https://farm8.staticflickr.com/7291/16415743346_86595c6312_b.jpg",,"merged",,,"singleA18"
"29916",,,,,,,,,,,,,,,,,,,,,,,,,,,"https://farm8.staticflickr.com/7387/15819204864_14e543a03e_b.jpg",,"merged",,,"singleA18"
"29917",,,,,,,,,,,,,,,,,,,,,,,,,,,"https://farm8.staticflickr.com/7332/16439949531_e10225b809_b.jpg",,"merged",,,"singleA18"
"29918",,,,,,,,,,,,,,,,,,,,,,,,,,,"https://farm8.staticflickr.com/7299/16254313980_ab229ce096_b.jpg",,"merged",,,"singleA18"
"29919",,,,,,,,,,,,,,,,,,,,,,,,,,,"https://farm8.staticflickr.com/7404/15821658843_d37df0e42f_b.jpg",,"merged",,,"singleA18"
"29920",,,,,,,,,,,,,,,,,,,,,,,,,,,"https://farm8.staticflickr.com/7349/16441722755_562635748d_b.jpg",,"merged",,,"singleA18"
"29921",,,,,,,,,,,,,,,,,,,,,,,,,,,"https://farm8.staticflickr.com/7382/16254314140_1c648ac6dc_b.jpg",,"merged",,,"singleA18"
"29922",,,,,,,,,,,,,,,,,,,,,,,,,,,"https://farm8.staticflickr.com/7441/15821658893_49470d59aa_b.jpg",,"merged",,,"singleA18"
"29923",,,,,,,,,,,,,,,,,,,,,,,,,,,"https://farm9.staticflickr.com/8633/15819205144_dd1bd73f0f_b.jpg",,"merged",,,"singleA18"
"29924",,,,,,,,,,,,,,,,,,,,,,,,,,,"https://farm9.staticflickr.com/8620/16440784732_9fab2212b2_b.jpg",,"merged",,,"singleA18"
"29925",,,,,,,,,,,,,,,,,,,,,,,,,,,"https://farm8.staticflickr.com/7300/16254314380_2146317e0e_b.jpg",,"merged",,,"singleA18"
"29926",,,,,,,,,,,,,,,,,,,,,,,,,,,"https://farm9.staticflickr.com/8597/15819205234_fff096037b_b.jpg",,"merged",,,"singleA18"
"29927",,,,,,,,,,,,,,,,,,,,,,,,,,,"https://farm8.staticflickr.com/7449/16440784822_43683e229e_b.jpg",,"merged",,,"singleA18"
"29928",,,,,,,,,,,,,,,,,,,,,,,,,,,"https://farm8.staticflickr.com/7419/15819205524_10a2286189_b.jpg",,"merged",,,"singleA18"
"29929",,,,,,,,,,,,,,,,,,,,,,,,,,,"https://farm8.staticflickr.com/7445/16441723285_f398eec87a_b.jpg",,"merged",,,"singleA18"
"29930",,,,,,,,,,,,,,,,,,,,,,,,,,,"https://farm8.staticflickr.com/7376/16439950291_a3016ee877_b.jpg",,"merged",,,"singleA18"
"29931",,,,,,,,,,,,,,,,,,,,,,,,,,,"https://farm8.staticflickr.com/7347/16255808467_5158af3c90_b.jpg",,"merged",,,"singleA18"
"29932",,,,,,,,,,,,,,,,,,,,,,,,,,,"https://farm8.staticflickr.com/7434/16255469379_aab7bd0aff_b.jpg",,"merged",,,"singleA18"
"29933",,,,,,,,,,,,,,,,,,,,,,,,,,,"https://farm8.staticflickr.com/7366/15821659473_9a20a2dc92_b.jpg",,"merged",,,"singleA18"
"29934",,,,,,,,,,,,,,,,,,,,,,,,,,,"https://farm8.staticflickr.com/7360/16254315000_e29f902438_b.jpg",,"merged",,,"singleA18"
"29935",,,,,,,,,,,,,,,,,,,,,,,,,,,"https://farm8.staticflickr.com/7382/16254315040_f89bab6040_b.jpg",,"merged",,,"singleA18"
"29936",,,,,,,,,,,,,,,,,,,,,,,,,,,"https://farm8.staticflickr.com/7334/16254054798_920001fff3_b.jpg",,"merged",,,"singleA18"
"29937",,,,,,,,,,,,,,,,,,,,,,,,,,,"https://farm8.staticflickr.com/7326/16254315060_86d666a1e5_b.jpg",,"merged",,,"singleA18"
"29938",,,,,,,,,,,,,,,,,,,,,,,,,,,"https://farm8.staticflickr.com/7288/16440785412_8f2ae1203f_b.jpg",,"merged",,,"singleA18"
"29939",,,,,,,,,,,,,,,,,,,,,,,,,,,"https://farm9.staticflickr.com/8666/16440785642_4a7ee07607_b.jpg",,"merged",,,"singleA18"
"29940",,,,,,,,,,,,,,,,,,,,,,,,,,,"https://farm8.staticflickr.com/7382/16255808847_4144d534e7_b.jpg",,"merged",,,"singleA18"
"29941",,,,,,,,,,,,,,,,,,,,,,,,,,,"https://farm9.staticflickr.com/8626/16255808877_024a93f706_b.jpg",,"merged",,,"singleA18"
"29942",,,,,,,,,,,,,,,,,,,,,,,,,,,"https://farm9.staticflickr.com/8632/16255469809_20e50b22ac_b.jpg",,"merged",,,"singleA18"
"29943",,,,,,,,,,,,,,,,,,,,,,,,,,,"https://farm9.staticflickr.com/8601/16441723965_14c34474c8_b.jpg",,"merged",,,"singleA18"
"29944",,,,,,,,,,,,,,,,,,,,,,,,,,,"https://farm8.staticflickr.com/7336/16254315380_be7067137d_b.jpg",,"merged",,,"singleA18"
"29945",,,,,,,,,,,,,,,,,,,,,,,,,,,"https://farm9.staticflickr.com/8665/16439950841_14f640eee2_b.jpg",,"merged",,,"singleA18"
"29946",,,,,,,,,,,,,,,,,,,,,,,,,,,"https://farm9.staticflickr.com/8659/15819206384_7eab22a0ba_b.jpg",,"merged",,,"singleA18"
"29947",,,,,,,,,,,,,,,,,,,,,,,,,,,"https://farm8.staticflickr.com/7306/16415745076_9971b5973a_b.jpg",,"merged",,,"singleA18"
"29948",,,,,,,,,,,,,,,,,,,,,,,,,,,"https://farm8.staticflickr.com/7442/16439950951_8c26e14543_b.jpg",,"merged",,,"singleA18"
"29949",,,,,,,,,,,,,,,,,,,,,,,,,,,"https://farm8.staticflickr.com/7441/16441724135_5d9249c3be_b.jpg",,"merged",,,"singleA18"
"29950",,,,,,,,,,,,,,,,,,,,,,,,,,,"https://farm8.staticflickr.com/7451/16255470079_77aee6e535_b.jpg",,"merged",,,"singleA18"
"29951",,,,,,,,,,,,,,,,,,,,,,,,,,,"https://farm8.staticflickr.com/7421/16415745286_37134ef07e_b.jpg",,"merged",,,"singleA18"
"29952",,,,,,,,,,,,,,,,,,,,,,,,,,,"https://farm9.staticflickr.com/8644/16440786262_d2cdcdd6a4_b.jpg",,"merged",,,"singleA18"
"29953",,,,,,,,,,,,,,,,,,,,,,,,,,,"https://farm8.staticflickr.com/7327/15819206654_5eb24d1d13_b.jpg",,"merged",,,"singleA18"
"29954",,,,,,,,,,,,,,,,,,,,,,,,,,,"https://farm8.staticflickr.com/7401/15821660303_54835599fc_b.jpg",,"merged",,,"singleA18"
"29955",,,,,,,,,,,,,,,,,,,,,,,,,,,"https://farm8.staticflickr.com/7413/16440786342_3ff7e1d41f_b.jpg",,"merged",,,"singleA18"
"29956",,,,,,,,,,,,,,,,,,,,,,,,,,,"https://farm9.staticflickr.com/8680/16255470169_08912564b3_b.jpg",,"merged",,,"singleA18"
"29957",,,,,,,,,,,,,,,,,,,,,,,,,,,"https://farm8.staticflickr.com/7292/15819206804_c24f7811bb_b.jpg",,"merged",,,"singleA18"
"29958",,,,,,,,,,,,,,,,,,,,,,,,,,,"https://farm8.staticflickr.com/7332/16254055558_a0d96467eb_b.jpg",,"merged",,,"singleA18"
"29959",,,,,,,,,,,,,,,,,,,,,,,,,,,"https://farm8.staticflickr.com/7355/15819206814_052855ba9a_b.jpg",,"merged",,,"singleA18"
"29960","817","Socketed Celt.","","British Museum,78.11-1.216,Meyrick Colln.","locality unknown","","53.830287","-1.3971219999999676","","None","None","None","86","32","34","160.92","dark green","","31","Width shows ""edge 34  socket 32"". Thickness shows ""socket 31"".","","","Grooved round socket & ornamented with ribs.,Socket top is uneven.,edge damaged & worn","","C1","JP OConnor","https://farm8.staticflickr.com/7364/16255809267_6084c39650_b.jpg","https://www.flickr.com/photos/MicroPasts/16255809267","only good record",-1.3971,53.8303,"singleA18"
"29961","243","Socketed Celt","","British Museum, 88.7-19.18,Londesborough Colln.","locality unknown.","England, UK","52.3555177","-1.1743197000000691","","None","None","None","80","Socket 35","52","141.75","blackish brown","","Socket 25.5","3 cross section drawings of celt on reverse.,Socket mouth is slightly oval-shaped, edge is a raised bevel.  Loop is intact, relatively small and connected to socket mouth.,Top profile (loop side) is mostly triangular.,Edge tips are flared, edge quite crescent shaped.","","","Double champfer on edges. Some edges - bright metal","","CI","Jeff Okazaki","https://farm8.staticflickr.com/7349/16254315710_bccba25d66_b.jpg","https://www.flickr.com/photos/MicroPasts/16254315710","superuser",-1.1743,52.3555,"singleA18"
"29962",,,,,,,,,,,,,,,,,,,,,,,,,,,"https://farm8.staticflickr.com/7380/15821660563_fc1cd0e493_b.jpg",,"merged",,,"singleA18"
"29963",,,,,,,,,,,,,,,,,,,,,,,,,,,"https://farm8.staticflickr.com/7291/16254055688_59689f73c6_b.jpg",,"merged",,,"singleA18"
"29964",,,,,,,,,,,,,,,,,,,,,,,,,,,"https://farm8.staticflickr.com/7323/15821660593_1a961c82ea_b.jpg",,"merged",,,"singleA18"
"29965",,,,,,,,,,,,,,,,,,,,,,,,,,,"https://farm8.staticflickr.com/7304/16254315870_cbab767770_b.jpg",,"merged",,,"singleA18"
"29966",,,,,,,,,,,,,,,,,,,,,,,,,,,"https://farm8.staticflickr.com/7455/16441724595_4a31a4c71a_b.jpg",,"merged",,,"singleA18"
"29967",,,,,,,,,,,,,,,,,,,,,,,,,,,"https://farm9.staticflickr.com/8643/16255470589_d41efc4748_b.jpg",,"merged",,,"singleA18"
"29968",,,,,,,,,,,,,,,,,,,,,,,,,,,"https://farm8.staticflickr.com/7417/16254056028_04836bd70f_b.jpg",,"merged",,,"singleA18"
"29969",,,,,,,,,,,,,,,,,,,,,,,,,,,"https://farm8.staticflickr.com/7298/16255809847_b041c4e288_b.jpg",,"merged",,,"singleA18"
"29970",,,,,,,,,,,,,,,,,,,,,,,,,,,"https://farm9.staticflickr.com/8631/16254056098_ae0ac6cb5a_b.jpg",,"merged",,,"singleA18"
"29971",,,,,,,,,,,,,,,,,,,,,,,,,,,"https://farm8.staticflickr.com/7388/16439951921_e532a85c35_b.jpg",,"merged",,,"singleA18"
"29972",,,,,,,,,,,,,,,,,,,,,,,,,,,"https://farm9.staticflickr.com/8641/16440787122_c3339713a4_b.jpg",,"merged",,,"singleA18"
"29973",,,,,,,,,,,,,,,,,,,,,,,,,,,"https://farm8.staticflickr.com/7344/16440787152_7afcc08863_b.jpg",,"merged",,,"singleA18"
"29974",,,,,,,,,,,,,,,,,,,,,,,,,,,"https://farm8.staticflickr.com/7439/16255470889_9bf7a6abe3_b.jpg",,"merged",,,"singleA18"
"29975",,,,,,,,,,,,,,,,,,,,,,,,,,,"https://farm8.staticflickr.com/7331/16255809997_ca6db01af0_b.jpg",,"merged",,,"singleA18"
"29976",,,,,,,,,,,,,,,,,,,,,,,,,,,"https://farm9.staticflickr.com/8609/15819207514_241723975b_b.jpg",,"merged",,,"singleA18"
"29977",,,,,,,,,,,,,,,,,,,,,,,,,,,"https://farm8.staticflickr.com/7405/16255471059_a5c722d432_b.jpg",,"merged",,,"singleA18"
"29978",,,,,,,,,,,,,,,,,,,,,,,,,,,"https://farm8.staticflickr.com/7324/16254316440_da4e194723_b.jpg",,"merged",,,"singleA18"
"29979",,,,,,,,,,,,,,,,,,,,,,,,,,,"https://farm8.staticflickr.com/7415/16254316470_b30549f801_b.jpg",,"merged",,,"singleA18"
"29980",,,,,,,,,,,,,,,,,,,,,,,,,,,"https://farm9.staticflickr.com/8601/16441725265_24954d5b85_b.jpg",,"merged",,,"singleA18"
"29981",,,,,,,,,,,,,,,,,,,,,,,,,,,"https://farm8.staticflickr.com/7358/16254316610_81eedfbca3_b.jpg",,"merged",,,"singleA18"
"29982",,,,,,,,,,,,,,,,,,,,,,,,,,,"https://farm8.staticflickr.com/7441/16440787472_628e54eb8f_b.jpg",,"merged",,,"singleA18"
"29983",,,,,,,,,,,,,,,,,,,,,,,,,,,"https://farm9.staticflickr.com/8679/16440787542_4af2b1426a_b.jpg",,"merged",,,"singleA18"
"29984",,,,,,,,,,,,,,,,,,,,,,,,,,,"https://farm9.staticflickr.com/8562/16415746526_7f0d8a3259_b.jpg",,"merged",,,"singleA18"
"29985",,,,,,,,,,,,,,,,,,,,,,,,,,,"https://farm8.staticflickr.com/7317/16254316700_e903e14cbc_b.jpg",,"merged",,,"singleA18"
"29986",,,,,,,,,,,,,,,,,,,,,,,,,,,"https://farm9.staticflickr.com/8663/16441725535_78f65f17b5_b.jpg",,"merged",,,"singleA18"
"29987",,,,,,,,,,,,,,,,,,,,,,,,,,,"https://farm8.staticflickr.com/7300/16441725645_0d817cffc3_b.jpg",,"merged",,,"singleA18"
"29988",,,,,,,,,,,,,,,,,,,,,,,,,,,"https://farm8.staticflickr.com/7342/16255471409_ba41ea28d8_b.jpg",,"merged",,,"singleA18"
"29989",,,,,,,,,,,,,,,,,,,,,,,,,,,"https://farm8.staticflickr.com/7426/15819208104_10a89b89b7_b.jpg",,"merged",,,"singleA18"
"29990",,,,,,,,,,,,,,,,,,,,,,,,,,,"https://farm8.staticflickr.com/7318/16441725905_6060ba0bc4_b.jpg",,"merged",,,"singleA18"
"29991",,,,,,,,,,,,,,,,,,,,,,,,,,,"https://farm8.staticflickr.com/7456/16441725935_a29ebb86fa_b.jpg",,"merged",,,"singleA18"
"29992",,,,,,,,,,,,,,,,,,,,,,,,,,,"https://farm9.staticflickr.com/8579/16254056948_64d502b601_b.jpg",,"merged",,,"singleA18"
"29993",,,,,,,,,,,,,,,,,,,,,,,,,,,"https://farm9.staticflickr.com/8679/16255810727_e9dca9c984_b.jpg",,"merged",,,"singleA18"
"29994",,,,,,,,,,,,,,,,,,,,,,,,,,,"https://farm9.staticflickr.com/8581/16255810747_c8665b8c92_b.jpg",,"merged",,,"singleA18"
"29995",,,,,,,,,,,,,,,,,,,,,,,,,,,"https://farm8.staticflickr.com/7300/16255471749_e697abbc8e_b.jpg",,"merged",,,"singleA18"
"29996",,,,,,,,,,,,,,,,,,,,,,,,,,,"https://farm8.staticflickr.com/7310/16441725985_c0ecf707a6_b.jpg",,"merged",,,"singleA18"
"29997",,,,,,,,,,,,,,,,,,,,,,,,,,,"https://farm9.staticflickr.com/8656/16439953021_0e0ac2b0a5_b.jpg",,"merged",,,"singleA18"
"29998",,,,,,,,,,,,,,,,,,,,,,,,,,,"https://farm8.staticflickr.com/7393/16439953061_b6079e0b29_b.jpg",,"merged",,,"singleA18"
"29999",,,,,,,,,,,,,,,,,,,,,,,,,,,"https://farm8.staticflickr.com/7424/16440788212_99d3479c9c_b.jpg",,"merged",,,"singleA18"
"30000",,,,,,,,,,,,,,,,,,,,,,,,,,,"https://farm8.staticflickr.com/7300/16439953241_645e81b37d_b.jpg",,"merged",,,"singleA18"
"30001",,,,,,,,,,,,,,,,,,,,,,,,,,,"https://farm8.staticflickr.com/7325/16439953311_cfdb53ef0e_b.jpg",,"merged",,,"singleA18"
"30002",,,,,,,,,,,,,,,,,,,,,,,,,,,"https://farm8.staticflickr.com/7337/16415747246_a46262d7d9_b.jpg",,"merged",,,"singleA18"
"30003",,,,,,,,,,,,,,,,,,,,,,,,,,,"https://farm8.staticflickr.com/7325/16255472219_8bdcd5ec0c_b.jpg",,"merged",,,"singleA18"
"30004",,,,,,,,,,,,,,,,,,,,,,,,,,,"https://farm8.staticflickr.com/7329/16255811447_00394cc0b7_b.jpg",,"merged",,,"singleA18"
"30005",,,,,,,,,,,,,,,,,,,,,,,,,,,"https://farm9.staticflickr.com/8680/16415747326_f4ace8e818_b.jpg",,"merged",,,"singleA18"
"30006",,,,,,,,,,,,,,,,,,,,,,,,,,,"https://farm8.staticflickr.com/7327/16254317560_a10d42254d_b.jpg",,"merged",,,"singleA18"
"30007",,,,,,,,,,,,,,,,,,,,,,,,,,,"https://farm8.staticflickr.com/7335/16415747706_80858f7a2f_b.jpg",,"merged",,,"singleA18"
"30008",,,,,,,,,,,,,,,,,,,,,,,,,,,"https://farm9.staticflickr.com/8593/16415747406_f621a2a49a_b.jpg",,"merged",,,"singleA18"
"30009",,,,,,,,,,,,,,,,,,,,,,,,,,,"https://farm8.staticflickr.com/7299/15821662813_10d27fc8b5_b.jpg",,"merged",,,"singleA18"
"30010",,,,,,,,,,,,,,,,,,,,,,,,,,,"https://farm8.staticflickr.com/7425/16254057898_7dc246d401_b.jpg",,"merged",,,"singleA18"
"30011",,,,,,,,,,,,,,,,,,,,,,,,,,,"https://farm9.staticflickr.com/8583/16255472589_2e08b91431_b.jpg",,"merged",,,"singleA18"
"30012",,,,,,,,,,,,,,,,,,,,,,,,,,,"https://farm8.staticflickr.com/7377/16254057888_32e2c51ea7_b.jpg",,"merged",,,"singleA18"
"30013",,,,,,,,,,,,,,,,,,,,,,,,,,,"https://farm8.staticflickr.com/7433/16255472649_f432f5bb5c_b.jpg",,"merged",,,"singleA18"
"30014",,,,,,,,,,,,,,,,,,,,,,,,,,,"https://farm8.staticflickr.com/7361/15819209264_3dc15326be_b.jpg",,"merged",,,"singleA18"
"30015",,,,,,,,,,,,,,,,,,,,,,,,,,,"https://farm8.staticflickr.com/7403/16254318310_030f7b9c32_b.jpg",,"merged",,,"singleA18"
"30016",,,,,,,,,,,,,,,,,,,,,,,,,,,"https://farm9.staticflickr.com/8660/16254058208_8e151583fc_b.jpg",,"merged",,,"singleA18"
"30017",,,,,,,,,,,,,,,,,,,,,,,,,,,"https://farm8.staticflickr.com/7397/16255811807_03ffa883b8_b.jpg",,"merged",,,"singleA18"
"30018",,,,,,,,,,,,,,,,,,,,,,,,,,,"https://farm9.staticflickr.com/8645/15819209504_b467f84ca3_b.jpg",,"merged",,,"singleA18"
"30019",,,,,,,,,,,,,,,,,,,,,,,,,,,"https://farm8.staticflickr.com/7286/16255473179_da7e5fc17e_b.jpg",,"merged",,,"singleA18"
"30020",,,,,,,,,,,,,,,,,,,,,,,,,,,"https://farm8.staticflickr.com/7376/15819209644_d1ec84a437_b.jpg",,"merged",,,"singleA18"
"30021",,,,,,,,,,,,,,,,,,,,,,,,,,,"https://farm9.staticflickr.com/8636/16415748296_2f7d146805_b.jpg",,"merged",,,"singleA18"
"30022",,,,,,,,,,,,,,,,,,,,,,,,,,,"https://farm8.staticflickr.com/7447/16439954511_db8917c778_b.jpg",,"merged",,,"singleA18"
"30023",,,,,,,,,,,,,,,,,,,,,,,,,,,"https://farm8.staticflickr.com/7332/16254318690_ee9b2368b6_b.jpg",,"merged",,,"singleA18"
"30024",,,,,,,,,,,,,,,,,,,,,,,,,,,"https://farm8.staticflickr.com/7400/16441727655_efbd2703a3_b.jpg",,"merged",,,"singleA18"
"30025",,,,,,,,,,,,,,,,,,,,,,,,,,,"https://farm9.staticflickr.com/8583/16255812157_9ea8ed7580_b.jpg",,"merged",,,"singleA18"
"30026",,,,,,,,,,,,,,,,,,,,,,,,,,,"https://farm8.staticflickr.com/7349/16254318820_d3b03e9d38_b.jpg",,"merged",,,"singleA18"
"30027",,,,,,,,,,,,,,,,,,,,,,,,,,,"https://farm8.staticflickr.com/7443/16439954771_ef8cf71ef9_b.jpg",,"merged",,,"singleA18"
"30028",,,,,,,,,,,,,,,,,,,,,,,,,,,"https://farm8.staticflickr.com/7411/16415748586_3f2430a6bc_b.jpg",,"merged",,,"singleA18"
"30029",,,,,,,,,,,,,,,,,,,,,,,,,,,"https://farm8.staticflickr.com/7292/15821663803_488504fd08_b.jpg",,"merged",,,"singleA18"
"30030",,,,,,,,,,,,,,,,,,,,,,,,,,,"https://farm8.staticflickr.com/7352/16255812247_61f42f6412_b.jpg",,"merged",,,"singleA18"
"30031",,,,,,,,,,,,,,,,,,,,,,,,,,,"https://farm9.staticflickr.com/8576/16439954831_41d0d74a55_b.jpg",,"merged",,,"singleA18"
"30032",,,,,,,,,,,,,,,,,,,,,,,,,,,"https://farm8.staticflickr.com/7367/16439954941_e88d637f88_b.jpg",,"merged",,,"singleA18"
"30033",,,,,,,,,,,,,,,,,,,,,,,,,,,"https://farm9.staticflickr.com/8572/16440789752_10904419ce_b.jpg",,"merged",,,"singleA18"
"30034",,,,,,,,,,,,,,,,,,,,,,,,,,,"https://farm9.staticflickr.com/8611/16440789802_c8e1c1e66d_b.jpg",,"merged",,,"singleA18"
"30035",,,,,,,,,,,,,,,,,,,,,,,,,,,"https://farm8.staticflickr.com/7324/16440789872_288bcbbb25_b.jpg",,"merged",,,"singleA18"
"30036",,,,,,,,,,,,,,,,,,,,,,,,,,,"https://farm9.staticflickr.com/8577/16254059018_1577dc4f31_b.jpg",,"merged",,,"singleA18"
"30037",,,,,,,,,,,,,,,,,,,,,,,,,,,"https://farm8.staticflickr.com/7422/16441727855_f3b8098174_b.jpg",,"merged",,,"singleA18"
"30038",,,,,,,,,,,,,,,,,,,,,,,,,,,"https://farm8.staticflickr.com/7453/16441727925_86699e1f3f_b.jpg",,"merged",,,"singleA18"
"30039",,,,,,,,,,,,,,,,,,,,,,,,,,,"https://farm9.staticflickr.com/8652/16254059208_1023ce7b05_b.jpg",,"merged",,,"singleA18"
"30040",,,,,,,,,,,,,,,,,,,,,,,,,,,"https://farm8.staticflickr.com/7313/16441727995_843f613c2d_b.jpg",,"merged",,,"singleA18"
"30041",,,,,,,,,,,,,,,,,,,,,,,,,,,"https://farm9.staticflickr.com/8656/16254059258_bb46e1e8cd_b.jpg",,"merged",,,"singleA18"
"30042",,,,,,,,,,,,,,,,,,,,,,,,,,,"https://farm9.staticflickr.com/8612/16254319300_e7357d4924_b.jpg",,"merged",,,"singleA18"
"30043",,,,,,,,,,,,,,,,,,,,,,,,,,,"https://farm8.staticflickr.com/7287/15821664253_735b61d097_b.jpg",,"merged",,,"singleA18"
"30044",,,,,,,,,,,,,,,,,,,,,,,,,,,"https://farm8.staticflickr.com/7451/16440790212_6888d9c4e5_b.jpg",,"merged",,,"singleA18"
"30045",,,,,,,,,,,,,,,,,,,,,,,,,,,"https://farm9.staticflickr.com/8674/16440790242_601c54540d_b.jpg",,"merged",,,"singleA18"
"30046",,,,,,,,,,,,,,,,,,,,,,,,,,,"https://farm9.staticflickr.com/8569/16415749236_dbaa858122_b.jpg",,"merged",,,"singleA18"
"30047",,,,,,,,,,,,,,,,,,,,,,,,,,,"https://farm8.staticflickr.com/7320/16254319450_fb1804ed36_b.jpg",,"merged",,,"singleA18"
"30048",,,,,,,,,,,,,,,,,,,,,,,,,,,"https://farm9.staticflickr.com/8665/16254319480_c96184b9ac_b.jpg",,"merged",,,"singleA18"
"30049",,,,,,,,,,,,,,,,,,,,,,,,,,,"https://farm9.staticflickr.com/8665/16415749416_6e2af17a82_b.jpg",,"merged",,,"singleA18"
"30050",,,,,,,,,,,,,,,,,,,,,,,,,,,"https://farm8.staticflickr.com/7330/16441728365_66d0c80253_b.jpg",,"merged",,,"singleA18"
"30051",,,,,,,,,,,,,,,,,,,,,,,,,,,"https://farm8.staticflickr.com/7426/16254059618_06fd95de7b_b.jpg",,"merged",,,"singleA18"
"30052",,,,,,,,,,,,,,,,,,,,,,,,,,,"https://farm8.staticflickr.com/7402/16439955651_7ced625a59_b.jpg",,"merged",,,"singleA18"
"30053",,,,,,,,,,,,,,,,,,,,,,,,,,,"https://farm8.staticflickr.com/7395/16254059748_290496b742_b.jpg",,"merged",,,"singleA18"
"30054",,,,,,,,,,,,,,,,,,,,,,,,,,,"https://farm8.staticflickr.com/7303/16440790582_aa04107dfc_b.jpg",,"merged",,,"singleA18"
"30055",,,,,,,,,,,,,,,,,,,,,,,,,,,"https://farm9.staticflickr.com/8639/16441728545_874d24d663_b.jpg",,"merged",,,"singleA18"
"30056",,,,,,,,,,,,,,,,,,,,,,,,,,,"https://farm9.staticflickr.com/8642/15819210984_6bdcd35f30_b.jpg",,"merged",,,"singleA18"
"30057",,,,,,,,,,,,,,,,,,,,,,,,,,,"https://farm9.staticflickr.com/8571/15819211004_b695edf23b_b.jpg",,"merged",,,"singleA18"
"30058",,,,,,,,,,,,,,,,,,,,,,,,,,,"https://farm9.staticflickr.com/8664/16254059968_942c9df620_b.jpg",,"merged",,,"singleA18"
"30059",,,,,,,,,,,,,,,,,,,,,,,,,,,"https://farm8.staticflickr.com/7294/16255813297_9a7124b10e_b.jpg",,"merged",,,"singleA18"
"30060",,,,,,,,,,,,,,,,,,,,,,,,,,,"https://farm9.staticflickr.com/8670/15821664823_2f32338a48_b.jpg",,"merged",,,"singleA18"
"30061",,,,,,,,,,,,,,,,,,,,,,,,,,,"https://farm8.staticflickr.com/7342/16415749946_dbefd78543_b.jpg",,"merged",,,"singleA18"
"30062",,,,,,,,,,,,,,,,,,,,,,,,,,,"https://farm9.staticflickr.com/8629/16440790952_b01f66e774_b.jpg",,"merged",,,"singleA18"
"30063",,,,,,,,,,,,,,,,,,,,,,,,,,,"https://farm8.staticflickr.com/7430/16255813497_18528a81c8_b.jpg",,"merged",,,"singleA18"
"30064",,,,,,,,,,,,,,,,,,,,,,,,,,,"https://farm9.staticflickr.com/8668/16415750176_30d887ba84_b.jpg",,"merged",,,"singleA18"
"30065",,,,,,,,,,,,,,,,,,,,,,,,,,,"https://farm8.staticflickr.com/7408/16255475009_2beb867e77_b.jpg",,"merged",,,"singleA18"
"30066",,,,,,,,,,,,,,,,,,,,,,,,,,,"https://farm8.staticflickr.com/7285/16441729105_0a2ec9f70d_b.jpg",,"merged",,,"singleA18"
"30067",,,,,,,,,,,,,,,,,,,,,,,,,,,"https://farm8.staticflickr.com/7436/16415750346_373bc9386a_b.jpg",,"merged",,,"singleA18"
"30068",,,,,,,,,,,,,,,,,,,,,,,,,,,"https://farm9.staticflickr.com/8671/16255813707_6fccd0d72f_b.jpg",,"merged",,,"singleA18"
"30069",,,,,,,,,,,,,,,,,,,,,,,,,,,"https://farm8.staticflickr.com/7396/16255475209_9d16132dac_b.jpg",,"merged",,,"singleA18"
"30070",,,,,,,,,,,,,,,,,,,,,,,,,,,"https://farm8.staticflickr.com/7330/16441729315_cb0e148254_b.jpg",,"merged",,,"singleA18"
"30071",,,,,,,,,,,,,,,,,,,,,,,,,,,"https://farm8.staticflickr.com/7436/16255475259_7175ddea70_b.jpg",,"merged",,,"singleA18"
"30072",,,,,,,,,,,,,,,,,,,,,,,,,,,"https://farm8.staticflickr.com/7440/16255475309_60f8fe269e_b.jpg",,"merged",,,"singleA18"
"30073",,,,,,,,,,,,,,,,,,,,,,,,,,,"https://farm9.staticflickr.com/8683/16254320500_59f0fbe402_b.jpg",,"merged",,,"singleA18"
"30074",,,,,,,,,,,,,,,,,,,,,,,,,,,"https://farm8.staticflickr.com/7378/16255813897_743b4cedbd_b.jpg",,"merged",,,"singleA18"
"30075",,,,,,,,,,,,,,,,,,,,,,,,,,,"https://farm8.staticflickr.com/7350/16439956661_55abf37fa2_b.jpg",,"merged",,,"singleA18"
"30076",,,,,,,,,,,,,,,,,,,,,,,,,,,"https://farm8.staticflickr.com/7383/16415750696_074f2d8395_b.jpg",,"merged",,,"singleA18"
"30077",,,,,,,,,,,,,,,,,,,,,,,,,,,"https://farm9.staticflickr.com/8563/16255813987_9f4f3dab90_b.jpg",,"merged",,,"singleA18"
"30078",,,,,,,,,,,,,,,,,,,,,,,,,,,"https://farm8.staticflickr.com/7376/16415750836_08a2f0bc5d_b.jpg",,"merged",,,"singleA18"
"30079",,,,,,,,,,,,,,,,,,,,,,,,,,,"https://farm8.staticflickr.com/7338/16254320690_8cc751c1e9_b.jpg",,"merged",,,"singleA18"
"30080",,,,,,,,,,,,,,,,,,,,,,,,,,,"https://farm8.staticflickr.com/7323/16254060978_4c6ca2f015_b.jpg",,"merged",,,"singleA18"
"30081",,,,,,,,,,,,,,,,,,,,,,,,,,,"https://farm8.staticflickr.com/7346/16441729795_d55db56ef7_b.jpg",,"merged",,,"singleA18"
"30082",,,,,,,,,,,,,,,,,,,,,,,,,,,"https://farm8.staticflickr.com/7414/16255475699_2ab651f1fd_b.jpg",,"merged",,,"singleA18"
"30083",,,,,,,,,,,,,,,,,,,,,,,,,,,"https://farm8.staticflickr.com/7377/16415751086_aa615bd2e1_b.jpg",,"merged",,,"singleA18"
"30084",,,,,,,,,,,,,,,,,,,,,,,,,,,"https://farm9.staticflickr.com/8617/16254320880_5fc89ff452_b.jpg",,"merged",,,"singleA18"
"30085",,,,,,,,,,,,,,,,,,,,,,,,,,,"https://farm8.staticflickr.com/7311/15821665883_d65c290d37_b.jpg",,"merged",,,"singleA18"
"30086",,,,,,,,,,,,,,,,,,,,,,,,,,,"https://farm8.staticflickr.com/7375/16254320960_2b71cf5298_b.jpg",,"merged",,,"singleA18"
"30087",,,,,,,,,,,,,,,,,,,,,,,,,,,"https://farm9.staticflickr.com/8614/16254061258_1a1f42b67b_b.jpg",,"merged",,,"singleA18"
"30088",,,,,,,,,,,,,,,,,,,,,,,,,,,"https://farm8.staticflickr.com/7320/16441730015_9bbf8971b7_b.jpg",,"merged",,,"singleA18"
"30089",,,,,,,,,,,,,,,,,,,,,,,,,,,"https://farm9.staticflickr.com/8575/16255814457_c65fae8d47_b.jpg",,"merged",,,"singleA18"
"30090",,,,,,,,,,,,,,,,,,,,,,,,,,,"https://farm9.staticflickr.com/8589/16441730075_c8ce80ab5b_b.jpg",,"merged",,,"singleA18"
"30091",,,,,,,,,,,,,,,,,,,,,,,,,,,"https://farm9.staticflickr.com/8595/16439957461_a67e0efd68_b.jpg",,"merged",,,"singleA18"
"30092",,,,,,,,,,,,,,,,,,,,,,,,,,,"https://farm8.staticflickr.com/7347/16254061498_675bcc771d_b.jpg",,"merged",,,"singleA18"
"30093",,,,,,,,,,,,,,,,,,,,,,,,,,,"https://farm8.staticflickr.com/7358/15821666093_bb397579bc_b.jpg",,"merged",,,"singleA18"
"30094",,,,,,,,,,,,,,,,,,,,,,,,,,,"https://farm8.staticflickr.com/7394/16441730245_b76f5d57d0_b.jpg",,"merged",,,"singleA18"
"30095",,,,,,,,,,,,,,,,,,,,,,,,,,,"https://farm8.staticflickr.com/7387/16441730305_f3e0863bbd_b.jpg",,"merged",,,"singleA18"
"30096",,,,,,,,,,,,,,,,,,,,,,,,,,,"https://farm8.staticflickr.com/7424/16415751536_f3c22f2f11_b.jpg",,"merged",,,"singleA18"
"30097",,,,,,,,,,,,,,,,,,,,,,,,,,,"https://farm8.staticflickr.com/7349/16441730325_afb6ea82e9_b.jpg",,"merged",,,"singleA18"
"30098",,,,,,,,,,,,,,,,,,,,,,,,,,,"https://farm8.staticflickr.com/7374/16415751566_33875f9ed0_b.jpg",,"merged",,,"singleA18"
"30099",,,,,,,,,,,,,,,,,,,,,,,,,,,"https://farm8.staticflickr.com/7416/16254061758_63db10d5dd_b.jpg",,"merged",,,"singleA18"
"30100",,,,,,,,,,,,,,,,,,,,,,,,,,,"https://farm8.staticflickr.com/7356/15821666243_d08d14ba85_b.jpg",,"merged",,,"singleA18"
"30101",,,,,,,,,,,,,,,,,,,,,,,,,,,"https://farm9.staticflickr.com/8616/16439957821_7bd8f32886_b.jpg",,"merged",,,"singleA18"
"30102",,,,,,,,,,,,,,,,,,,,,,,,,,,"https://farm9.staticflickr.com/8647/16254061818_e7c425a7d2_b.jpg",,"merged",,,"singleA18"
"30103",,,,,,,,,,,,,,,,,,,,,,,,,,,"https://farm8.staticflickr.com/7349/15821666293_f20c91365b_b.jpg",,"merged",,,"singleA18"
"30104",,,,,,,,,,,,,,,,,,,,,,,,,,,"https://farm8.staticflickr.com/7431/16255814917_d01bd2ac18_b.jpg",,"merged",,,"singleA18"
"30105",,,,,,,,,,,,,,,,,,,,,,,,,,,"https://farm9.staticflickr.com/8634/16441730525_b25e3e7a2b_b.jpg",,"merged",,,"singleA18"
"30106",,,,,,,,,,,,,,,,,,,,,,,,,,,"https://farm8.staticflickr.com/7375/16255476559_dae516f76a_b.jpg",,"merged",,,"singleA18"
"30107",,,,,,,,,,,,,,,,,,,,,,,,,,,"https://farm9.staticflickr.com/8612/16255814977_f43b4e09ba_b.jpg",,"merged",,,"singleA18"
"30108",,,,,,,,,,,,,,,,,,,,,,,,,,,"https://farm9.staticflickr.com/8678/16415751966_b7d4011d5d_b.jpg",,"merged",,,"singleA18"
"30109",,,,,,,,,,,,,,,,,,,,,,,,,,,"https://farm9.staticflickr.com/8678/16441730735_18bca4108e_b.jpg",,"merged",,,"singleA18"
"30110",,,,,,,,,,,,,,,,,,,,,,,,,,,"https://farm9.staticflickr.com/8667/16254062148_bb0c3dcaa9_b.jpg",,"merged",,,"singleA18"
"30111",,,,,,,,,,,,,,,,,,,,,,,,,,,"https://farm9.staticflickr.com/8563/16439958241_3ae9c2b53e_b.jpg",,"merged",,,"singleA18"
"30112",,,,,,,,,,,,,,,,,,,,,,,,,,,"https://farm8.staticflickr.com/7413/16255815387_18bf26eca0_b.jpg",,"merged",,,"singleA18"
"30113",,,,,,,,,,,,,,,,,,,,,,,,,,,"https://farm8.staticflickr.com/7384/16439958511_cb57a99bd2_b.jpg",,"merged",,,"singleA18"
"30114",,,,,,,,,,,,,,,,,,,,,,,,,,,"https://farm8.staticflickr.com/7298/16255477129_875cc5ba4d_b.jpg",,"merged",,,"singleA18"
"30115",,,,,,,,,,,,,,,,,,,,,,,,,,,"https://farm8.staticflickr.com/7334/16415752336_285b92cf94_b.jpg",,"merged",,,"singleA18"
"30116",,,,,,,,,,,,,,,,,,,,,,,,,,,"https://farm9.staticflickr.com/8573/16415752346_932767e636_b.jpg",,"merged",,,"singleA18"
"30117",,,,,,,,,,,,,,,,,,,,,,,,,,,"https://farm8.staticflickr.com/7419/15821666923_65b515320d_b.jpg",,"merged",,,"singleA18"
"30118","580","Spear Ferrule","IV B","B.M. W.G. 1672","R. Thames, Richmond upon Thames, Isleworth","Isleworth, Grand Londres, Royaume-Uni","51.467121","-0.329003000000057","TQ 16 75","None","None","None","","","","","","","","","","","","","CI","Denis Antoine","https://farm8.staticflickr.com/7336/16255815507_ecdaf3625f_b.jpg","https://www.flickr.com/photos/MicroPasts/16255815507","superuser",-0.329,51.4671,"singleA18"
"30119","580","Spear Ferrule","IV B","B.M. 98. 7-12. 18","Bucks, Taplow, Bucks","Taplow, Buckinghamshire, Royaume-Uni","51.532169","-0.6879599999999755","SU 91 82","None","None","None","","","","","","","","","","","","","CI","Denis Antoine","https://farm8.staticflickr.com/7357/16255477269_eedb6cae06_b.jpg","https://www.flickr.com/photos/MicroPasts/16255477269","superuser",-0.688,51.5322,"singleA18"
"30120","580","Spear Ferrule (broken)","? IV A","B.M. 98. 7-12. 17.","Bucks, Taplow","Taplow, Buckinghamshire, Royaume-Uni","51.532169","-0.6879599999999755","SU 91 82","None","None","None","","","","","","","","","","","","","CI","Denis Antoine","https://farm8.staticflickr.com/7419/16254062568_777f81ea77_b.jpg","https://www.flickr.com/photos/MicroPasts/16254062568","superuser",-0.688,51.5322,"singleA18"
"30121","580","Ferrule","III B","British Museum 94 12 10 49","England, Bucks & Berks., Taplow & Maidenhead (between), R. Thames","Taplow, Buckinghamshire, Royaume-Uni","51.532169","-0.6879599999999755","","None","None","None","220","middle 20; socket 24","","164.51","black.","rough & finely pitted.","socket 23.5","","","","Piece of shaft remains. Thickness (20) in middle. Point is rather broken, & socket damaged.","","OK, CI","Denis Antoine","https://farm8.staticflickr.com/7458/16254322350_49f1209641_b.jpg","https://www.flickr.com/photos/MicroPasts/16254322350","superuser",-0.688,51.5322,"singleA18"
"30122","580","Spear Ferrule","IV B","B.M. 1902. 7-16. 1","Montgomerys. Powys, Guilsfield (Without), Hoard","Guilsfield, Powys, Royaume-Uni","52.696301","-3.1565029999999297","SJ 21 11","None","None","None","","","","","","","","","","","","","CI","Denis Antoine","https://farm8.staticflickr.com/7307/16439958891_37b0ffd0f4_b.jpg","https://www.flickr.com/photos/MicroPasts/16439958891","superuser",-3.1565,52.6963,"singleA18"
"30123","580","Quadrangular Ferrule, Socketed Axe ?","I A var.","BM. SL. 251.","England, Berks, Windsor, St Leonard's Hill","Saint Leonard's Hill, Windsor, Windsor and Maidenhead SL4, Royaume-Uni","51.4682786","-0.6454869000000372","","None","None","None","","","","","","","","","","","","","CI","Denis Antoine","https://farm8.staticflickr.com/7435/16441731435_e3f841dc16_b.jpg","https://www.flickr.com/photos/MicroPasts/16441731435","superuser",-0.6455,51.4683,"singleA18"
"30124",,,,,,,,,,,,,,,,,,,,,,,,,,,"https://farm8.staticflickr.com/7438/16255477469_295b18256f_b.jpg",,"merged",,,"singleA18"
"30125",,,,,,,,,,,,,,,,,,,,,,,,,,,"https://farm8.staticflickr.com/7300/15821667183_4845b27751_b.jpg",,"merged",,,"singleA18"
"30126",,,,,,,,,,,,,,,,,,,,,,,,,,,"https://farm8.staticflickr.com/7368/16255477519_ebd617ecb2_b.jpg",,"merged",,,"singleA18"
"30127",,,,,,,,,,,,,,,,,,,,,,,,,,,"https://farm8.staticflickr.com/7381/16255477719_1668d2e486_b.jpg",,"merged",,,"singleA18"
"30128","580","Rapier","","British Museum, No number.OK unprov. material.","Locality unknown","",,,"","None","None","None","297","hilt plate 41.5; blade 28","","","dark green & brown","much rusted & corroded","blade 8.5","","","","High central rib. 2 rivet holes. Edges are badly broken. Point missing.","","","Denis Antoine","https://farm9.staticflickr.com/8590/16441731645_884b646046_b.jpg","https://www.flickr.com/photos/MicroPasts/16441731645","superuser",,,"singleA18"
"30129","580","Rapier","","British Museum 66 6 27 115, Christie Trustees.","locality unknown.","",,,"","None","None","None","337","hilt plate 35; blade 26","","172.1","bright green, blue & brown patches.","rough","blade 6","","","","Two rivets. Narrow central rib. Edges slightly bevelled.","","CI","Denis Antoine","https://farm8.staticflickr.com/7323/16255815977_6a26df654a_b.jpg","https://www.flickr.com/photos/MicroPasts/16255815977","superuser",,,"singleA18"
"30130","580","Dirk","A","BM. 88. 7-19. 30","No provenance.","",,,"","None","None","None","","","","","","","","","","","","","CI","Denis Antoine","https://farm8.staticflickr.com/7316/16255815987_5cfd97d430_b.jpg","https://www.flickr.com/photos/MicroPasts/16255815987","superuser",,,"singleA18"
"30131","580","Rapier","B","British Museum Tr. 45, (Tower Armoury)","Britain","Grande-Bretagne, Royaume-Uni","53.7190281","-2.0727838999999904","","None","None","None","457","hilt plate 53; blade 25","","241.72","dark brown.","rather rough.","blade 5","","","","Two rivets. Edges a little chipped.","","CI","Denis Antoine","https://farm9.staticflickr.com/8676/16439959211_232cdfec2e_b.jpg","https://www.flickr.com/photos/MicroPasts/16439959211","superuser",-2.0728,53.719,"singleA18"
"30132","580","Dirk","B","Trump's I, British Museum W.G. 2077.","England, Tyne & Wear, Claxhaugh, R. Wear","Tyne and Wear, Royaume-Uni","54.9951837","-1.5666991000000507","NZ 39 56","None","None","None","327","hilt 35; blade 16","","127.81","light green, bronze shows on rib.","","blade 5","","","","Bent at point. 2 rivet holes.","B.A.V. Trump. P.P.S. 1962 No 5. p. 96, No 67","Almost OK, CI","Denis Antoine","https://farm9.staticflickr.com/8572/16254322820_3ea70dff10_b.jpg","https://www.flickr.com/photos/MicroPasts/16254322820","superuser",-1.5667,54.9952,"singleA18"
"30133","580","Dirk, Dagger: grooved","A","Trumps Dee W., British Museum WG 1681.","Tyne & Wear, Newcastle, Elswick, dredged up from R. Tyne near King's Meadows, Aug. 1882.","Elswick, Newcastle upon Tyne, Newcastle upon Tyne, Tyne and Wear NE4, Royaume-Uni","54.968284","-1.648392000000058","NZ 23 63","None","8","1882","332","near hilt 73; blade 41","","341.7","black stains on gloden bronze","specked","blade 7","","","","Three rivets. Central rib & 4 smalle rones.","B.A.V. Trump. P.P.S. No 5, p. 98., 226","Almost OK. Needs rivets., CI","Denis Antoine","https://farm9.staticflickr.com/8613/16254322830_ddd5f178ac_b.jpg","https://www.flickr.com/photos/MicroPasts/16254322830","superuser",-1.6484,54.9683,"singleA18"
"30134","580","Rapier","B","Trump's II Wandsworth, British Museum W.G. 1682.","England, Tyne & Wear, Nr. Newcastle, R. Tyne","Newcastle upon Tyne, Tyne and Wear, Royaume-Uni","54.978252","-1.6177800000000389","NZ 24 64","None","None","None","391","blade 27; hilt plate 62","","244.47","sage green showing golden bronze, with black patches.","smooth. Deep scratch near point.","blade 5","","","","Three ribs down blade. slightly fluted. 2 rivets.","B.A.V. Trump. P.P.S. 1962 No. 5, p. 98, 219","Almost OK. Needs rivets., CI","Denis Antoine","https://farm9.staticflickr.com/8677/16439959401_0c4d89b0a3_b.jpg","https://www.flickr.com/photos/MicroPasts/16439959401","superuser",-1.6178,54.9783,"singleA18"
"30135","580","Rapier","D","British Museum WG. 1683.","England, Tyne & Wear, Nr. Newcastle, R. Tyne","Newcastle upon Tyne, Tyne and Wear, Royaume-Uni","54.978252","-1.6177800000000389","NZ 24 64","None","None","None","500","hilt plae 54; blade 22.5","","241.72","brown stains on dull golden bronze.","smooth","blade 5","","","","Angular midrib & hollowed edges.","","Almost OK, CI","Denis Antoine","https://farm8.staticflickr.com/7345/16441731935_d0b9bdd65a_b.jpg","https://www.flickr.com/photos/MicroPasts/16441731935","superuser",-1.6178,54.9783,"singleA18"
"30136","580","Dirk (other)","A","British Museum 62 8 2 2 ?, presented by Earl of Lovelace 1862., See p. 96 Trumps list, Can she have reversed this Number.","England, Surrey, In Thames, at Thames Ditton","Thames Ditton, Surrey, Royaume-Uni","51.389686","-0.33918900000003305","TQ 16 97","None","None","None","3242","blade 34.5; hilt plate 72","","297.67","","bronze with black stains.","blade 6","","","","Four rivets. Very slight ribbing on blade showing as black. Edges slightly grooved.","Surrey V.C.H. Vol. I, p. 244., B.A.V. Trump. P.P.S. 1962, No 5, p. 96, 90","Inacc. drawing., CI","Denis Antoine","https://farm8.staticflickr.com/7445/16415753076_109a8491ed_b.jpg","https://www.flickr.com/photos/MicroPasts/16415753076","superuser",-0.3392,51.3897,"singleA18"
"30137","580","Dirk","B","Trump's I, British Museum 63. 1 22. 124., from Mus. Parct. Geol. 1863., drawn by Crofton Croker when in possession of Mr. Jesse.","England, Surrey, Kingston, R. Thames","Kingston upon Thames, Greater London, Royaume-Uni","51.41233","-0.30068900000003396","","None","None","None","351","hilt plate 47; blade 23.","","195.86","black with lighter patches.","worn.","blade 5","","","","Edges slightly chipped. Two rivet holes.","B.A.V. Trump. 1962, No 5, p. 96, No 96","Not quite accurate.","Denis Antoine","https://farm8.staticflickr.com/7394/15819214544_4e11a269bf_b.jpg","https://www.flickr.com/photos/MicroPasts/15819214544","superuser",-0.3007,51.4123,"singleA18"
"30138","580","Dirk","B","Trump's III Barnes, British Museum 63 1 22 123., from Mus. Pract. Geol. 1863, drawn by Crofton Croker when in the possession of Mr. Jesse","England, Surrey, Kingston Bridge, R. Thames","Kingston Bridge, Kingston upon Thames, Greater London KT1, Royaume-Uni","51.4111552","-0.3090641000000005","","None","None","None","325","blade 19.5; hilt plate 41.","","","","dull bronze with brown stains. mottled.","blade 5","","","","2 rivets.","B.A.V. Trump, P.P.S. 1962, No. 5, p. 97., No. 165","Inacc.","Denis Antoine","https://farm9.staticflickr.com/8585/16255478389_292db1c5c0_b.jpg","https://www.flickr.com/photos/MicroPasts/16255478389","superuser",-0.3091,51.4112,"singleA18"
"30139","580","Dirk","B","Trump's 'II Wandsworth', British Museum 63 1 22 122., Mus. Pract. Geol. 1863.","England, Surrey, Kingston, R. Thames","Kingston upon Thames, Greater London, Royaume-Uni","51.41233","-0.30068900000003396","","None","None","None","320","blade 30; hilt plate 67","","264.23","dark & light brown","finely speckled","blade 6","","","","Two rivets. Blade ribbed. Edges damaged.","Evan's Bronze Age, p. 250, B Trump, P.P.S. 1962, No. 5, p. 96, No. 109","Not accurate.","Denis Antoine","https://farm8.staticflickr.com/7454/16441732085_370d5404e0_b.jpg","https://www.flickr.com/photos/MicroPasts/16441732085","superuser",-0.3007,51.4123,"singleA18"
"30140","580","Short Dirk (other)","D","Trump's II Lisburn, British Museum 56 7 1 1360, purchased 1856, Roach Smith Collection","England, R. Thames, No provenance","","51.41233","-0.30068900000003396","","None","None","None","268","hilt plate 27; blade 17","","","dark brown, green patch on face. Upper part of reverse, bronze with black patches & lower half green.","","blade 4","","","","","B.A.V. Trump, P.P.S. 1962, No. 5, p. 97, 187","Inacc. drawing, CI","Denis Antoine","https://farm9.staticflickr.com/8617/16439959631_f5a9db5c1f_b.jpg","https://www.flickr.com/photos/MicroPasts/16439959631","superuser",-0.3007,51.4123,"singleA18"
"30141","580","Dirk","D","Trump's III Lisburn, British Museum, purchased 1856","England, R. Thames (said to be from)","Angleterre, Royaume-Uni","52.3555177","-1.1743197000000691","","None","None","None","327","blade 16; hilt plate 42","","103.22","dark brown, showing bronze.","smooth except upper part.","blade 3","","","","Blade is bent wavy, point is bent.","B.V.A. Trump, P.P.S. 1962, No. 5, p. 97, 188","CI","Denis Antoine","https://farm8.staticflickr.com/7398/16415753266_b37d0e1b26_b.jpg","https://www.flickr.com/photos/MicroPasts/16415753266","superuser",-1.1743,52.3555,"singleA18"
"30142","580","Dagger / Dirk","","BM. 64. 5-11. 5","England, R. Thames","Tamise, Royaume-Uni","51.4917059","0.7321755000000394","","None","None","None","","","","","","","","","","","2 rivets","","CI","Denis Antoine","https://farm9.staticflickr.com/8585/16255478539_290efc74c7_b.jpg","https://www.flickr.com/photos/MicroPasts/16255478539","superuser",0.7322,51.4917,"singleA18"
"30143","580","Dirk / Dagger","D","BM. 50. 7-20. 2","England, R. Thames (probably)","Angleterre, Royaume-Uni","52.3555177","-1.1743197000000691","","None","None","None","","","","","","","","","","","","","CI","Denis Antoine","https://farm8.staticflickr.com/7428/16255816637_fe4d036aea_b.jpg","https://www.flickr.com/photos/MicroPasts/16255816637","superuser",-1.1743,52.3555,"singleA18"
"30144","580","Dirk","B","BM. 94. 12-10. 54","England, ? R. Thames","Angleterre, Royaume-Uni","52.3555177","-1.1743197000000691","","None","None","None","","","","","","","","","","","","","CI","Denis Antoine","https://farm8.staticflickr.com/7358/16254323150_386300e6f7_b.jpg","https://www.flickr.com/photos/MicroPasts/16254323150","superuser",-1.1743,52.3555,"singleA18"
"30145","580","Dagger Ogival","Ogival","Trump's 'Misc.', British Museum 82 5 18 6, presented 1882","England, R. Thames","Tamise, Royaume-Uni","51.4917059","0.7321755000000394","","None","None","None","342","hilt 68; 70; blade 36","","474.86","dark brown, with patches of bronze.","slightly encrusted.","blade 7","","","","Ornamented with incised lines & dots. Dome shaped rivet & 2 small rivet holes. Point broken. Central thickening in blade & hollowed edges.","B.A.V. Trump, P.P.S. 1962, No. 5, p. 98, No. 207","Inacc. drawing., Xrays available - see documented file, CI","Denis Antoine","https://farm8.staticflickr.com/7392/16255816707_f8b26233ee_b.jpg","https://www.flickr.com/photos/MicroPasts/16255816707","superuser",0.7322,51.4917,"singleA18"
"30146","580","Dagger Long & broad","","BM. 56. Ã¨-1. 1359 C.R.S.","England, R. Thames","Tamise, Royaume-Uni","51.4917059","0.7321755000000394","","None","None","None","","","","","","","","","","","","","CI","Denis Antoine","https://farm9.staticflickr.com/8591/15821668213_a848c6bca0_b.jpg","https://www.flickr.com/photos/MicroPasts/15821668213","superuser",0.7322,51.4917,"singleA18"
"30147","580","Tanged Dagger","","London, BM 56. 6-27. 46","R. Thames ?","","51.4917059","0.7321755000000394","","None","None","None","","","","","","","","","","","","","See new index, CI","Denis Antoine","https://farm8.staticflickr.com/7342/16254323280_1a1c4f289a_b.jpg","https://www.flickr.com/photos/MicroPasts/16254323280","superuser",0.7322,51.4917,"singleA18"
"30148","580","Tanged Dagger","","London, British Museum, 56. 6-27. 46","R. Thames (?)","","51.4917059","0.7321755000000394","","None","None","None","146","27","","","","matt dark green","","","","","edges damaged","","MJR","Denis Antoine","https://farm9.staticflickr.com/8645/16254323340_26285564d1_b.jpg","https://www.flickr.com/photos/MicroPasts/16254323340","superuser",0.7322,51.4917,"singleA18"
"30149","580","Rapier","B","Trump's II Wandsworth, British Museum 64 9 12 1, purchased 1864.","England, R. Thames","Tamise, Royaume-Uni","51.4917059","0.7321755000000394","","None","None","None","423","blade 22; hilt plate 70","","242.97","dark brown, showing bronze, especially on reverse.","pitted.","blade 5","","","","2 Rivets. Slight crack across the centre of blade.","B.A.V. Trump, P.P.S. 1962, No. 5, p. 96., 110","Almost OK, CI","Denis Antoine","https://farm9.staticflickr.com/8586/16440794232_ece04bc727_b.jpg","https://www.flickr.com/photos/MicroPasts/16440794232","superuser",0.7322,51.4917,"singleA18"
"30150","580","Rapier","C","Trump's II Mortlake, British Museum 57 10 16 1, Bought from Joshua Blundell / 57.","England, R. Thames","Tamise, Royaume-Uni","51.4917059","0.7321755000000394","","None","None","None","528","hilt plate 59; blade 30","","455.1","dark brown, metal showing.","rather scratched.","blade 7","","","","2 Rivets.","B.A.V. Trump, P.P.S. 1962, No. 5, p. 97, 136","OK. needs rivets., CI","Denis Antoine","https://farm8.staticflickr.com/7363/16440794392_2f3f837715_b.jpg","https://www.flickr.com/photos/MicroPasts/16440794392","superuser",0.7322,51.4917,"singleA18"
"30151","580","Short Dirk with trapezoidal plate","B","British Museum W.G. 1693.","England, Oxon, Thames, Abingdon, Sandford","Sandford-on-Thames, Oxford, Oxfordshire OX4, Royaume-Uni","51.7114908","-1.2260645999999724","SU 49 97","None","None","None","224","blade 13; hilt plate 32","","65.78","patch of bright green on reverse.","dull gold with black stains.","blade 4","","","","Two rivets. Lower part of blade slightly crooked.","","Somewhat inacc., CI","Denis Antoine","https://farm9.staticflickr.com/8623/16255816977_bef05fe492_b.jpg","https://www.flickr.com/photos/MicroPasts/16255816977","superuser",-1.2261,51.7115,"singleA18"
"30152","580","Dirk","D","Trump's II Thetford, British Museum 61 8 21 1","England, Surrey, Farnham, Caesar's Camp","Farnham, Surrey, Royaume-Uni","51.214321","-0.7988020000000233","SU 84 46","None","None","None","302","hilt plate 48; blade 19","","184.27","chocolate brown & very slight remains of green patina on face & more on reverse.","","blade 7","","","","Three central ribs along blade. Edges slightly chipped. Slightly bent at hilt plate corners.","Evan's Bronze p. 250., B.A.V. Trump, P.P.S. 1962, No. 5, p. 99, 255","Inacc. drawing, CI","Denis Antoine","https://farm9.staticflickr.com/8641/16254064058_2d6be697d6_b.jpg","https://www.flickr.com/photos/MicroPasts/16254064058","superuser",-0.7988,51.2143,"singleA18"
"30153","580","Dirk fragment","","BM. 54. 12-27. 67.","England, Suffolk, Woodbridge","Woodbridge, Suffolk, Royaume-Uni","52.095481","1.3125709999999344","TM 27 49","None","None","None","","","","","","","","","","","","","CI","Denis Antoine","https://farm9.staticflickr.com/8642/16439960121_01a599054e_b.jpg","https://www.flickr.com/photos/MicroPasts/16439960121","superuser",1.3126,52.0955,"singleA18"
"30154","580","Tanged Dagger","","BM. W.G. 2021","North Yorks, Sherburn, Sherburn [...]","Sherburn, Malton, North Yorkshire YO17, Royaume-Uni","54.187106","-0.5320879999999306","SE 95 76","None","None","None","","","","","","","","","","","","","CI","Denis Antoine","https://farm8.staticflickr.com/7363/16415753756_36bc14b432_b.jpg","https://www.flickr.com/photos/MicroPasts/16415753756","superuser",-0.5321,54.1871,"singleA18"
"30155","580","Dagger","","B.M. Loan.","North Yorks, Rosedale East Site, Loose Howe","Rosedale Abbey, Pickering, North Yorkshire YO18, Royaume-Uni","54.353654","-0.8836450000000013","","None","None","None","","","","","","","","","","","","","","Denis Antoine","https://farm9.staticflickr.com/8589/15821668663_e5f05346d5_b.jpg","https://www.flickr.com/photos/MicroPasts/15821668663","superuser",-0.8836,54.3537,"singleA18"
"30156","580","Knife - Blade fragment","","British Museum WG 2434.","North Yorkshire, Heslerton, Carr","Heselton, Bedale, North Yorkshire DL8, Royaume-Uni","54.322666","-1.6968650000000025","SE 92 76","None","None","None","81","10","","16","brown","smooth but with considerable rough patches of rough-like substance","4","","","","Tip of blade of narrow knife or dagger. Edges rough at top & near the point.","","CI","Denis Antoine","https://farm8.staticflickr.com/7402/16255479109_ccfa866423_b.jpg","https://www.flickr.com/photos/MicroPasts/16255479109","superuser",-1.6969,54.3227,"singleA18"
"30157","580","Rivetted Dagger Ogival","Ogival","Trump's Dec. W., British Museum W.G. 2064","England, Northumberland, Ford, Westfield Farm","Ford, Berwick-upon-Tweed, Northumberland TD15, Royaume-Uni","55.632711","-2.0800950000000284","NT 94 37","None","None","None","223","blade 37; hilt 74","","207.52","brown","corroded all over.","blade 5","","","","Two rivet holes (broken), clearly visible, but can have had five, or three. Hilt plate damaged, also edges & point.","Evan's A.B.I. p. 274 possibly halberd (see below), B.A.V. Trump, P.P.S. 1962, No. 5, p. 98, 223","Almost OK, Is rather dagger or short dirk than halberd, for which neither the rivet plan, the mid rib lines, nor the blade's v. slight asymetry seem suitable. Not listed as halberd by O'[...], Archaeologia 86 (1937) 195-321.","Denis Antoine","https://farm8.staticflickr.com/7304/16439960241_59291ece76_b.jpg","https://www.flickr.com/photos/MicroPasts/16439960241","superuser",-2.0801,55.6327,"singleA18"
"30158","580","Ribbed Dagger ogival","Ogival","British Museum WG 2063., J.M. Morgan gift 1909.","England, Norfolk, Methwold, Whiteplot","Methwold, Thetford, Norfolk IP26, Royaume-Uni","52.52525800000001","0.5543780000000424","TL 73 94","None","None","None","266","blade 35.5; hilt plate 78","","183.18","dark brown","flaked & encrused in parts","blade 5","","","","Edges are grooved. Four roughly parallel fine ribs down each side of blade, meeting near point & carried on as a sharp rib.","","Inacc. drawing, CI","Denis Antoine","https://farm8.staticflickr.com/7358/16415754006_cab214313b_b.jpg","https://www.flickr.com/photos/MicroPasts/16415754006","superuser",0.5544,52.5253,"singleA18"
"30159","580","Dirk","D","BM. W.G. 2076.","England, Norfolk, Methwold","Methwold, Thetford, Norfolk IP26, Royaume-Uni","52.52525800000001","0.5543780000000424","x","None","None","None","","","","","","","","","","","","","","Denis Antoine","https://farm8.staticflickr.com/7424/16439960431_f9489ac798_b.jpg","https://www.flickr.com/photos/MicroPasts/16439960431","superuser",0.5544,52.5253,"singleA18"
"30160",,,,,,,,,,,,,,,,,,,,,,,,,,,"https://farm9.staticflickr.com/8567/16255817307_19f00e03d0_b.jpg",,"merged",,,"singleA18"
"30161",,,,,,,,,,,,,,,,,,,,,,,,,,,"https://farm8.staticflickr.com/7293/15821668983_559fae4dd6_b.jpg",,"merged",,,"singleA18"
"30162",,,,,,,,,,,,,,,,,,,,,,,,,,,"https://farm8.staticflickr.com/7372/16254324030_2e2d5e0169_b.jpg",,"merged",,,"singleA18"
"30163",,,,,,,,,,,,,,,,,,,,,,,,,,,"https://farm8.staticflickr.com/7300/16255479489_64eefa1911_b.jpg",,"merged",,,"singleA18"
"30164",,,,,,,,,,,,,,,,,,,,,,,,,,,"https://farm8.staticflickr.com/7319/16255817447_16f43d4d6c_b.jpg",,"merged",,,"singleA18"
"30165",,,,,,,,,,,,,,,,,,,,,,,,,,,"https://farm9.staticflickr.com/8683/16255479529_19c638b7a6_b.jpg",,"merged",,,"singleA18"
"30166",,,,,,,,,,,,,,,,,,,,,,,,,,,"https://farm8.staticflickr.com/7342/16415754276_709cdaeb9a_b.jpg",,"merged",,,"singleA18"
"30167",,,,,,,,,,,,,,,,,,,,,,,,,,,"https://farm9.staticflickr.com/8674/16440794952_1451ddc666_b.jpg",,"merged",,,"singleA18"
"30168",,,,,,,,,,,,,,,,,,,,,,,,,,,"https://farm8.staticflickr.com/7460/16254065148_f2a769051e_b.jpg",,"merged",,,"singleA18"
"30169",,,,,,,,,,,,,,,,,,,,,,,,,,,"https://farm8.staticflickr.com/7401/16440795262_7a26a03fa5_b.jpg",,"merged",,,"singleA18"
"30170",,,,,,,,,,,,,,,,,,,,,,,,,,,"https://farm8.staticflickr.com/7402/16440795312_f065a67da9_b.jpg",,"merged",,,"singleA18"
"30171",,,,,,,,,,,,,,,,,,,,,,,,,,,"https://farm8.staticflickr.com/7382/16415754816_2e8364cb0c_b.jpg",,"merged",,,"singleA18"
"30172",,,,,,,,,,,,,,,,,,,,,,,,,,,"https://farm9.staticflickr.com/8589/16415754846_236e22aae4_b.jpg",,"merged",,,"singleA18"
"30173",,,,,,,,,,,,,,,,,,,,,,,,,,,"https://farm8.staticflickr.com/7296/15819216404_1466cac07a_b.jpg",,"merged",,,"singleA18"
"30174",,,,,,,,,,,,,,,,,,,,,,,,,,,"https://farm9.staticflickr.com/8649/16440795532_346230e76b_b.jpg",,"merged",,,"singleA18"
"30175",,,,,,,,,,,,,,,,,,,,,,,,,,,"https://farm8.staticflickr.com/7328/16441733825_f79d5898ea_b.jpg",,"merged",,,"singleA18"
"30176",,,,,,,,,,,,,,,,,,,,,,,,,,,"https://farm9.staticflickr.com/8672/16255818267_e1575beac6_b.jpg",,"merged",,,"singleA18"
"30177",,,,,,,,,,,,,,,,,,,,,,,,,,,"https://farm8.staticflickr.com/7434/16440795702_4f068b87ac_b.jpg",,"merged",,,"singleA18"
"30178",,,,,,,,,,,,,,,,,,,,,,,,,,,"https://farm8.staticflickr.com/7447/16441734025_1647231f9f_b.jpg",,"merged",,,"singleA18"
"30179",,,,,,,,,,,,,,,,,,,,,,,,,,,"https://farm8.staticflickr.com/7345/16255818397_dcb76ec358_b.jpg",,"merged",,,"singleA18"
"30180",,,,,,,,,,,,,,,,,,,,,,,,,,,"https://farm9.staticflickr.com/8590/16254325010_d0818f28e6_b.jpg",,"merged",,,"singleA18"
"30181",,,,,,,,,,,,,,,,,,,,,,,,,,,"https://farm8.staticflickr.com/7454/16441734125_2c394af050_b.jpg",,"merged",,,"singleA18"
"30182",,,,,,,,,,,,,,,,,,,,,,,,,,,"https://farm8.staticflickr.com/7443/16441734235_8911a59719_b.jpg",,"merged",,,"singleA18"
"30183",,,,,,,,,,,,,,,,,,,,,,,,,,,"https://farm8.staticflickr.com/7443/16440796102_fd6ff207e4_b.jpg",,"merged",,,"singleA18"
"30184",,,,,,,,,,,,,,,,,,,,,,,,,,,"https://farm8.staticflickr.com/7361/16439961881_e5db2bab52_b.jpg",,"merged",,,"singleA18"
"30185",,,,,,,,,,,,,,,,,,,,,,,,,,,"https://farm9.staticflickr.com/8567/16255818797_ff2546b542_b.jpg",,"merged",,,"singleA18"
"30186",,,,,,,,,,,,,,,,,,,,,,,,,,,"https://farm8.staticflickr.com/7319/16255818847_bcc25909a6_b.jpg",,"merged",,,"singleA18"
"30187",,,,,,,,,,,,,,,,,,,,,,,,,,,"https://farm9.staticflickr.com/8618/16415755756_8440218bb3_b.jpg",,"merged",,,"singleA18"
"30188",,,,,,,,,,,,,,,,,,,,,,,,,,,"https://farm8.staticflickr.com/7354/16441734455_a6c35ef680_b.jpg",,"merged",,,"singleA18"
"30189",,,,,,,,,,,,,,,,,,,,,,,,,,,"https://farm8.staticflickr.com/7411/15821670663_a6883bd5f0_b.jpg",,"merged",,,"singleA18"
"30190",,,,,,,,,,,,,,,,,,,,,,,,,,,"https://farm9.staticflickr.com/8670/16254325740_5cd5885065_b.jpg",,"merged",,,"singleA18"
"30191",,,,,,,,,,,,,,,,,,,,,,,,,,,"https://farm8.staticflickr.com/7345/16254325700_251990c90a_b.jpg",,"merged",,,"singleA18"
"30192",,,,,,,,,,,,,,,,,,,,,,,,,,,"https://farm9.staticflickr.com/8625/16415755946_a91d8d3b01_b.jpg",,"merged",,,"singleA18"
"30193",,,,,,,,,,,,,,,,,,,,,,,,,,,"https://farm8.staticflickr.com/7332/16254325720_130fd3f092_b.jpg",,"merged",,,"singleA18"
"30194",,,,,,,,,,,,,,,,,,,,,,,,,,,"https://farm9.staticflickr.com/8666/15819217394_9bb0187735_b.jpg",,"merged",,,"singleA18"
"30195",,,,,,,,,,,,,,,,,,,,,,,,,,,"https://farm8.staticflickr.com/7415/16415756026_d920ff943a_b.jpg",,"merged",,,"singleA18"
"30196",,,,,,,,,,,,,,,,,,,,,,,,,,,"https://farm8.staticflickr.com/7433/16415756096_4cfa34dae2_b.jpg",,"merged",,,"singleA18"
"30197",,,,,,,,,,,,,,,,,,,,,,,,,,,"https://farm8.staticflickr.com/7298/16439962471_407c271af0_b.jpg",,"merged",,,"singleA18"
"30198",,,,,,,,,,,,,,,,,,,,,,,,,,,"https://farm9.staticflickr.com/8662/16255819387_bcf600b6b0_b.jpg",,"merged",,,"singleA18"
"30199",,,,,,,,,,,,,,,,,,,,,,,,,,,"https://farm8.staticflickr.com/7354/16415756286_5b8c828d9c_b.jpg",,"merged",,,"singleA18"
"30200",,,,,,,,,,,,,,,,,,,,,,,,,,,"https://farm9.staticflickr.com/8604/16255819617_4428c2feeb_b.jpg",,"merged",,,"singleA18"
"30201",,,,,,,,,,,,,,,,,,,,,,,,,,,"https://farm8.staticflickr.com/7396/16441735165_a18fd28831_b.jpg",,"merged",,,"singleA18"
"30202",,,,,,,,,,,,,,,,,,,,,,,,,,,"https://farm8.staticflickr.com/7345/15819217834_1dc4d428bd_b.jpg",,"merged",,,"singleA18"
"30203",,,,,,,,,,,,,,,,,,,,,,,,,,,"https://farm8.staticflickr.com/7438/16255481769_b00533bedd_b.jpg",,"merged",,,"singleA18"
"30204",,,,,,,,,,,,,,,,,,,,,,,,,,,"https://farm8.staticflickr.com/7297/16254066848_b4708824d0_b.jpg",,"merged",,,"singleA18"
"30205",,,,,,,,,,,,,,,,,,,,,,,,,,,"https://farm8.staticflickr.com/7307/16441735265_5d9bb38ed5_b.jpg",,"merged",,,"singleA18"
"30206",,,,,,,,,,,,,,,,,,,,,,,,,,,"https://farm8.staticflickr.com/7409/16415756446_bbb4a40c76_b.jpg",,"merged",,,"singleA18"
"30207",,,,,,,,,,,,,,,,,,,,,,,,,,,"https://farm8.staticflickr.com/7351/16255481859_853febbdf0_b.jpg",,"merged",,,"singleA18"
"30208",,,,,,,,,,,,,,,,,,,,,,,,,,,"https://farm9.staticflickr.com/8673/16415756486_210b9ba92e_b.jpg",,"merged",,,"singleA18"
"30209",,,,,,,,,,,,,,,,,,,,,,,,,,,"https://farm8.staticflickr.com/7427/16439962951_2757755371_b.jpg",,"merged",,,"singleA18"
"30210",,,,,,,,,,,,,,,,,,,,,,,,,,,"https://farm8.staticflickr.com/7301/16255819797_dc698bf1d7_b.jpg",,"merged",,,"singleA18"
"30211",,,,,,,,,,,,,,,,,,,,,,,,,,,"https://farm8.staticflickr.com/7287/16415756576_4ca99748cb_b.jpg",,"merged",,,"singleA18"
"30212",,,,,,,,,,,,,,,,,,,,,,,,,,,"https://farm9.staticflickr.com/8624/16255481999_98da5babb6_b.jpg",,"merged",,,"singleA18"
"30213",,,,,,,,,,,,,,,,,,,,,,,,,,,"https://farm9.staticflickr.com/8635/16441735595_a03bf2c26a_b.jpg",,"merged",,,"singleA18"
"30214",,,,,,,,,,,,,,,,,,,,,,,,,,,"https://farm8.staticflickr.com/7343/16254067388_f28649cb5a_b.jpg",,"merged",,,"singleA18"
"30215",,,,,,,,,,,,,,,,,,,,,,,,,,,"https://farm9.staticflickr.com/8595/16254326630_1d0762e8fe_b.jpg",,"merged",,,"singleA18"
"30216",,,,,,,,,,,,,,,,,,,,,,,,,,,"https://farm9.staticflickr.com/8627/16255820207_c59ef9f8db_b.jpg",,"merged",,,"singleA18"
"30217",,,,,,,,,,,,,,,,,,,,,,,,,,,"https://farm8.staticflickr.com/7323/16439963241_6707894c7e_b.jpg",,"merged",,,"singleA18"
"30218",,,,,,,,,,,,,,,,,,,,,,,,,,,"https://farm9.staticflickr.com/8600/16440797572_475ff468c6_b.jpg",,"merged",,,"singleA18"
"30219",,,,,,,,,,,,,,,,,,,,,,,,,,,"https://farm9.staticflickr.com/8606/16255820357_f8884fd728_b.jpg",,"merged",,,"singleA18"
"30220",,,,,,,,,,,,,,,,,,,,,,,,,,,"https://farm8.staticflickr.com/7296/16255820427_7a842970d1_b.jpg",,"merged",,,"singleA18"
"30221",,,,,,,,,,,,,,,,,,,,,,,,,,,"https://farm9.staticflickr.com/8649/16255482419_85e03047a3_b.jpg",,"merged",,,"singleA18"
"30222",,,,,,,,,,,,,,,,,,,,,,,,,,,"https://farm8.staticflickr.com/7457/16440797742_22af9f7b2e_b.jpg",,"merged",,,"singleA18"
"30223",,,,,,,,,,,,,,,,,,,,,,,,,,,"https://farm9.staticflickr.com/8571/16440797762_de38e05b30_b.jpg",,"merged",,,"singleA18"
"30224",,,,,,,,,,,,,,,,,,,,,,,,,,,"https://farm8.staticflickr.com/7355/15821672373_85d42e9b79_b.jpg",,"merged",,,"singleA18"
"30225",,,,,,,,,,,,,,,,,,,,,,,,,,,"https://farm8.staticflickr.com/7296/16439963641_c1e2494763_b.jpg",,"merged",,,"singleA18"
"30226",,,,,,,,,,,,,,,,,,,,,,,,,,,"https://farm8.staticflickr.com/7416/16255820707_6f969b07d0_b.jpg",,"merged",,,"singleA18"
"30227",,,,,,,,,,,,,,,,,,,,,,,,,,,"https://farm9.staticflickr.com/8662/16439963721_df08aab211_b.jpg",,"merged",,,"singleA18"
"30228",,,,,,,,,,,,,,,,,,,,,,,,,,,"https://farm9.staticflickr.com/8675/16440798142_afde985796_b.jpg",,"merged",,,"singleA18"
"30229",,,,,,,,,,,,,,,,,,,,,,,,,,,"https://farm8.staticflickr.com/7305/15819219134_d4b366493f_b.jpg",,"merged",,,"singleA18"
"30230",,,,,,,,,,,,,,,,,,,,,,,,,,,"https://farm8.staticflickr.com/7373/16441736345_5cbfd6bf1c_b.jpg",,"merged",,,"singleA18"
"30231",,,,,,,,,,,,,,,,,,,,,,,,,,,"https://farm9.staticflickr.com/8589/16254068118_40be3d7466_b.jpg",,"merged",,,"singleA18"
"30232",,,,,,,,,,,,,,,,,,,,,,,,,,,"https://farm8.staticflickr.com/7290/15819219234_466b61cbe7_b.jpg",,"merged",,,"singleA18"
"30233",,,,,,,,,,,,,,,,,,,,,,,,,,,"https://farm9.staticflickr.com/8575/16254327430_ae44a541f3_b.jpg",,"merged",,,"singleA18"
"30234",,,,,,,,,,,,,,,,,,,,,,,,,,,"https://farm8.staticflickr.com/7413/16254068258_3b78c3ff08_b.jpg",,"merged",,,"singleA18"
"30235",,,,,,,,,,,,,,,,,,,,,,,,,,,"https://farm9.staticflickr.com/8653/16254068338_1d150ffd1e_b.jpg",,"merged",,,"singleA18"
"30236",,,,,,,,,,,,,,,,,,,,,,,,,,,"https://farm9.staticflickr.com/8617/16415757636_654e0c427a_b.jpg",,"merged",,,"singleA18"
"30237",,,,,,,,,,,,,,,,,,,,,,,,,,,"https://farm9.staticflickr.com/8631/16254327590_756b27b18f_b.jpg",,"merged",,,"singleA18"
"30238",,,,,,,,,,,,,,,,,,,,,,,,,,,"https://farm8.staticflickr.com/7287/15819219484_0a0607771e_b.jpg",,"merged",,,"singleA18"
"30239",,,,,,,,,,,,,,,,,,,,,,,,,,,"https://farm8.staticflickr.com/7429/15819219654_d22c67651c_b.jpg",,"merged",,,"singleA18"
"30240",,,,,,,,,,,,,,,,,,,,,,,,,,,"https://farm8.staticflickr.com/7366/16254327740_ae8dac1691_b.jpg",,"merged",,,"singleA18"
"30241",,,,,,,,,,,,,,,,,,,,,,,,,,,"https://farm8.staticflickr.com/7414/16254327750_8022417b74_b.jpg",,"merged",,,"singleA18"
"30242",,,,,,,,,,,,,,,,,,,,,,,,,,,"https://farm8.staticflickr.com/7306/16440798692_2f9acca97f_b.jpg",,"merged",,,"singleA18"
"30243",,,,,,,,,,,,,,,,,,,,,,,,,,,"https://farm9.staticflickr.com/8661/16441737025_4eb7774880_b.jpg",,"merged",,,"singleA18"
"30244",,,,,,,,,,,,,,,,,,,,,,,,,,,"https://farm8.staticflickr.com/7312/16255821467_c5070efe82_b.jpg",,"merged",,,"singleA18"
"30245",,,,,,,,,,,,,,,,,,,,,,,,,,,"https://farm8.staticflickr.com/7332/16415758146_be2072a77a_b.jpg",,"merged",,,"singleA18"
"30246",,,,,,,,,,,,,,,,,,,,,,,,,,,"https://farm8.staticflickr.com/7393/16415758176_406a8846ea_b.jpg",,"merged",,,"singleA18"
"30247",,,,,,,,,,,,,,,,,,,,,,,,,,,"https://farm8.staticflickr.com/7444/16415758196_5f6eb14f01_b.jpg",,"merged",,,"singleA18"
"30248",,,,,,,,,,,,,,,,,,,,,,,,,,,"https://farm9.staticflickr.com/8592/16439964741_a23e002164_b.jpg",,"merged",,,"singleA18"
