"taskID","userID","objectType","rightCorner","collection","site","toSearch","Lat","Lon","gridRef","dateDiscoveryDay","dateDiscoveryMonth","dateDiscoveryYear","length","width","edge","weight","patina","surface","thickness","other","composition","associations","description","publications","remarks","inputBy","imageURL","flickrURL","Processing","lon","lat","project"
"50037","433","Leaf shaped sword","IVa","Museum of the Royal Institution, Swansea,25","Wales,Glamorganshire","Glamorganshire Canal, Cardiff, Cardiff, Cardiff CF14, UK","51.5201498","-3.241842399999996","","None","None","None","602","blade 44.5; hilt 47, 33","","652.05","","","blade 6","","","","","Arch. Journal, 1846, p. 67 illud. says ""discovered in Glamorganshire"",Camdens Brittania, Vol. III, plate 34","","Joellen mcGann","https://www.flickr.com/photos/115096994@N02/22522745233","https://farm1.staticflickr.com/632/22522745233_af7d46a1cd_m.jpg","superuser",-3.2418,51.5201,"SwordsPt2"
"50038","580","Socketed Sword","IVd","British Museum,78 11 1 206,presented by Maj. Gen. Meyrick, 1878,formerly in Meyrick Collection.","Wales,Glamorganshire,Llansannor (2 miles N. of Cowbridge).,""NewForest"" (New Forest is now represented by 'New Forest House' & Mynydd y Forest)","Llansannor, Cowbridge, Vale of Glamorgan CF71, Royaume-Uni","51.488487","-3.44829100000004","","None","None","None","368","hilt 43; 22,blade 29","","354.37","dark green","smooth","hilt 16; blade 6","","","","double grooved blade. Top of socket broken off. 2 rivets hiles, bottom one on front, broken.","Evan's p.205,""Meyrick's"" Anc. Armour"" pl. XLVII, fig. 11.,""Prehist. & Roman Wales"", p. 160, fig. 51, ii,Arch. Ael. 4 Ser. XI (1935) p. 280, pl. XXVII, 3,P.P.S. XIII (1947) p.175","Inacc.","Denis Antoine","https://www.flickr.com/photos/115096994@N02/22522744853","https://farm1.staticflickr.com/750/22522744853_ee2e1d4f87_m.jpg","superuser",-3.4483,51.4885,"SwordsPt2"
"50039","580","2 Sword Fragments","Frags.","National Museum of Wales. 15.277/3,donor Miss Emily Talbot","Wales,Glamorgan,Penard,Langrove","Langrove, Southgate, Swansea, Swansea SA3, Royaume-Uni","51.5902699","-4.07338900000002","","None","None","None","about 329","29; 31; 30; 16.5","","240.97","darkish green polished patina & a few spots of light green corrosion & some a rusty green colour.","smooth","5","","","One of a hoard.","The bevel on the edges is very slight. the point end is rather bent & the widest part of the other piece is slightly bent.","","","Denis Antoine","https://www.flickr.com/photos/115096994@N02/22725579358","https://farm1.staticflickr.com/691/22725579358_c801b8f3ec_m.jpg","superuser",-4.0734,51.5903,"SwordsPt2"
"50040","580","2 Leaf shaped Sword Fragments","C","National Museum of Wales. 15.277/4,donor Miss Emily Talbot","Wales,Glamorgan,Penard,Langrove","Langrove, Southgate, Swansea, Swansea SA3, Royaume-Uni","51.5902699","-4.07338900000002","","None","None","None","144; 139","hilt 20; 46,blade 33; 42.5","","141.75; 120.9","medium green polished patina","smooth, slightly pitted all over, with a little earth corroded on.","blade 7.25; 7.5","","","One of a hoard.","","","","Denis Antoine","https://www.flickr.com/photos/115096994@N02/22522744333","https://farm6.staticflickr.com/5748/22522744333_aa542f2a50_m.jpg","superuser",-4.0734,51.5903,"SwordsPt2"
"50041","580","Sword Fragment","C","National Museum of Wales. 15.277/5,donor Miss Emily Talbot","Wales,Glamorgan,Penard,Langrove","Langrove, Southgate, Swansea, Swansea SA3, Royaume-Uni","51.5902699","-4.07338900000002","","None","None","None","126","blade 32,hilt 42; 25","","120","polished emerald green patina but a lot of this is lost through 'pitting' all over the surface.","smooth but pitted.","blade 6.5","","","One of a hoard.","The bevel on the edges is very slight.","","","Denis Antoine","https://www.flickr.com/photos/115096994@N02/22522744033","https://farm6.staticflickr.com/5635/22522744033_b52fb89cef_m.jpg","superuser",-4.0734,51.5903,"SwordsPt2"
"50042","580","Leaf shaped Sword","IVa","National Museum of Wales, Cardiff.,01.115","Wales,Glamorgan,Penarth","Penarth, Vale of Glamorgan, Royaume-Uni","51.438798","-3.1735069999999723","","None","None","None","71","blade 30; hilt plate 48","","","dead green","smooth, gone in parts at base.","7","","","Found with a socketed celt & a jet of scrap bronze.","In fair condition.","","","Denis Antoine","https://www.flickr.com/photos/115096994@N02/23155534781","https://farm6.staticflickr.com/5667/23155534781_8f4d442c26_m.jpg","superuser",-3.1735,51.4388,"SwordsPt2"
"50043","580","Leaf-shaped Bronze Sword","IVa","Privately owned,The Duke of Buccleuch.,Boughton Estates Ltd, Tytup Hall, Dalton-in-Furness, Lancs.","Lancashire,Dalton-in-Furness,Butts Back Quarry,Cist containing human bones, bones of a horse (?), bronze leaf-shaped sword and leaf-shaped spearhead. Found April 1874. Destroyed by quarrying.","Butts Beck, Dalton-in-Furness, Cumbria LA15 8EP, Royaume-Uni","54.1615609","-3.1770989999999983","","None","4","1874","62.5475","4.28625 (greatest width of blade)","","708.738","","","0.635 at widest part of blade","Length: 24 5/8 in,Width: 1 11/16 in,Thickness: 1/4 in,Weight 1 lb 9 oz","","Bronze leaf-shaped spear-head, human bones and bones of a horse (?) in a cist.","The sword was broken when straightening it at the time of discovery. A wooden plate with two rivets has been attached to fix it together. There are two rivet holes each side of the V shaped shoulder (two rivets still in position) and 2 in the hilt with what appears to be the start of a third between them. The hilt is not flanged. The edge of the point is somewhat damaged. Mainly in good condition with a few spots of bronze disease.","See Transactions Cumb. & West [...]. and Arch. Soc. (O.S.) XV, 164-5; also (N.S) LXV, 47-52,Proc. Barrow Naturalists Field Club. vol. XVII, p. 213.","Compiler Clare [...] 16. 1. 62.,The bones were thrown away before being properly examined,,Approw. map reference 34/232747.","Denis Antoine","https://www.flickr.com/photos/115096994@N02/22725478107","https://farm1.staticflickr.com/717/22725478107_15ba1ee4e7_m.jpg","superuser",-3.1771,54.1616,"SwordsPt2"
"50044","580","Sword,Type B,hilt fragment","IIb","Mr. Hugh P. Hornby, St. Michael-on-Wyre & Mr. W.J. Miller (landlord of farm), Birmingham.","Lancs,near Garstang,Copsthorpe Farm,near Cogie Hill, Winmarleigh, 1917.","Winmarleigh, Preston, Lancashire PR3, Royaume-Uni","53.925171","-2.808300000000031","","None","None","1917","70","3.8 max.","","","","","","","","","Six circular rivet holes down centre of hilt, & three in each wing; 5 rivets in position, strong flanges.","Part figd. in Antiq. Journ. XIV, 179.,[...] Lancs & Cheschire Antiq. Soc. XXXVI, 104.","","Denis Antoine","https://www.flickr.com/photos/115096994@N02/22823784230","https://farm6.staticflickr.com/5788/22823784230_5887251c0b_m.jpg","superuser",-2.8083,53.9252,"SwordsPt2"
"50045","580","Leaf shaped Sword (portion),Shoulder fragment","IVa","Leicester Museum.,lent by Mrs. Hocart.","England,Leicestershire,Welby,Probably from Gravel Hole Field, found by a farmer digging for gravel.,1895","Welby, Melton Mowbray, Leicestershire LE14, Royaume-Uni","52.7827388","-0.9110425000000077","","None","None","1895","133","hilt plate 43","","","some green patina on blade, the rest of blade is golden brown. Handle has little golden brown; part is worn off or cleaned off.","","","","","","This had 3 rivets at each side the 3rd. rivet is broken) & belongs to the upper portioni, nearest the handle, which with the guard, was in one piece in this this type & quite plain.","","The hoard was taken to a foundry in Melton Mowbray whence a part was rescued by W.S. Barnes, Mrs.Hocart was his daughter.","Denis Antoine","https://www.flickr.com/photos/115096994@N02/23155533981","https://farm6.staticflickr.com/5646/23155533981_708f16374d_m.jpg","superuser",-0.911,52.7827,"SwordsPt2"
"50046","580","Leaf shaped Sword","VI","City & County Museum, Lincoln.,for many years this specimen was at the Municipal Technical School, but was transferred to the Museum in May 1909.,Ref. No. 291.09.,45","England,Lincolnshier,Billinghay,1852.","Billinghay, Lincoln, Lincolnshire LN4, Royaume-Uni","53.080883","-0.2811110000000099","","None","None","1852","490","hilt 61; blade 39","","680","green patina badly corroded","","8","","","","Point & hilt are missing & the edge are corroded away","Trollope's ""Sleaford"" p. 29.,Evans ""Bronze Implements""","","Denis Antoine","https://www.flickr.com/photos/115096994@N02/23129978482","https://farm1.staticflickr.com/639/23129978482_afe098e22f_m.jpg","superuser",-0.2811,53.0809,"SwordsPt2"
"50047","580","Leaf shaped Sword","VI","City & County Museum, Lincoln.,for many years this specimen was at the Municipal Technical School, but was transferred to the Museum in May 1909.,Ref. No. 290.09.,44.","England,Lincolnshire,Billinghay,1852","Billinghay, Lincoln, Lincolnshire LN4, Royaume-Uni","53.080883","-0.2811110000000099","","None","None","1852","618","hilt 57; blade 42","","808","dark green","","8","","","","Point is broken off.","Trollope's ""Sleaford"" p. 29.,Evans ""Bronze implements"".","","Denis Antoine","https://www.flickr.com/photos/115096994@N02/23129978122","https://farm1.staticflickr.com/743/23129978122_803da4c5fd_m.jpg","superuser",-0.2811,53.0809,"SwordsPt2"
"50048","580","Fragment of Leaf shaped Sword (shoulder frag.)","IVa,? Hoard","Wollaton Hall Nat. Hist. Mus., Notts.","England,Lincolnshire,Caythorpe Ironstone Mines,found below surface soil.","Caythorpe, Grantham, Lincolnshire NG32, Royaume-Uni","53.021631","-0.604581899999971","","None","None","None","169","blade 28,hilt 46; 20","","205","","unpolished, thickly covered with verdigris","","","","","","","","Denis Antoine","https://www.flickr.com/photos/115096994@N02/22725476797","https://farm6.staticflickr.com/5811/22725476797_7bca4acfc7_m.jpg","superuser",-0.6046,53.0216,"SwordsPt2"
"50049","433","Sword","","Unknown","England,Lincolnshire,Flixborough,Found in deep ploughing","Flixborough, Scunthorpe, North Lincolnshire DN15, UK","53.625194","-0.685023000000001","","None","None","None","","","","","","","","","","7 Palstaves; 1 Spearhead; 1 Spearhead Fragment","Broken into 4 fragments (point missing).","Arch. Journ. XXIX 194-5; XC 140-1: XCI 167.,Evans, p. 465; List III: No. 39","Exhibited to Arch. Institute in 1872; since disappeared.","Joellen mcGann","https://www.flickr.com/photos/115096994@N02/22725576948","https://farm1.staticflickr.com/685/22725576948_0be5995366_m.jpg","superuser",-0.685,53.6252,"SwordsPt2"
"50050","433","Sword (shoulder frag.)","Fragment; Drawing 1:3","Lincoln 79.52","Lincolnshire,Kinkstead,nr. K. Hall; 53 1962,Found 1952","Lincolnshire, UK","52.9451889","-0.16012460000001738","","None","None","1952","139.7","","","","","","","Length: 5 1/2"" = 139.7mm","","","4 rivet holes visible in Hanged hilt. The blade has a notched ricasso and rounded mid rib.","Lincs. Arch. + Arch. Soc. Rpts. (T, Pr 2, N.S. 77),1953-54 N Series 5, p. 77","Found 1952 by J.H. Wilson,Needs 1/1 Drawing!","Joellen mcGann","https://www.flickr.com/photos/115096994@N02/23129977372","https://farm6.staticflickr.com/5813/23129977372_d82ae403c0_m.jpg","superuser",-0.1601,52.9452,"SwordsPt2"
"50051","433","Leaf Shaped Sword","IVa,Ref.113 08 42","City + County Museum, Lincoln,Pres. by C.A. Kirkby, Esq.,Jany 1908","England,Lincolnshire,Opposite Monks Leys,River Witham (dredged from)","River Witham, Lincolnshire, UK","53.02616279999999","-0.11055110000006607","","None","None","None","560","hilt 49, 43; blade 37","","637","","The sword has been cleaned of patina + is quite bright. Pitted all over.","8","","","found with another sword Ref. No. 114.08.43","Tip broken off.","","","Joellen mcGann","https://www.flickr.com/photos/115096994@N02/23129977162","https://farm1.staticflickr.com/596/23129977162_5c5feb4cc4_m.jpg","superuser",-0.1106,53.0262,"SwordsPt2"
"50052","433","3 Fragments of Sword","IVd","Scunthorpe Museum,Group No. 66, a, b, & c,(Donor: Late Sir Berkeley Sheffield)","Lincolnshire,Normanby Estate","Flixborough, Scunthorpe, North Lincolnshire DN15, UK","53.625194","-0.685023000000001","","None","None","None","(Combined) 255mm; (Separately) 86mm, 78mm, & 87mm","35","","","","","","","","With B.67, may be part of the Flixborough Hoard recorded in Archaeological Journal, 1872, vol. xxix, p. 194, but for which no definite information was available when given to the Museum. Flixborough is on the Normanby Estate.","What remains of the hilt is hollow and it was cast with the blade.","H.E. Dudley ""Early Days in N.W. Lincolnshire"", p. 92, fig. 33, No. 17","Evelyn Vigeon","Joellen mcGann","https://www.flickr.com/photos/115096994@N02/22521243554","https://farm1.staticflickr.com/689/22521243554_07039a108e_m.jpg","superuser",-0.685,53.6252,"SwordsPt2"
"50053","433","Sword (Antennae)","Cast Bronze Hilt","Alnwick Castle, No. 235","England,Lincolnshire,Witham","Witham on the Hill, Bourne, Lincolnshire PE10, UK","52.73598399999999","-0.44095100000004095","","None","None","None","705","41","","893","Bronze","Smooth","9","","","","","","","Joellen mcGann","https://www.flickr.com/photos/115096994@N02/22522741223","https://farm1.staticflickr.com/715/22522741223_e78f2276c7_m.jpg","superuser",-0.441,52.736,"SwordsPt2"
"50054","433","Sword","IIIc","Miss. D.J. Alder,Culver Cottage,Much Hadham,Herts.,Lincoln Museum 10.54","England,Lincolnshire,Worlaby,(Between Louth + Horncastle),Found in a stream about 1865,Acquired from the finder by Miss Alder's father.","Worlaby, Brigg, North Lincolnshire DN20, UK","53.611477","-0.46596599999998034","","None","None","1865","520 (in sketch 560mm)","36","","","","On the blade an area of high polish on the middle line of the round just below the hilt + stretching downwards for nearly three inches, growing narrower as it goes.","","","","","The hilt has been broken across anciently + reduced to little more than half its probably original length.  Blade slightly bent. Two semicircular slots for rivets + two small holes.","Proc. Soc. Ant. VIII, 368,About to be published,Ant. Journ. July 1939","A local importance in Lincolnshire, as it is nearly the only object belonging to the Late Bronze Age found well inside Wold region.","Joellen mcGann","https://www.flickr.com/photos/115096994@N02/22725575528","https://farm6.staticflickr.com/5662/22725575528_a51deb5d36_m.jpg","superuser",-0.466,53.6115,"SwordsPt2"
"50055","433","Leaf Shaped Swird","IVa","Bishop Collection, The University, Glasgow, B103","Scotland,Edinburgh,Edinburgh,Craigberth Quarry","Edinburgh, Edinburgh, UK","55.953252","-3.188266999999996","","None","None","None","567","blade 46; hilt plate 47","","754","green patina","enrusted more on one side","","","","","","","","Joellen mcGann","https://www.flickr.com/photos/115096994@N02/22725575318","https://farm6.staticflickr.com/5757/22725575318_8640a189aa_m.jpg","superuser",-3.1883,55.9533,"SwordsPt2"
"50056","433","Sword","","Private (1997) - Roberts, R.","England,Norfolk,Bradenham,Found by Reg. Roberts whilst searching with a metal detector in October 1997.","Bradenham, Thetford, Norfolk IP25, UK","52.63997999999999","0.8440299999999752","TF 909 098","None","10","1997","","","","","","","","","","Single Find","Typology: sword hilt fragment","","","Joellen mcGann","https://www.flickr.com/photos/115096994@N02/22521242184","https://farm6.staticflickr.com/5751/22521242184_7d3d791566_m.jpg","superuser",0.844,52.64,"SwordsPt2"
"50057","433","Sword Fragment","","Norwich Castle Museum,108.954 (50)","Eaton (Norwich, Norfolk),Hoard found 6 ft. deep in digging foundations for new buildings in 1884. Exact site unknown.","Eaton, Norwich, Norwich, Norfolk NR2, UK","52.62126","1.271429000000012","","None","None","1884","surviving 124","49","","","","","","","","Part of hoard.","","Proc. Soc. Ant. Lond., 2nd ser. XI (1885) 42-52.,Bronze Age Metalwork in Norwich Castle Museum (1966) 28 and fig. 71.","Treated 1968-69","Joellen mcGann","https://www.flickr.com/photos/115096994@N02/22521242344","https://farm1.staticflickr.com/700/22521242344_d1d2988eaf_m.jpg","superuser",1.2714,52.6213,"SwordsPt2"
"50058","433","Sword","IIIc","Museum of Arch. + Ethnology, Cambridge,Dep. 29.25","England,Norfolk,Hockwold,Wilton,dredged from R. Ouse","Hockwold cum Wilton, Norfolk, UK","52.464547","0.5421519999999873","","None","None","None","","","","","","","","","","","","","","Joellen mcGann","https://www.flickr.com/photos/115096994@N02/22823780890","https://farm6.staticflickr.com/5733/22823780890_02563e2814_m.jpg","superuser",0.5422,52.4645,"SwordsPt2"
"50059","433","Sword","Rexheim Vart","Formerly in possession of Plumber, Methwold,1926,Now, Cambridge, Mus. of Arch. + Eth.,No. 83-505","England,Norfolk,Methwold,Hythe-in-Fen,found when digging a post hole,1882 (or about)","The Hythe, Constable Pl, Methwold Hythe, Thetford, Norfolk IP26 4QL, UK","52.52429249999999","0.5221103999999741","","None","None","1882","411","32, 34","","567","Dull brown","","6.5","","","","Sharp edges","","cf. ? Dach. Man II, 1, 203, fig. 12,5","Joellen mcGann","https://www.flickr.com/photos/115096994@N02/22823780510","https://farm6.staticflickr.com/5749/22823780510_25b852e0ec_m.jpg","superuser",0.5221,52.5243,"SwordsPt2"
"50060","433","Sword","Rixheim Var.","Museum of Archaeology + Ethnology, Cambridge,33.505","England,Norfolk,Methwold","Methwold, Thetford, Norfolk IP26, UK","52.52525800000001","0.5543780000000424","","None","None","None","406.4","","","","","","","Length: 16 ins = 406.4 mm","","","Hilt broken off; incised lines each side of central ridge on blade.","","","Joellen mcGann","https://www.flickr.com/photos/115096994@N02/23129974852","https://farm6.staticflickr.com/5735/23129974852_3de6041185_m.jpg","superuser",0.5544,52.5253,"SwordsPt2"
"50061","433","Sword","IIIa","Museum of Arch. + Ethnology, Cambridge,25.884","England,Norfolk,Southery,Sedge Fen,1852","Southery, Norfolk, UK","52.52802","0.39143000000001393","","None","None","1852","","","","","","","","","","","","","","Joellen mcGann","https://www.flickr.com/photos/115096994@N02/22521241514","https://farm1.staticflickr.com/765/22521241514_cc755fef98_m.jpg","superuser",0.3914,52.528,"SwordsPt2"
"50062","433","Sword","IVa","Ashmolean Museum, Oxford,Evans Collection, 1927.2446","England,Norfolk,Stoke Ferry","Stoke Ferry, King's Lynn, Norfolk PE33, UK","52.568723","0.5139159999999947","","None","None","None","546","50","","608.17","","","9","","","Hoard, Nos. 2444-2450, comprising 2 broken leaf-swords. 3 large spearheads, 1 chafe, 1 habbard.","Broken into pieces. Notched at base of blade. 4 rivet holes in straight shoulders + ?3 in tang. ""Appears to have been a defective casting, + to have dented a portion of its hilt plate. This has been subsequently supplied by a 2nd hilt plate having been cast over the broken cut of the original plate, a hole in which has stopped with a rivet which has been partly covered over by the 2nd casting (Evans, A.B.I.,p. 282).","Evans, Anc. Br. Imps., Hoard No. 22, pp. 282, etc.,Proc. Soc. Anthrop. V, 425","","Joellen mcGann","https://www.flickr.com/photos/115096994@N02/23155529951","https://farm1.staticflickr.com/708/23155529951_f39d7dfa78_m.jpg","superuser",0.5139,52.5687,"SwordsPt2"
"50063","433","Sword","IVa","Ashmolean Museum, Oxford,Evans Collection, 1927-2445","England,Norfolk,Stoke Ferry","Stoke Ferry, King's Lynn, Norfolk PE33, UK","52.568723","0.5139159999999947","","None","None","None","550","51","","570.62","Brown patina","","7","","","Hoard, Nos. 2444-2550, comprising 2 leaf swords, 3 spear-heads, Class V B; 1 chape, 1 halbard.","Broken in 3 pieces; point missing. Notched at base of blade. 7 rivet holes, 4 in straight shoulders, 3 in tang (central one not pierced).","Evans, Anc. Br. Imps., Hoard No. 22, pp 270, 282, 305, 314, 465.,Proc. Soc. Antiq. V, 425","","Joellen mcGann","https://www.flickr.com/photos/115096994@N02/22522738273","https://farm6.staticflickr.com/5672/22522738273_0e1e11cb27_m.jpg","superuser",0.5139,52.5687,"SwordsPt2"
"50064","433","Sword (Hilt frag)","IVa;Hilt of Sword","Norwich Castle Museum 87.964 (1),ex. L Winters, 8 The Green, South Creake","Norfolk,Waterden,(South Castle),c. 1952","Waterden, Walsingham, Norfolk NR22, UK","52.884832","0.7996339999999691","TF/88763549","None","None","1952","205.5","hilt 52.5","","214","Green","Pitted","6.5","","","Part of hoard of 3 swords, 2 spearheads + fragment of socke sword fragment do not join.","","","Finder reported that the hoard was in a round container which disintegrated on removal. When reported (1964) finder thought container was of pottery but could not be sure.,Barbara Green","Joellen mcGann","https://www.flickr.com/photos/115096994@N02/22522737833","https://farm1.staticflickr.com/756/22522737833_e0bd6a80ab_m.jpg","superuser",0.7996,52.8848,"SwordsPt2"
"50065","433","Sword (Shoulder frag.)","IV a; Hilt of Sword","Norwich Castle Museum, 87.964 (2),ex. L . Winters, 8 The Green, South Creake","England,Norfolk,Waterden,(South Creake),c. 1952,Ploughed up","South Creake, Fakenham, Norfolk NR21, UK","52.88626199999999","0.7633170000000291","TF/88763549","None","None","1952","156","56 mm hilt","","231","Green","Pitted","9","","","Part of a hoard of 3 swords, 2 spearheads + fragments of socket. Sword fragments do not join.","","","Finder reported that hoard was in round container which disintegrated on removal. When reported (1964) finder thought container was of pottery but could not be sure.,Barbara Green","Joellen mcGann","https://www.flickr.com/photos/115096994@N02/22725572758","https://farm6.staticflickr.com/5708/22725572758_549e8fa7a1_m.jpg","superuser",0.7633,52.8863,"SwordsPt2"
"50066","433","Sword (Shoulder Frag)","IVa; Hilt of Sword)","Norwich Castle Museum 87.964 (3),ex. L Winders, 8 The Green, South Creake","Norfolk,Waterden (South Creake),c. 1952,Ploughed up","South Creake, Fakenham, Norfolk NR21, UK","52.88626199999999","0.7633170000000291","TF/88763549","None","None","1952","149.5","51 (hilt)","","189","Green","Pitted","8","","","Part of hoard of 3 swords, 2 spearheads + fragment of socket. Sword fragments do not join.","","","Finder reported that hoard was in a round container which disintegrated on removal. When reported (1964) finder thought container was pottery but could not be sure.,Barbara Green","Joellen mcGann","https://www.flickr.com/photos/115096994@N02/23155528971","https://farm1.staticflickr.com/735/23155528971_398efb11d3_m.jpg","superuser",0.7633,52.8863,"SwordsPt2"
"50067","433","Leaf Shaped Sword","IId","Northampton Central Museum,U.M. R. case No. 6A; 174","England,Northamptonshire,Brixworth,Wolfage,""Dug up from land belonging to an old Manor called Wolfage"",c. 1846","Brixworth, Northampton, Northamptonshire NN6, UK","52.33072","-0.905283000000054","","None","None","1846","","","","626.35","light green, ochre patches","Smooth","","","","","Good condition","Evans, A. B. Imps. 285,Arch. Assoc. Jour. ii, 356,UCH Northants, I. 143","","Joellen mcGann","https://www.flickr.com/photos/115096994@N02/22521239924","https://farm6.staticflickr.com/5742/22521239924_eebc56da6a_m.jpg","superuser",-0.9053,52.3307,"SwordsPt2"
"50068","433","Sword","IVa","Black Gate Museum, Newcastle on Tyne,1932.21,On loan from Mr. G. H. Allgood of Nunwick, 1932","England,Northumberland,Brandon,Brandon Hill,1857","Brandon, Alnwick, Northumberland NE66, UK","55.4480219","-1.935621699999956","","None","None","1857","593","","","690","Smooth dark green patina.","heavily pitted on one face","","","","One of a small hoard of three, of which one was destroyed, while the third cannot now be traced.","Point broken off. Lines marking the lower edge of the hilt plate are still to be seen on each face.","Hist. Beris Nat. Field Club, XI (1885-6), 283-4, x fig.,Proc. Soc. Ant. Newcastle, 4, V, 254,Evans, 234, reported incorrectly as ""Branton""","","Joellen mcGann","https://www.flickr.com/photos/115096994@N02/23155528341","https://farm1.staticflickr.com/567/23155528341_800ac06206_m.jpg","superuser",-1.9356,55.448,"SwordsPt2"
"50069","433","Sword","IVa","Alnwick Caslte, No. 228","England,Northumberland,Chatton,Armorside Law Farm,1834","Chatton, Alnwick, Northumberland NE66, UK","55.547141","-1.9150099999999384","","None","None","1834","548","48","","680","Brown patina","Smooth","6","","","","","","","Joellen mcGann","https://www.flickr.com/photos/115096994@N02/22725571758","https://farm1.staticflickr.com/588/22725571758_8dd15cd146_m.jpg","superuser",-1.915,55.5471,"SwordsPt2"
"50070","433","Sword + Pommel","IVa","Alnwick Castle, No. 230","England,Northumberland,Simonside,Tosson Hill,1868","Tosson Hill, Morpeth, Northumberland NE65, UK","55.27836110000001","-1.9939722000000302","","None","None","1868","423 + 88","32; dia. of pommel 46","","502.85; of pommel 91.9","Dark brown patina green marks","Slightly corroded.","6","","Composition of pommel lead","With blade of sword (no. 231) + beneath a horizontal stone under the swords three rings (in this Collection) + a knife, & a piece of bone.","Sword broken into two pieces.","Berwicks Naturalist Club, Vol. XIII, p. 176","","Joellen mcGann","https://www.flickr.com/photos/115096994@N02/23129971972","https://farm1.staticflickr.com/655/23129971972_8a9652eb9c_m.jpg","superuser",-1.994,55.2784,"SwordsPt2"
"50071","433","Sword (2 joining pieces)","IVa","Newcastle-upon-Tyne,Black Gate Museum, No. 85,483","England,Northumberland,Rothbury,Cragside","Cragside, Morpeth, Northumberland NE65, UK","55.30853399999999","-1.8916110000000117","","None","None","None","591","37","","upper portion only 508.7","Green patina","Rough","","","Bronze","","5 rivet holes, one broken away. The sword is in two pieces.","Proc. Soc. Ant. N/C, New Ser. Vol. III, page 408","","Joellen mcGann","https://www.flickr.com/photos/115096994@N02/22751669919","https://farm1.staticflickr.com/713/22751669919_752248d958_m.jpg","superuser",-1.8916,55.3085,"SwordsPt2"
"50072","433","Sword","IVa","Newcastle-upon-Tyne,Black Gate Museum, No. 89","England,Northumberland,Wittingham","Whittingham, Alnwick, Northumberland NE66, UK","55.402096","-1.8913479999999936","","None","None","None","579","43; 33","","528","","","","","Bronze","Part of Wittingham hoard","","See No. 90","","Joellen mcGann","https://www.flickr.com/photos/115096994@N02/22522735603","https://farm6.staticflickr.com/5741/22522735603_1561a25cc5_m.jpg","superuser",-1.8913,55.4021,"SwordsPt2"
"50073","433","Sword","IVa","Newcastle-upon-Tyne,Black Gate Museum, No. 17","England,Northumberland,Wooler in Evert Park,1814","Wooler, Wooler, Northumberland NE71, UK","55.54684","-2.0122390000000223","","None","None","1814","578","43","","687","","","","","Bronze","","","Arch. Acl. Vol. I,Evans, 285","This sword was found with a second which cannot now be traced. Second sword found May 1932.","Joellen mcGann","https://www.flickr.com/photos/115096994@N02/23155526531","https://farm6.staticflickr.com/5703/23155526531_8be22f1e49_m.jpg","superuser",-2.0122,55.5468,"SwordsPt2"
"50074","433","Sword","IVa","Black Gate Museum, Newcastle-upon-Tyne,1932-20","England,Northumberland,Wooler,Evert Park,1814","Wooler, Wooler, Northumberland NE71, UK","55.54684","-2.0122390000000223","","None","None","1814","642","","","885","deep green glossy patina, of which traces remain in the hollows down to the beading of the blade.","bright golden brown, due to cleaning off","","","","Found with another of the same type.","","Arch. Aeliana, 1, I, 11 + Plate iv., fig. 3,Proc. Soc. Ant. Newcastle, 4, V, 254,Evans, 285","","Joellen mcGann","https://www.flickr.com/photos/115096994@N02/22725569638","https://farm6.staticflickr.com/5642/22725569638_2cc82137e2_m.jpg","superuser",-2.0122,55.5468,"SwordsPt2"
"50075","433","Sword","IVb","Private Collection,Robert Blair, Esq., Harton Lodge, S. Shields,Newcastle-upon-Tyne, Blackgate Museum,Blair Collection No. 110","England,Northumberland,Newcastle,dredged from R. Tyne, between Kings Meadows + low level bridge c. 1870","Kings Meadows, Brunel Terrace, Newcastle upon Tyne, Tyne and Wear NE4 7RJ, UK","54.9639165","-1.6408989999999903","","None","None","1870","543","blade 32; hilt 38, 25","","454","Dark brown patina.","Slightly corroded in spots.","9","","Bronze","","Hilt broken at end.","Proc. Soc. Ant. N/C, Ser. 8, Vol. X, p. 224,cf. 4, I, 122","","Joellen mcGann","https://www.flickr.com/photos/115096994@N02/22522734533","https://farm6.staticflickr.com/5703/22522734533_b7706f5df6_m.jpg","superuser",-1.6409,54.9639,"SwordsPt2"
"50076","433","Sword","IV","Newcastle-upon-Tyne,Black Gate Museum, No. 88","England,Northumberland,in the R. Tyne at Newcastle","Newcastle upon Tyne, Tyne and Wear, UK","54.978252","-1.6177800000000389","","None","None","None","718","32","","680","","","","","Bronze","","","Pro. SOc. Ant. N/C New. Ser. Vol II p. 383 + Vol. III p. 408,Also appears to be Evans No. 344 where it was attributed to the late Canon Greenwell's Collection, to wh. it was at one time lent.,No they are different - Greenwell's is in the British Museum.","","Joellen mcGann","https://www.flickr.com/photos/115096994@N02/22823775170","https://farm1.staticflickr.com/657/22823775170_f9a12ea0d6_m.jpg","superuser",-1.6178,54.9783,"SwordsPt2"
"50077","433","Sword","IVb","Newcastle-upon-Tyne,Black Gate, No. 111,From T. J. Bell Collection, South Shields","England,Northumberland,Dredged from R. Tyne,nr. S. Shields probably.","South Shields, Tyne and Wear, UK","54.999424","-1.427406000000019","","None","None","None","600","29","","","Dark Bronze","Smooth","8","","","","","Proc. Soc. Ant. N/C, ser. 4, Vol. IV, p. 104,cf. Proc. Soc. Ant. N/C ser. 2, Vol. V, p. 160","The hilt-plate is missing. ""The blade...is bent + scored as if by a dredger lined net"" (Determination of D. Cover)","Joellen mcGann","https://www.flickr.com/photos/115096994@N02/22823774650","https://farm1.staticflickr.com/748/22823774650_35e53ce6f0_m.jpg","superuser",-1.4274,54.9994,"SwordsPt2"
"50078","433","Leaf Shaped Sword (portion)","IVa","Sheffield Museum,T 93.464,Bateman Collection G 159","England,Yorkshire,near Bilton,1848,(whilst building a drain)","Bilton, Harrogate, Harrogate, North Yorkshire HG1, UK","54.0078823","-1.5367770000000291","","None","None","1848","210","39.5 hilt; 47 near rivets; 25 blade","","200","dark green patina","","8 (hilt 4.5)","","","found in a hoard. There are 7 socketed celts + some spear heads.","","British Archaeological Journal, Vol. V, p. 349","","Joellen mcGann","https://www.flickr.com/photos/115096994@N02/22725568098","https://farm1.staticflickr.com/721/22725568098_82b05a2862_m.jpg","superuser",-1.5368,54.0079,"SwordsPt2"
"50079","433","Sword","IVa","Sheffield Museum,J.93.465,From C. W. Jessop","England,Yorkshire,Bilton,Found in cutting a drain.,1848","Bilton, Harrogate, Harrogate, North Yorkshire HG1, UK","54.0078823","-1.5367770000000291","","None","None","1848","201","hilt 41; 57; Blade 22","","156","Dark brown patina, green where chipped.","","7; 6","","","Found with 7 celts + some swords + spear-heads.","6 rivet holes. Broken. Hilt half only. Edges much chipped.","Sheffield Museum Catalogue,Brit. Arch. Journ, V.349","","Joellen mcGann","https://www.flickr.com/photos/115096994@N02/23129968762","https://farm6.staticflickr.com/5791/23129968762_6cd0075dfc_m.jpg","superuser",-1.5368,54.0079,"SwordsPt2"
"50080","433","Leaf Shaped Sword","IVa","Hull Museum,Mortimer Collection, M40","England,Yorkshire,Harome,Wrifield (near),Between Malton + Driffield in the Wolds,1869-73","Malton, Malton, North Yorkshire YO17, UK","54.136836","-0.7978970000000345","","None","None","1873","533","hilt 53; blade 29, 45","","655","Green patina edges chipped.","","8","","Bronze","","Hilt broken off, otherwise in good condition. 2 Rivets remain, the other 2 holes are broken.","F. Elgec, Early Man in N.E. Yorks, Pl. XXV, Fig. 1","","Joellen mcGann","https://www.flickr.com/photos/115096994@N02/22521235014","https://farm6.staticflickr.com/5657/22521235014_b8a6c83076_m.jpg","superuser",-0.7979,54.1368,"SwordsPt2"
"50081","433","Sword","VI","Sheffield City Museum,Bateman Collection,J.93.436","England,Yorkshire,near Ebberston, March 1861","Ebberston, Scarborough, North Yorkshire YO13, UK","54.22991099999999","-0.6229640000000245","","None","3","1861","725","","","778","Green/Brown patina.","","","","","","","Catalogue of Bateman Antiquities (S.C.M. 1899), Pg. 65, illus.,Arch. Ass. Journal, Vol. XVII (1861), p. 321,Evans (1881) pp. 280, 285","Chape (J.93.468), human bones + other bronze objects (Cat. of Bateman Antiquities)","Joellen mcGann","https://www.flickr.com/photos/115096994@N02/22751666409","https://farm1.staticflickr.com/618/22751666409_d74c376edc_m.jpg","superuser",-0.623,54.2299,"SwordsPt2"
"50082","433","Sword (Fragment)","IIIc","Private Collection,Wm. Morfitt,Atwick, Seaton, Hull,1917","England,Yorkshire, East Riding,Leven Carr,1917 in Peat","Carr Ln, Leven, Beverley, East Riding of Yorkshire HU17, UK","53.89107610000001","-0.3249356999999691","","None","None","1917","75","hilt 24; blade 28, 35","","63.78","Dark brown patina.","Well preserved.","4 hilt; 6 blade","","","","","","","Joellen mcGann","https://www.flickr.com/photos/115096994@N02/22725567118","https://farm6.staticflickr.com/5768/22725567118_f04cc9f9a8_m.jpg","superuser",-0.3249,53.8911,"SwordsPt2"
"50083","433","Leaf Shaped Sword","IVa","Hull Municipal Museum,23/24 high Street, Hull, Yorkshire","England,Yorkshire, East,Leven,Linley Hill Farm,Found 2/7.63","Linley Cl, Leven, Beverley, East Riding of Yorkshire HU17 5NP, UK","53.8894932","-0.3148521000000528","T.A. 065 463","2","7","1863","594","","","","","","","","","","On back of attached photo. Late Bronze Age sword, Ewert Park Type,Late 8th Cent. B.C.","","","Joellen mcGann","https://www.flickr.com/photos/115096994@N02/22521233964","https://farm1.staticflickr.com/615/22521233964_d5831484c6_m.jpg","superuser",-0.3149,53.8895,"SwordsPt2"
"50084","433","Sword","IVa","Hull Museum,No. 71","England,Yorkshire,Leven,Holdsmore","Leven, Beverley, East Riding of Yorkshire HU17, UK","53.89257199999999","-0.3099459999999681","","None","None","None","589","hilt 50, 20; blade 39","","420","","The blade has been cleaned, but the hilt shows patination.","blade 5","","","","Fine example; strong central rib; 3 rivets.","","","Joellen mcGann","https://www.flickr.com/photos/115096994@N02/22725465977","https://farm6.staticflickr.com/5727/22725465977_8c65ec33e9_m.jpg","superuser",-0.3099,53.8926,"SwordsPt2"
"50085","433","Fragment of Sword","IV","Ripon Museum, Yorkshire","England,Yorkshire,Ripon","Ripon, Ripon, North Yorkshire HG4, UK","54.1361346","-1.5237756000000218","","None","None","None","82","hilt 37, 25","","56.7","Dark brown with greenish edges","Worn","5","","","","","","","Joellen mcGann","https://www.flickr.com/photos/115096994@N02/23129967092","https://farm6.staticflickr.com/5769/23129967092_d069ff8c2a_m.jpg","superuser",-1.5238,54.1361,"SwordsPt2"
"50086","433","Sword Hilt","IV","Hull Museum","England,Yorkshire,Scarborough,found on Cliff","Scarborough, North Yorkshire, UK","54.283113","-0.39975200000003497","","None","None","None","83","42","","59","Green patina","","6","","Bronze","","Part of central rib remains","Naturalist, May 1917","","Joellen mcGann","https://www.flickr.com/photos/115096994@N02/22725566068","https://farm6.staticflickr.com/5637/22725566068_e15d0c1376_m.jpg","superuser",-0.3998,54.2831,"SwordsPt2"
"50087","433","Leaf Shaped Sword","VI","Scarborough Museum,Purchased by the Scarborough Phil & Arch. Soc. 1864","England,Yorkshire,near Scarborough,1864","Scarborough, North Yorkshire, UK","54.283113","-0.39975200000003497","","None","None","1864","610","38","","","Dark brown patina","Smooth","7.5","","","","Six rivet holes, with one rivet in situ.","","","Joellen mcGann","https://www.flickr.com/photos/115096994@N02/22751664919","https://farm6.staticflickr.com/5668/22751664919_f1174714a8_m.jpg","superuser",-0.3998,54.2831,"SwordsPt2"
"50088","433","Sword","IVa","Bowes Museum, Barnard Caslte, Co. Durham,Museum reference number 1958/1841","England,Yorkshire, North Riding,Startforth","York, York, York, UK","53.95996510000001","-1.0872979000000669","O.S. map reference: 45/037156","None","None","None","558.8","","","","","Sides of blade chipped. SUrface patina badly broken on one side of blade.","","Length: 1' 10"" = 558.8 mm","Bronze","Found with bronze sword + gold hair ornament.","Sword with leaf shaped blade + v-shaped hilt. 4 rivet holes. Ridge down each side of hilt. In three pieces, now reconstructed.","","","Joellen mcGann","https://www.flickr.com/photos/115096994@N02/22522730663","https://farm6.staticflickr.com/5752/22522730663_7f85a250c8_m.jpg","superuser",-1.0873,53.96,"SwordsPt2"
"50089","433","Sword","IVa","The Bowes Museum, Barnard Castle, Co. Durham,Museum registration number 1958/1842","England,Yorkshire, North Riding,Startforth","York, York, York, UK","53.95996510000001","-1.0872979000000669","OS map ref. 45/037156","None","None","None","525.78","","","","Surface patina broken across blade near tip.","Blade edges chipped.","","Length: 1' 8 7/10"" = 525.78mm","Bronze","Found with another bronze sword + gold hair ornament.","Sword with leaf shaped blade, v-shaped hilt, 3 rivet holes. Point of blade missing. Sword in 3 pieces, now reconstructed","","","Joellen mcGann","https://www.flickr.com/photos/115096994@N02/23155521381","https://farm6.staticflickr.com/5724/23155521381_4d0d89932a_m.jpg","superuser",-1.0873,53.96,"SwordsPt2"
"50090","433","Sword","","Private (1993) - Baker, Mr. Frank,26 Bishopton Lane, Ripon, N. Yorks.,[May go to Museum at Ripon]","England,North Yorkshire,Ripon,River Ure,Found by Mr. Frank Baker 31 June 1992 in the late afternoon, laying flat on the river bed 5-6 meters from south bank. Mr. Baker was fishing at the time.","Ripon, Ripon, North Yorkshire HG4, UK","54.1361346","-1.5237756000000218","SE 3330 7025","31","6","1993","","","","","","","","","","Single Find","Typology: Sword with 3 rivets, 2 rivet holes in tang, 2 in shoulders, ricasso leaf shaped blade, edges notched.,Condition: complete","","","Joellen mcGann","https://www.flickr.com/photos/115096994@N02/22522729843","https://farm6.staticflickr.com/5647/22522729843_9a14dc5f44_m.jpg","superuser",-1.5238,54.1361,"SwordsPt2"
"50091","433","Sword","IIIb","Neward-on-Trent Municipal Museum,Accession no. 31-55,Loaned to museum by J. F. Sherwin, Esq., Black Horse Inn, Caythorpe, Near Lowdham, Notts.","England,Nottinghamshire,Bleasby,River Trent,Found in 1952 in the River Trent, near its south bank, 200 yards south of the Star and Garter Hotel, Bleasby.","Bleasby, Nottingham, Nottinghamshire NG14, UK","53.037614","-0.9343049999999948","Nat. Grid Ref. SK 726488","None","None","1952","400.05","69.85 at hilt; 31.75 at widest complete part of blade","","425.243","No patina, sword cleaned to show metal.","Badly pitted","6.35 at central rib","Length: 15 3/4"" = 400.05 mm,Width: 2 3/4"" = 69.85mm at hilt, 1 1/4"" = 31.75mm at widest complete part of blade,Thickness: Approx 1/4"" = 6.35 mm at central rib,Weight: 15 ozs. = 425.243 gms","","Unassociated find","Part of bronze sword blade; four rivets still in position at base of hilt, and the blade is bevelled from a central ridge to give two cutting edges. Slight flange along the edge of the hilt gives it a thickened edge. The point and the lower part of the blade are missing; so is rest of the hilt and the hand grip has done. Badly damaged cutting edge.","Unpublished","Compiled Sept. 1957. F. Waters, [?Anthony Porter, Curator]","Joellen mcGann","https://www.flickr.com/photos/115096994@N02/22725464157","https://farm6.staticflickr.com/5785/22725464157_db9182699d_m.jpg","superuser",-0.9343,53.0376,"SwordsPt2"
"50092","433","Leaf Shaped Sword","IIIc","City of Nottingham Art Museum,Given by Mr. Hugh L.P. Lowe,No. '02-14","England,Nottinghamshire,Nottingham,Lenton,Highfields House,Found during excavations in the pond.","Lenton, Nottingham, Nottingham NG7, UK","52.947769","-1.1775420000000167","","None","None","None","600","hilt 52 (approx); blade 42; + 20, 14, 42","","592.8","Light + dark green.","","6.5, 8, 6, 3.5, 5, 1.75","","","","In fairly good preservation. Cutting edge corroded in centre portion of blade, yellow bronze.","","","Joellen mcGann","https://www.flickr.com/photos/115096994@N02/23129965412","https://farm6.staticflickr.com/5820/23129965412_eb313b7c36_m.jpg","superuser",-1.1775,52.9478,"SwordsPt2"
"50093","433","Sword (drawn 1/2 size) [""Aronstitlce?""]","C","City of Nottingham Art Museum,Reg. No. '28-180,Given by Mr. W. J. Thompson","England,Nottinghamshire,Nottingham,Dredged from the bed of the River Trent, near the culvert at Meadow Lane, below Nottingham.,June 1927","Meadow Ln, Nottingham NG2, UK","52.9446429","-1.1326669000000038","","None","6","1927","401","41; Length of hilt 60","","274.2","Brown & green patina","Yellow bronze","5.5","","","None","In good preservation","Unpublished","","Joellen mcGann","https://www.flickr.com/photos/115096994@N02/22522729093","https://farm1.staticflickr.com/732/22522729093_0e8c0ffdfc_m.jpg","superuser",-1.1327,52.9446,"SwordsPt2"
"50094","433","Sword","IIb","Ashmolean Museum, Oxford,1896-1902 Pr. 348,Purchased","England,Oxfordshire,Banbury,St. John's Priory","Banbury, Banbury, Oxfordshire, UK","52.0629009","-1.3397750000000315","","None","None","None","643","46","","658.24","Dark brown patina.","","9.5","","","","Point imperfect, has been broken across middle of blade and repaired (modern).","","","Joellen mcGann","https://www.flickr.com/photos/115096994@N02/22725563878","https://farm1.staticflickr.com/676/22725563878_76c350a13a_m.jpg","superuser",-1.3398,52.0629,"SwordsPt2"
"50095","433","Sword","C","Ashmolean Museum, Oxford,1914 No. 735,J.H. Powell Collection,Purchased","England,Oxfordshire,Thames,Benson,Benson Ferry","Benson, Wallingford, Oxfordshire OX10, UK","51.621665","-1.1043059999999514","","None","None","None","560","38","","660.22","Pale blue-green patina, stained at hilt-end, especially one side, by contact with river gravel.","","10.5","","","","Two middle rivets preserved.","Proc. Soc. Antiq. N.S. xxiii, 160","","Joellen mcGann","https://www.flickr.com/photos/115096994@N02/22725563578","https://farm6.staticflickr.com/5736/22725563578_fecbb9ac19_m.jpg","superuser",-1.1043,51.6217,"SwordsPt2"
"50096","433","Leaf shaped sword","IVa","National Museum of Wales, Cardiff,acquired  June 1923,23.227","Wales,Breconshire,Crickhowell, near,Cwm Du,on Pen Tir","Crickhowell, Crickhowell, Powys NP8, UK","51.856479","-3.1355100000000675","","None","None","None","652","blade 43; hilt 49, 26","","","","","blade 7.2","","","","There are 4 rivet holes, + 3 others which are not pierced through.","Arch. Camb. 1920, p. 282,PW No. 518","","Joellen mcGann","https://www.flickr.com/photos/115096994@N02/22522728253","https://farm1.staticflickr.com/576/22522728253_6865b7bd0b_m.jpg","superuser",-3.1355,51.8565,"SwordsPt2"
"50097","433","Sword (fragment)","Frag.","National Museum of Wales, No. 8,47.26/10","Wales,Brecknockshire,Penwylt (on mountain above)","Penwyllt, Swansea, Powys SA9, UK","51.828603","-3.6638410000000476","","None","None","None","34","30.5","","","","","5","","","One of a hoard consisting of socketed celts, 2 gouges, a chisel + pieces of metal, 13 in all.","","","","Joellen mcGann","https://www.flickr.com/photos/115096994@N02/22751661859","https://farm1.staticflickr.com/678/22751661859_43c7ac5620_m.jpg","superuser",-3.6638,51.8286,"SwordsPt2"
"50098","433","Sword Hilt","IV","Private Collection,The Earl of Powis,Powis Castle, Welshpool,No. 47,National Museum of Wales, 31.62/42","Wales,Montgomeryshire,Welshpool,Pool Quay,Crowther's Coppice,October 1862","Pool Quay, Welshpool, Welshpool, Powys SY21, UK","52.696322","-3.103386999999998","","None","10","1862","80","butt 27, broken end 28, slot 6","","56.9","Green","Twisted + broken","9","","","Part of ""Guilsfield"" hoard.","Broken ""fish-tail"" hilt of sword.","R.C.A.M Montgomery, No. 949 + refs.","","Joellen mcGann","https://www.flickr.com/photos/115096994@N02/22521230034","https://farm1.staticflickr.com/565/22521230034_f94c30c6a1_m.jpg","superuser",-3.1034,52.6963,"SwordsPt2"
"50099","433","Leaf-shaped Sword (portion)","Frag","Private Collection,The Earl of Powis,Powis Castle, Welshpool,No. 37,National Museum Wales,31.62/39 (41)","Wales,Montgomeryshire,Welshpool,Pool Quay,Crowther's Coppice,October 1862","Pool Quay, Welshpool, Welshpool, Powys SY21, UK","52.696322","-3.103386999999998","","None","10","1862","335","43 (max), broken butt 35","","419.4","Green","Good - Edge slightly chipped","8","","Bronze","Part of ""Guilsfield"" Hoard","","R.C.A.M. Montgomery, No. 949 + refs.","","Joellen mcGann","https://www.flickr.com/photos/115096994@N02/23155518271","https://farm6.staticflickr.com/5689/23155518271_c36366482b_m.jpg","superuser",-3.1034,52.6963,"SwordsPt2"
"50100","433","Leaf-Shaped Sword (portion) Fragments","Frag.","Private Collection,The Earl of Powis,Powis Castle, Welshpool,No. 38,National Museum of Wales,31.62/40","Wales,Montgomeryshire,Welshpool,Pool Quay,Crowther's Coppice,October 1862","Pool Quay, Welshpool, Welshpool, Powys SY21, UK","52.696322","-3.103386999999998","","None","10","1862","280","max 34","","284.6","Green","","8","","","Part of ""Guilsfield"" Hoard","2 pieces of broken blade; point missing.","R.C.A.M Montgomery, No. 949 + refs.","","Joellen mcGann","https://www.flickr.com/photos/115096994@N02/22521229614","https://farm6.staticflickr.com/5793/22521229614_2c668d026c_m.jpg","superuser",-3.1034,52.6963,"SwordsPt2"
"50101","433","Sword (fragment)","Frag.","Private Collection,The Earl of Powis,Powis Castle, Welshpool,No. 49","Wales,Montgomeryshire,Welshpool,Pool Quay,Crowther's Coppice,Oct. 1862","Pool Quay, Welshpool, Welshpool, Powys SY21, UK","52.696322","-3.103386999999998","","None","10","1862","60","39","","77.3","Green","","9","","","Part of ""Guilsfield"" Hoard","","RCAM, Montgom., No. 949 + refs.","","Joellen mcGann","https://www.flickr.com/photos/115096994@N02/22751660759","https://farm6.staticflickr.com/5792/22751660759_1192afb5c1_m.jpg","superuser",-3.1034,52.6963,"SwordsPt2"
"50102","433","Leaf-shaped Sword","Frag.","Shrewsbury Museum, No. 46,donor the Earl of Powis","Wales,Montgomeryshire,Welshpool,Pool Quay,(Guilsfield),Crowthers Cusip or Coppice,1862 in a field called ""The Camp""","Pool Quay, Welshpool, Welshpool, Powys SY21, UK","52.696322","-3.103386999999998","","None","None","1862","105","blade 40, 27","","over 102.76","grey green","fairly smooth, pitted with pin pricks, especially on face not shown","6, 7","","","Part of a hoard exhibited to the S of A bby Saml. Wood Esq. FSA on 16th April 1863.","","Proc. Soc. Ant. II (2nd S), p. 250 (as if upper part of spearhead No. 44),Arch. Cam. C (3rd S), p. 214,Evans, pp. 87, 114, 174, 285, 302, 315, 336, 339, 424, 467","","Joellen mcGann","https://www.flickr.com/photos/115096994@N02/22725460997","https://farm6.staticflickr.com/5710/22725460997_e2860bce27_m.jpg","superuser",-3.1034,52.6963,"SwordsPt2"
"50103","433","Leaf Shaped Sword","","Shrewsbury Museum, No. 46,donor the Earl of Powis","Wales,Montgomeryshire,Welshpool,Pool Quay,Crowthers Camp or Coppice,1862","Pool Quay, Welshpool, Welshpool, Powys SY21, UK","52.696322","-3.103386999999998","","None","None","1862","105","blade 40, 27","","over 102.76","grey green","Fairily smooth, pitted with pin pricks, especially on the face not shown","6, 7","","","Part of a hoard exhibited to the S. of A. by Saml. Wood Esq. FSA on 16 April 1863","","Proc Soc. Ant. II (2nd S.) p. 250, (as if upper part of spearhead No. 44),Arch. Cambs. X (3rd S), p. 214,Evans, pp. 87, 114, 174, 285, 302, 315, 336, 339, 424, 467","Redraw W.E. Griffiths","Joellen mcGann","https://www.flickr.com/photos/115096994@N02/22725561258","https://farm6.staticflickr.com/5636/22725561258_73235944f6_m.jpg","superuser",-3.1034,52.6963,"SwordsPt2"
"50104","433","Socketed Sword","IVd","Powysland Museum, Welshpool,donor E.R. Morris, Esq.","Wales,Montgomeryshire,Llandinam","Llandinam, Llandinam, Powys SY17, UK","52.4850266","-3.4368855000000167","","None","None","None","146, 138","blade 10, 25, 35; socket 40, 33","","253.7","Green patina","","blade 5, --, --; socket 12, 16, 18, 24","","","","Broken cleanly in two parts.","Mont. Coll. Vol. 14, p. 269","","Joellen mcGann","https://www.flickr.com/photos/115096994@N02/22823767940","https://farm6.staticflickr.com/5788/22823767940_701b9a6b67_m.jpg","superuser",-3.4369,52.485,"SwordsPt2"
"50105","433","Leaf Shaped Sword","IVa","Ellesmere Museum,Pres. by W. Nugent Monck, 1920","England,Shropshire,Ellesmere,Val Hill in the township of Tetchill,found by a workman while grubbing up a fence","Ellesmere, Ellesmere, Shropshire SY12, UK","52.906718","-2.9003380000000334","","None","None","None","467","hilt 42, blade 35.5","","457","Reddish brown patina rubbed off in places.","Slightly pitted in one or two places.","blade 6","","","","Hilt broken off through rivet hole. Blade broken near point + roughly mended. Edge chipped near fracture. Point slightly filed.","Rdt. Kingon, Shrops. Arch. Trans., IV (2ns Series, 1892), 280,Anden, Vic. Co. Hist. Shrops, I, 202, (under ""Bagley""),""Times"", 14th March 1921","The sword seems to have been broken by the workmen who found it. It was taken to the Rev. Walter Moore, Rector of Hordley, who had it mended by the Hordley Blacksmith, who was probably responsible for filing the point. From the Rev. Walter Moore, it passed into the hands of his son, Mr. Charles Moore, of the Hollies Ellesmere, at whose death it was given to the Ellesmere Museum by his executor.","Joellen mcGann","https://www.flickr.com/photos/115096994@N02/22823767700","https://farm1.staticflickr.com/630/22823767700_0d5b23ea41_m.jpg","superuser",-2.9003,52.9067,"SwordsPt2"
"50106","433","Leaf Shaped Sword","VI","Private Collection,1923,Lord Herlech,Brogyntyn, Oswestry,No. 1","England,Shropshire,Selattyre,Brogyntyn (formerly Porkington),near Oswestry,Before 1850","Brogyntyn, Oswestry, Shropshire SY10, UK","52.8731495","-3.07279010000002","","None","None","1850","381","hilt 53, blade 30","","509.6","Grey patina, slight indications of golden brown metal","Scratched","blade 7, 10","","","Apparently part of a small hoard - this sword, a chisel + a gouge. It seems to be the same hoard as the Oswestry ""Brazier""","6 Rivet holes originally (the outer ones are small)","Arch. Jour. VII, 195,Evans, B. Impl. p. 466,Anden, V.C.H., Shrops I, does not mention it.","Labelled: ""Ancient British Sword, of bronze, imperfect at the point"". This has been crossed out + on the other side of label is written: ""Leaf Shaped Roman Sword""","Joellen mcGann","https://www.flickr.com/photos/115096994@N02/22751659849","https://farm1.staticflickr.com/778/22751659849_2f85d327b0_m.jpg","superuser",-3.0728,52.8731,"SwordsPt2"
"50107","433","Sword","","Unknown,In possession of Owen Salisbury Beveton Esq. of London in 1796 (c); given to him by Edward Gatacre Esq., of Gatacre, nr Bridgenorth (c),Exhibited to Antiquaries 1776","England,Shropshire,River Severn,Quatford,""...as he (Galacre) was fishing, some years since, at Quatford, about 2 miles below the town just mentioned (Bridgenorth), he drew from the bottom of the Severn, with his line, a brass sword"" (c)","Quatford, Bridgnorth, Shropshire WV15, UK","52.511572","-2.3846419999999853","SO 73 90","None","None","None","584.2","","","","","","","Length: ""1 foot 11 inches in length"" = 584.2mm","","8. SIngle Find","","a) Society of Antiquaries Minutes, Vol.   , 11 Jan 1776, 295,b) Grace 1786, pl. XIII fig. 4, p. vi.,c) Moseley M.S. (1796), 7-9 - PRBA Library, pl. no. 7.1","Archive:  Salop. S & M - SA 398, see duplicate set,PRBAF: SI; Ext. CI; Rec. SN June 80; Source: R","Joellen mcGann","https://www.flickr.com/photos/115096994@N02/22725459657","https://farm1.staticflickr.com/694/22725459657_2d02326ff0_m.jpg","superuser",-2.3846,52.5116,"SwordsPt2"
"50108","433","Sword","","Evans, Mr. Roy - private (1981),32 Fir Grove, Oswestry, Shropshire","England,Shropshire,Whittington,Lower Berghill,Found summer of 1976 by Roy Evans, spotted partly exposed on surface of field which was rough-ploughed at the time.","Whittington, Oswestry, Shropshire, UK","52.87353","-3.0035050000000183","SJ 362 305","None","None","1976","641","hilt [fi. mid.] 39.6; shoulders 48.8; max W. bl. 39","","671.9","","","max th. 8.7","","","8a. SIngle Find","Condition: damage on one face possibly resulting from farm implement","","Archive: Illustn. + Photos see DF,DF(S); SI; CI; Rec: SN Oct. 81; Source: Sb. I; Sub Inf.: Alan Tyles - 20/10/81, Salop. S & M Record.","Joellen mcGann","https://www.flickr.com/photos/115096994@N02/22521227604","https://farm1.staticflickr.com/763/22521227604_1f5c77c9b9_m.jpg","superuser",-3.0035,52.8735,"SwordsPt2"
"50109","433","Sword [""Arans...?""]","C","Winwick Castle, No. 236","England,Somerset,Bath,Nr. Gasometer, at depth of 30 ft.,1848","Bath, Bath, Bath and North East Somerset, UK","51.375801","-2.359903900000063","","None","None","1848","443","42","","368.4","Brown patina bronze patches.","Smooth","6","","","Fragments of bone (probably from haft).","Has four rivets in position.","","","Joellen mcGann","https://www.flickr.com/photos/115096994@N02/22751659479","https://farm6.staticflickr.com/5744/22751659479_e0af3e2f52_m.jpg","superuser",-2.3599,51.3758,"SwordsPt2"
"50110","433","Leaf Shaped Sword [""Aran...?]","B","Glastonbury Museum (O.16),Donor J. A. Porch, Esq.","England,Somerset,Glastonbury (near),Turbaries","Glastonbury, Somerset, UK","51.147427","-2.718454000000065","","None","None","None","438","blade 42; hilt end 24, 48","","389.81","Bronze green patina","","4","","","","Edge dented","","","Joellen mcGann","https://www.flickr.com/photos/115096994@N02/22823766750","https://farm6.staticflickr.com/5711/22823766750_e1aaf44c38_m.jpg","superuser",-2.7185,51.1474,"SwordsPt2"
"50111","433","Leaf shaped sword","IIIb","Taunton Castle Museum,Purchased from Downside Abbey near Bath,Nov. 1917","England,Somerset,Midsomer Norton","Midsomer Norton, Bath and North East Somerset, UK","51.285199","-2.485936000000038","","None","None","None","620","hilt 38, 43; blade 43; longest rivet 18.5","","","","","blade 7.5","","","","3 rivets (evidently removed),Blade slightly broken + repaired near hilt.","Procs. Somerset Arch. Soc., Vol. XXIII, I, 69.72 + LXIV p. lvi","","Joellen mcGann","https://www.flickr.com/photos/115096994@N02/22725559548","https://farm1.staticflickr.com/782/22725559548_fe5da9c2e1_m.jpg","superuser",-2.4859,51.2852,"SwordsPt2"
"50112","433","Leaf shaped sword","IVa","Taunton Castle Museum,deposited by H.C. Price, Esq., 1901","England,Somerset,Pitney Moor,2 1/2 miles N.E. of Langport)","Langport, Langport, Somerset TA10, UK","51.038134","-2.8287189999999782","","None","None","None","447","hilt 46; blade 28, 31","","326","","Corroded","blade 6, 8","","","","Hilt very incomplete. 4 Rivet holes.","Proc. Som. A + N.H.S., XLVII, part II, pp. 230-233","","Joellen mcGann","https://www.flickr.com/photos/115096994@N02/22521226734","https://farm6.staticflickr.com/5726/22521226734_660110fe38_m.jpg","superuser",-2.8287,51.0381,"SwordsPt2"
"50113","433","Leaf shaped sword","IVa","Taunton Castle Museum, 36","England,Somerset,Stogursey,Wick Park","Wick Park Cottage, Farringdon Hill, Stogursey, Bridgwater, Somerset TA5 1TJ, UK","51.1892186","-3.122739000000024","","None","None","None","144","blade 31; hilt 52, 23","","179","","","7, 8","","","Part of hoard","","","","Joellen mcGann","https://www.flickr.com/photos/115096994@N02/22725458427","https://farm6.staticflickr.com/5694/22725458427_7b71fae770_m.jpg","superuser",-3.1227,51.1892,"SwordsPt2"
"50114","433","Leaf shaped sword","IVa","Somerset Taunton Castle Museum, 37","England,Somerset,Stogursey,Wick Park","Wick Park Cottage, Farringdon Hill, Stogursey, Bridgwater, Somerset TA5 1TJ, UK","51.1892186","-3.122739000000024","","None","None","None","139","blade 25; hilt 49, 20","","144.5","","","blade 6; hilt 5","","","Part of a hoard","","","","Joellen mcGann","https://www.flickr.com/photos/115096994@N02/22823765820","https://farm6.staticflickr.com/5783/22823765820_b6353bf9b8_m.jpg","superuser",-3.1227,51.1892,"SwordsPt2"
"50115","433","Sword (hilt)","IVd","Taunton Castle Museum, 38","England,Somerset,Stogursey,Wick Park","Wick Park Cottage, Farringdon Hill, Stogursey, Bridgwater, Somerset TA5 1TJ, UK","51.1892186","-3.122739000000024","","None","None","None","67","23, 43","","90.5","","","8","","","Part of hoard","","","","Joellen mcGann","https://www.flickr.com/photos/115096994@N02/22823765480","https://farm1.staticflickr.com/758/22823765480_e76a4e619d_m.jpg","superuser",-3.1227,51.1892,"SwordsPt2"
"50116","433","Leaf shaped sword [? cay's tongue]","IV","Somerset Taunton Castle Museum, 97,31 2","England,Somerset,Stogursey,Wick Park","Wick Park Cottage, Farringdon Hill, Stogursey, Bridgwater, Somerset TA5 1TJ, UK","51.1892186","-3.122739000000024","","None","None","None","70","blade 40","","92","","","9","","","","","","","Joellen mcGann","https://www.flickr.com/photos/115096994@N02/23155513921","https://farm1.staticflickr.com/574/23155513921_d4f943bd9d_m.jpg","superuser",-3.1227,51.1892,"SwordsPt2"
"50117","433","Sword","","Private (1997) - Hierde, Mr. c.","England,Yorkshire, South,Sheffield,Normanton Spring,Found by Mr. C. Hierde whilst digging as a boy near an air raid shelter which was being constructed in 1939.","Normanton Spring, Sheffield, Sheffield, South Yorkshire S13, UK","53.355931","-1.3919969999999466","SK 402 844","None","None","1939","","","","","","","","","","Single Find","Typology: Sword, poss. not authentic","","","Joellen mcGann","https://www.flickr.com/photos/115096994@N02/22823765100","https://farm6.staticflickr.com/5765/22823765100_b537f00a29_m.jpg","superuser",-1.392,53.3559,"SwordsPt2"
"50118","433","Swords","","Unknown","England,Staffordshire,Norbury,Oulton","Oulton, Stafford, Staffordshire ST20, UK","52.7965469","-2.3149250000000166","c. SJ 78 22","None","None","None","","","","","","","","","","1a. Hoard","","","AFI; SI; CI; Rec.: SN Dec. 78; Source: R","Joellen mcGann","https://www.flickr.com/photos/115096994@N02/22823765060","https://farm6.staticflickr.com/5672/22823765060_a6e2936867_m.jpg","superuser",-2.3149,52.7965,"SwordsPt2"
"50119","433","Late Bronze Age Sword","VI","Moyses Hall Museum,Bury St. Edmunds,Access No. F122","England,Suffolk,in about 1910","Suffolk, UK","52.1872472","0.9707800999999563","","None","None","1910","723","Max 32","","","Some greenish black patina","Very good","9","Weight: 28 oz. = 793.787 gms","Bronze","?","Late Bronze Age Sword of late type with indications of Hallstaff influence. See Bevelled specimen British Museum Guide 1920 op. page 32, Plate II, number 3","","Davidson, Curator,Enquiries are being made to endeavor to ascertain locality","Joellen mcGann","https://www.flickr.com/photos/115096994@N02/23129958852","https://farm1.staticflickr.com/591/23129958852_25cd1693c8_m.jpg","superuser",0.9708,52.1872,"SwordsPt2"
"50120","433","Sword (Duplicate card)","VI","Bury St. Edmunds,Moyses Hall Museum,Acc. No. F122","England,Suffolk,c. 1910","Suffolk, UK","52.1872472","0.9707800999999563","","None","None","1910","720","30","","","","","","","","","Late bronze age sword of early Hallstatt type, reputed to have been found in Suffolk in 1910. Purchased. Length 72 cms. Grip to ricasso notches 13 cms max width of blade at XX 3 cms.","","","Joellen mcGann","https://www.flickr.com/photos/115096994@N02/23129958772","https://farm1.staticflickr.com/618/23129958772_ae76227a10_m.jpg","superuser",0.9708,52.1872,"SwordsPt2"
"50121","433","Leaf Shaped Sword","IIb","Bury St. Edmunds Museum, F34","England,Suffolk,Barrow","Barrow, Bury Saint Edmunds, Suffolk IP29, UK","52.2412949","0.5835348000000522","","None","None","None","661.5","hilt 68, 37, 29.5; blade 50","","687.48","Dark green matte","Smooth","blade 4; hilt 5, 8.5, 3.5","","","1a. Hoard","","S/A 1861, Fig. 1888, 186-7 fig. 2, 188","AFI","Joellen mcGann","https://www.flickr.com/photos/115096994@N02/22751656959","https://farm1.staticflickr.com/697/22751656959_bccd85247b_m.jpg","superuser",0.5835,52.2413,"SwordsPt2"
"50122","433","Bronze Leaf Sword (dupl.)","","Moyses Hall Museum, Bury St. Edmunds,On Loan from owner,R. Hodge, Esq., The Hall, Cockfield Green, Suffolk,Access No. F79","England,Suffolk (West),Lawshall,Oak Farm, Warbanks,Found on cleaning small stream in 1938","Lawshall, Bury Saint Edmunds, Suffolk IP29, UK","52.154273","0.7228749999999309","891535","None","None","1938","599.44","53.34","","623.69","gone","has been cleaned","15.24","Length: 23.6 ins = 599.44mm; Width 2.1 ins = 53.34mm ; Thickness 6/10th ins. = 15.24mm; Weight 22 Oz = 623.69 grm","Bronze","","Fine specimen, three rivet slots","","A. R. Edwardson, Curator","Joellen mcGann","https://www.flickr.com/photos/115096994@N02/22823764270","https://farm6.staticflickr.com/5704/22823764270_3d52c4292a_m.jpg","superuser",0.7229,52.1543,"SwordsPt2"
"50123","433","Bronze Leaf Sword","","Moyses Museum, Bury St. Edmunds,F 79,On loan from R. Hodge Esq., The Hall, Cockfield Green, Suffolk","England,Suffolk,Larshall,Warbanks,Oak Farm,Found 1938 in cleaning out choked stream","Lawshall, Bury Saint Edmunds, Suffolk IP29, UK","52.154273","0.7228749999999309","897535","None","None","1938","600","Blade 41","","623.69","Gone","Cleaned","blade 6","Weight 22 oz = 623.69 gms","Bronze","","Very much cleaned up, Bevel of blade barely discernible. Three riveting slots.","","","Joellen mcGann","https://www.flickr.com/photos/115096994@N02/22521224444","https://farm1.staticflickr.com/590/22521224444_f145dae97a_m.jpg","superuser",0.7229,52.1543,"SwordsPt2"
"50124","433","Bronze Leaf Sword","IVa","Moyses Hall Museum,Bury St. Edmunds,(Cullum Bequest), F30","England,Suffolk,River Lark,Icklingham,From river at Icklingham Suffolk in 1780","Icklingham, Bury Saint Edmunds, Suffolk IP28, UK","52.32690299999999","0.597122000000013","TL 7 7","None","None","1780","601.98","50.8","","694.56","Gone","Has been cleaned","12.7","Length: 23.7 ins = 601.98 mm; Width: 2 ins = 50.8 mm; Thickness 5/10ths = 12.7; Weight 24 1/2 oz. = 694.56 gms","Bronze","","Fine specimen; six rivet holes","Prigg 1888, 190,Proc. Suff. Inst. Arch. I, 1849-53, 24: "" The following presents were announced:...The Rev. Sir Th. Cullum, Bart., send a bronze sword, which was found about 70 years ago in the bed of the river Lark, near Icklingham.""","A.R. Edwardson, Curator","Joellen mcGann","https://www.flickr.com/photos/115096994@N02/22823763700","https://farm6.staticflickr.com/5728/22823763700_c99834d1eb_m.jpg","superuser",0.5971,52.3269,"SwordsPt2"
"50125","433","Bronze Leaf Sword","IVa","Moyses Hall Museum,Bury St. Edmunds,(Cullum Bequest),F 30","England,Suffolk,Icklingham,R. Lark,1780","Icklingham, Bury Saint Edmunds, Suffolk IP28, UK","52.32690299999999","0.597122000000013","","None","None","1780","606","blade 43","","694.56","Gone","Cleaned","blade 6","Weight 24 1/2 oz = 694.56 gms","Bronze","","Very much cleaned up. Bevel of blade nearly obliterated. Six rivet holes","S.I.A. Vol. I, p. 24; Vol. VI, p. 190","","Joellen mcGann","https://www.flickr.com/photos/115096994@N02/22823763590","https://farm1.staticflickr.com/574/22823763590_3c302cd7fe_m.jpg","superuser",0.5971,52.3269,"SwordsPt2"
"50126","433","Sword Fragment","IIIb","Bought (March 1938) by E. H. Budd of 8 Buskey Court, Hampton Wick,at Sotheby's","England,Suffolk,Kenny Hill,1932","Kenny Hill, Bury Saint Edmunds, Suffolk IP28, UK","52.39325100000001","0.4469980000000078","","None","None","1932","","","","60","greyish-green","Smooth + good condition","","","","","Section of sword blade, broken across the hilt and near the middle of the blade. Straight shoulders, with two rivet-holes in each. Short ricasso notch; edges of blade fairly sharp, small chip out of one edge; irregular fractures where hilt and blade are broken.","","","Joellen mcGann","https://www.flickr.com/photos/115096994@N02/22823763280","https://farm6.staticflickr.com/5642/22823763280_041fd22938_m.jpg","superuser",0.447,52.3933,"SwordsPt2"
"50127","433","Sword (portion)","IIIa","Museum of Archaeology, Cambridge,(Rev. S. Banks)","England,Suffolk,Mildenhall","Mildenhall, Bury Saint Edmunds, Suffolk IP28, UK","52.347568","0.5156094999999823","","None","None","None","196.5","blade 31; hilt 61.5","","217","dark brown patina rust colour round rivet holes + hilt.","Smooth + dull","7","","","","4 Rivet holes. 1 Rivet","Prehistoric Bronzes 141, no catalogue,Foster Bequest, 235. The numbers do not correspond in the catalogue.,Presumably that referred to in Prigg 1888, 191: ""Another example was obtained from near Mildenhall in 1851, by the Cambridge Antiquarian Society, but further than ""it was broken in half"" no particulars of its form or dimension are given.""","","Joellen mcGann","https://www.flickr.com/photos/115096994@N02/22823762570","https://farm1.staticflickr.com/774/22823762570_d6801ceaec_m.jpg","superuser",0.5156,52.3476,"SwordsPt2"
"50128","433","Leaf Shaped Sword","IVa","Ipswich Museum,Christchurch Museum Collection,No. 1920.51.45","England,Suffolk,R. Orwell,(raised by the ""Dredger Brinell"")","River Orwell, United Kingdom","52.0006962","1.2212759000000233","","None","None","None","635","hilt plate 45, 44; blade 43, 26","","596","Dull green patina + bronze","","15 hilt; 6 plate (at section)","","Bronze","","Good condition. Slightly bent + twisted","","","Joellen mcGann","https://www.flickr.com/photos/115096994@N02/23155510631","https://farm6.staticflickr.com/5703/23155510631_a84a8a72a7_m.jpg","superuser",1.2213,52.0007,"SwordsPt2"
"50129","433","Leaf Shaped Sword","IIIb,?Assoc. human bones","Norwich Castle Museum,Fitch Collection, 785.76-94,Cat. of Antiqs. No. 318","England,Suffolk,Wetheringsett","Wetheringsett, Stowmarket, Suffolk IP14, UK","52.25755299999999","1.1150330000000395","","None","None","None","645","blade 50, blade 39; hilt 60, 20, 16, 31","","760","","","8, 9","","Bronze","","Central rounded rib along blade + engraved lines on hilt.","Arch. Assoc. Journal, Vol. iii (1848), p. 254 + Vol. XV (1859) pl. xxiii, p. 230 fig. 4,Evans' B. Imps (1881), fig. 345, p. 282","Discovered by clay diggers about 14' deep with it a great number of human bones but no pottery or other remains.","Joellen mcGann","https://www.flickr.com/photos/115096994@N02/22521222644","https://farm1.staticflickr.com/725/22521222644_b405a81953_m.jpg","superuser",1.115,52.2576,"SwordsPt2"
"50130","433","Leaf Shaped Sword","IVa","Norwich Castle Museum,Cat. of Antiqs. No. 318,Donor Sir Thomas Beevor Bt. 72.47,Moved to Moyses Hall Museum, Bury St. Edmunds,(letter 27 Oct. 1958)","England,Suffolk,Woolpit","Woolpit, Bury Saint Edmunds, Suffolk IP30, UK","52.2247577","0.8879366999999547","","None","None","None","545","blade 37; hilt 34, 47, 18, 15, 39","","589","","","blade 7; hilt 9","","Bronze","","7 Rivet holes.","Procs. Arch. Inst. Norwich, 1847, p. xxxvi,Evans B. Impls. (1881) p. 281,Prigg, 1888, 191","","Joellen mcGann","https://www.flickr.com/photos/115096994@N02/22522719283","https://farm6.staticflickr.com/5669/22522719283_796268f68a_m.jpg","superuser",0.8879,52.2248,"SwordsPt2"
