"taskID","userID","objectType","rightCorner","collection","site","toSearch","Lat","Lon","gridRef","dateDiscoveryDay","dateDiscoveryMonth","dateDiscoveryYear","length","width","edge","weight","patina","surface","thickness","other","composition","associations","description","publications","remarks","inputBy","imageURL","flickrURL","Processing","lon","lat","project"
"46655",,,,,,,,,,,,,,,,,,,,,,,,,,,"https://www.flickr.com/photos/115096994@N02/21784939356",,"merged",,,"SwordsPt1"
"46656","580","Leaf shaped Sword","IVa","Manx Museum, Isle of Man,1","Isle of Man,Berrag,Jurby","Jurby, ÃŽle de Man","54.35903","-4.5200589999999465","","None","None","None","614","hilt plate 45; 25; 55,blade 47","","1056.03","","","5; 8; 7.5","","Cu. 81.70; St. 11.20; Pb. 6.15; Fe. 0.17; Zc. 0.50,99.72","","A faintly marked rounded median-ridge sinking gradually from the hiltend, with shallow fluting along the edges. 7 Rivet holes, one contains remains of rivet.","","","Denis Antoine","https://www.flickr.com/photos/115096994@N02/21784941446","https://farm1.staticflickr.com/704/21784941446_3162ce1136_m.jpg","superuser",-4.5201,54.359,"SwordsPt1"
"46657","580","Leaf shaped Sword (portion)","IIIc","Dover Museum,presented by Rev. W. Vallance.","England,Kent,Sittingbourne,16th Jan. 1862","Sittingbourne, Sittingbourne, Kent, Royaume-Uni","51.340402","0.7315959999999677","","16","1","1862","194","blade 21.5,hilt 43; 19.5","","141.75","a little green patina but blade is mostly golden bronze.","fairly smooth. Hilt slightly corroded.","blade 6.75","","","Found in an urn with 6 bronze rings measuring from 1 1/2 - 2 1/4 cms in diameter.","four of the holes are filed. There are no rivets attached.","C. Roach Smith Collectanea Antiqua I, 1848, pp. 101-102","Originally 3 pieces found.,Three feet away was another urn containing 4 Sock. Axes.,JCM","Denis Antoine","https://www.flickr.com/photos/115096994@N02/21623209358","https://farm6.staticflickr.com/5755/21623209358_681bd10c57_m.jpg","superuser",0.7316,51.3404,"SwordsPt1"
"46658","580","Sword Fragment","Frag.","Mr. Lemmon, Saltwood","England,Kent,Saltwood,Hayne Wood, on line of railway, cutting, 6 ft. below surface, lying on stratum of sand, c. 25 yards N.E. by N. of summit of hill. Found June 4, 1872? (Kent LXXIV. NE.)","Saltwood, Kent, Royaume-Uni","51.0857408","1.0688129000000117","","4","6","1872","40","42","","52","green & brown","smooth","9","","","Part of a large hoard; see card for first sword fragment.","Fragment of shoulders; rivet holes torn; on each side of mid rib are three incised lines on one face of blade, on the other face (drawn in sketch) in out side of midrib are four incisions.","Evans,Journ. Anthrop. Inst. III 230.,Ant. Journ. XXX, 279.,Jessup. Arch. of Kent, 107.","","Denis Antoine","https://www.flickr.com/photos/115096994@N02/21189998303","https://farm6.staticflickr.com/5741/21189998303_41eb9dc678_m.jpg","superuser",1.0688,51.0857,"SwordsPt1"
"46659","433","Sword Fragment/Shoulder Fragment","IVa","Folkstone Museum","England,Kent,Saltwood,Hayne Wood, on line of railway cutting 6 ft below surface, lying on stratum of sand c. 25 yards NE by N of summit of hill,Found June 4, 1872","Saltwood, Hythe, Hythe, Kent CT21, UK","51.078072","1.0757059999999683","Kent LXXIN NE","4","6","1872","101","49.5","","113","Green brown, mostly green.","Rather rough.","6 across blade section","","","Part of a large hoard; now consisting of: 5 socketed celts; 16 fragments of socketed celts; 2 spearheads V; 2 spearhead fragments; 14 sword fragments; 2 sicket fragments; 2 socketed knife fragments; 3 bracelet fragments; 1 socketed gouge; 1 looped mount; 1 chape; 1 chisel; 1 disc; miscasting of a socket; 1 linch pin; 14 lumps; and some pieces now missing, see Evans & Arch. Journ. XXX","Fragment consisting of part of hilt, shoulders, and part of blade. Hilt broken across a rivet hole, below is another with rivet still in place. Two rivet holes in each shoulder, one of them being stopped up. Shoulders straight; except for a slight rounding at their points, Ricasso notches. Blade broken off 10mm below ricasso notches. Hilt is irregularly cast.Traces of wood still adhering round rivet in hilt","Arch. Journ. XXX, 279,Evans,Journ. Anthrop. Inst. III, 230,Jessup, Arch. of Kent, 107","","Joellen mcGann","https://www.flickr.com/photos/115096994@N02/21799291782","https://farm1.staticflickr.com/616/21799291782_e68b31b234_m.jpg","superuser",1.0757,51.0781,"SwordsPt1"
"46660","433","Fragment of Sword Hilt","Frag","Mr. Lemmon, Saltwood","England,Kent,Saltwood,Hayne Wood, on line of railway cutting 6 ft. below surface, lying on stratum of sand, c. 25 yards NE by N of summit of hill. Found June 4, 1872","Saltwood, Hythe, Hythe, Kent CT21, UK","51.078072","1.0757059999999683","Kent LXXIV NE","4","6","1872","53","25","","40","Greyish green patina","Smooth","","","","Part of a large hoard; see card for first sword fragment.","Part of hilt. Two rivet holes, below the second is a slight central thickening; slight flanges along the edge. The whole is slightly bent.","Arch. Journ. XXX 278,Evans,Jessup, Arch. of Kent, 107,Journ. Anthrop. Instit. III, 230","","Joellen mcGann","https://www.flickr.com/photos/115096994@N02/21799292792","https://farm6.staticflickr.com/5821/21799292792_33d4873e1e_m.jpg","superuser",1.0757,51.0781,"SwordsPt1"
"46661","433","Sword Fragment","IVa","Mr. Lemmon, Saltwood","England,Kent,Saltwood,Hayne Wood, on line of railway cutting, 6 ft. below surface, lying on stratum of sand, c. 25 yards NE by N of summit of hill. Found June 4, 1872","Saltwood, Hythe, Hythe, Kent CT21, UK","51.078072","1.0757059999999683","Kent LXXIV NE","4","6","1872","83","48 across shoulders","","80","Green & brown","Mostly smooth.","5","","","Part of large hoard; see card for first sword fragment.","Fragment consisting of shoulders & upper part of blade. Cutting edges of blade chipped & blunt; ricasso notches, one almost completely broken away. Rivet hole in each shoulder, above the rivet was there develop slight flanges to the hilt-piece; mid rib extending the whole length of the fragment. Considerably bent.","Arch. Journ. XXX, 279,Evans,Jessup, Arch. of Kent, 107,Journ. Anthrop. Inst. III, 230","","Joellen mcGann","https://www.flickr.com/photos/115096994@N02/21623213258","https://farm1.staticflickr.com/608/21623213258_58db0ebd3a_m.jpg","superuser",1.0757,51.0781,"SwordsPt1"
"46662","433","Sword","IIa","Mr. H. Baze (1952),In 1958 in the possession of Alec who kept a whelk stall at Dymchurch","Kent,Folkstone,East Wear Bay, dredged 40 yards off shore; off site Roman Villa,April or May 1951","Folkestone, Kent, UK","51.081397","1.1694559999999683","","None","5","1951","625.48","","","","","","","Length: 24 5/8"" = 625.48mm","","","Immediately below the outer rivet-hole on each side, a small raised feature of semi-circular section (it is too ill-defined to rank properly as a beading or moulding) curves inwards for a couple of inches, after which it tapers away? J.D.C.","Arch. Cont. LXV, 90ff","DF(S)","Joellen mcGann","https://www.flickr.com/photos/115096994@N02/21811105105","https://farm6.staticflickr.com/5752/21811105105_cd1037de0a_m.jpg","superuser",1.1695,51.0814,"SwordsPt1"
"46663","433","Hilt of Sword","IVa","Dover Museum","England,Kent,Dover,Buckland Brick Field","Dover, Kent, UK","51.1278758","1.3134026999999833","","None","None","None","78","42, 22, 24","","49.59","No patina","Fairly smooth, very slight encrustment, good deal of golden bronze showing, clay or sand nearly all over.","6, 1","","","Dug up with a number of celts & fragments","","","","Joellen mcGann","https://www.flickr.com/photos/115096994@N02/21799295622","https://farm1.staticflickr.com/582/21799295622_d9a5b5f1a3_m.jpg","superuser",1.3134,51.1279,"SwordsPt1"
"46664","433","Sword","","Twickenham Gravel Co., Lts.,The Wilderness, Blackheath, near Camberley, Surrey,(Shown to London Museum, Dec. 1962)","Kent,Darenth,in bed of old course of river Darenth, near existing bridge,September 1962","Darenth, Dartford, Kent, UK","51.4194914","0.24185869999996612","TQ.5606.7006","None","9","1962","608","","","","","","","","","","Blade has somewhat flattened, mid-rib and bevelled edges. On each face a slight groove follows the outline of the blade until it converges on the mid-rib about 6 cm. from point. On each face surface of metal changes on semi-circular line immediately below hilt. Hilt broken and sword corroded.","","","Joellen mcGann","https://www.flickr.com/photos/115096994@N02/21624208529","https://farm6.staticflickr.com/5736/21624208529_c2edb331b4_m.jpg","superuser",0.2419,51.4195,"SwordsPt1"
"46665","433","Leaf-shaped Sword","IVa","Museum of Archaeology, Cambridge","England,Kent,Bromley,1873","Bromley, Greater London, UK","51.406025","0.01315599999998085","","None","None","1873","598","blade 40; end of hilt 38","","646","Shades of green","","blade 7.5","","","Found with another","20 rivet holes instead of slot, one containing a rivet 4 other rived holes one being broken into. Two beads along the cutting edge.","Preshistoric Bronzes 145, No catalogue,Foster Bequest, 236. The numbers do not correspond in the catalogue.,R.F. Jessup, 'Kent', 105-253.","","Joellen mcGann","https://www.flickr.com/photos/115096994@N02/21811109145","https://farm1.staticflickr.com/645/21811109145_1eddcb881b_m.jpg","superuser",0.0132,51.406,"SwordsPt1"
"46666","433","Leaf Shaped Sword, Shoulder Frag.","IIc","Herts. County Museum, St. Albans,Lent by Mr. F. F. Fossey","England,Herts,Rushden,Cumberlow Green","Cumberlow Green, Buntingford, Hertfordshire SG9, UK","51.958025","-0.10794199999998","","None","None","None","116.5","hilt 22, 49; blade 40, 27","","163","Greeny bronze patina","Smooth","9.5, 8","","","A founder's hoard of 6 - 2 pieces of  L.S. Swords, a winged celt. 2 socketed celts & a palstave.","","","","Joellen mcGann","https://www.flickr.com/photos/115096994@N02/21624211779","https://farm6.staticflickr.com/5742/21624211779_f93c369c2e_m.jpg","superuser",-0.1079,51.958,"SwordsPt1"
"46667","433","Sword Fragment","IVa","Cambridge, Museum of Archaeology and Ethnology,23.116","England,Herts.,Rushden,Cumberlow Green","Cumberlow Green, Buntingford, Hertfordshire SG9, UK","51.958025","-0.10794199999998","","None","None","None","","","","","","","","","","Cumberlow Green Hoard","","Evans, Bronze Impls. 94,J.R.A.I. VI, 195","","Joellen mcGann","https://www.flickr.com/photos/115096994@N02/21820607761","https://farm1.staticflickr.com/666/21820607761_8172e90d4c_m.jpg","superuser",-0.1079,51.958,"SwordsPt1"
"46668","433","Ballintober Leaf-shaped sword","C","Letchworth Museum, 6.4387.26, Hit","England,Hertfordshire,Hitchin,Gravel Pit off London Road, 1926","London Rd, Hitchin, Hertfordshire SG4, UK","51.9088332","-0.2528806999999915","","None","None","1926","342.9","35.56","","","","","5.08","Length: 13.5"" = 342.9; Width 1.4"" = 35.56; Thickness: 0.2"" = 5.08","","","Flaring shoulders and very slight bevel for blade. Midrib runs whole length. Two breaks are marked on drawing.","","","Joellen mcGann","https://www.flickr.com/photos/115096994@N02/21188366724","https://farm6.staticflickr.com/5796/21188366724_208d34a526_m.jpg","superuser",-0.2529,51.9088,"SwordsPt1"
"46669","433","Sword; Hilt Fragment + 1 Blade Fragment","IVa","Hereford Museum & Gallery,Acc. No. 1307/2","England,Herefordshire,Hereford,Fairoaks,(Found about 1888)","Hereford, Hereford, UK","52.05639799999999","-2.71597399999996","","None","None","1888","Pommel End 249","Pommel 40; Base of blade 49","","","Brown, traces of dark green.","","10 max","","","With 1307/1 (Dirk)","Surface pitted; edges much chipped. Casting fault at base of pommel.","","","Joellen mcGann","https://www.flickr.com/photos/115096994@N02/21624216029","https://farm6.staticflickr.com/5799/21624216029_e0b70e7e3c_m.jpg","superuser",-2.716,52.0564,"SwordsPt1"
"46670","433","Leaf Shaped Sword","IVa","Hereford Museum,Presented by E. E. Edwards, Esq. 1888","England,Herefordshire,Hereford,Fairoaks","Hereford, Hereford, UK","52.05639799999999","-2.71597399999996","","None","None","None","handle 251; blade 223","handle 49; blade 42","","","(Handle portion) Blackish patina some pockmarks. (Blade) smooth blackish patina showing golden in places.","","about 8","","","Found with a dirk.","Roughly made handle only very slightly flanged.","V.C.H. Herefordshire, i. p. 163 (fig)","","Joellen mcGann","https://www.flickr.com/photos/115096994@N02/21799307142","https://farm1.staticflickr.com/563/21799307142_1ac489dbe1_m.jpg","superuser",-2.716,52.0564,"SwordsPt1"
"46671","433","Sword Hilt","","LONDON, British Museum, 91.5-14.34","England,Hants,Selborne,Blackmoor,Woolmer Forest,1867,Hoard 111","Woolmer Forest, Hampshire, UK","51.0857837","-0.8658609000000297","","None","None","1867","245","27","","","","","","","","91.5-14.4-58,W.G. 2100-2112","","","ND 74","Joellen mcGann","https://www.flickr.com/photos/115096994@N02/21190014793","https://farm1.staticflickr.com/628/21190014793_546cbb07c7_m.jpg","superuser",-0.8659,51.0858,"SwordsPt1"
"46672","433","(2 pieces) Leaf Shaped Sword; Hilt Frag. + ? joining blade frag.","IVa","Earl of Selborne,1923,Blackmoor, Petersfield, Hants","England,Hampshire,Selborne,In garden of cottage on western side of road ascending from Eveley corner to Hogmoor.,Spring 1870","Selborne, Alton, Hampshire GU34, UK","51.0944591","-0.9385354999999436","","None","4","1870","208, 291","blade 33, 25; hilt 48, 29","","400","No patina","New bronze colour","blade 6, 7; hilt 4, 6","","","A hoard of at least 53 articles in 63 fragments, mostly swords, spearheads, ferrules & rings.","Damaged edges","White, G. Nat. Hist. of Selborne, Macmillan, 1876, 254-8,White, G., Nat. Hist. of Selborne, E. Bell, 1877, 381,Evans, A. B. Impl., 464","","Joellen mcGann","https://www.flickr.com/photos/115096994@N02/21623229478","https://farm1.staticflickr.com/704/21623229478_d67dbb7cd4_m.jpg","superuser",-0.9385,51.0945,"SwordsPt1"
"46673","433","Leaf Shaped Sword-Blade","","Earl of Selborne,Blackmoor, Petersfield, Hants.,No. 11, 1923","England,Hampshire,Selborne,In garden of a cottage on western side of road ascending from Eveley corner to Hogmoor.,Spring 1870","Selborne, Alton, Hampshire GU34, UK","51.0944591","-0.9385354999999436","","None","4","1870","265","33, 38","","185","Remains of dark green patina, bronze shows through, other parts a lightish brown, a very high glaze on parts of the blue (? green) & brown.","","1.5, 6, 5","","","A hoard containing at least 53 articles in 63 fragments, mostly swords, spearheads, ferrules & rings.","Edges badly hacked. Fracture shows no blow holes - bent near fracture, showing probably intentional fracture.","Whilte, Gilbert: Nat. Hist. of Selborne, Macmillan, 1876, 254-8,White, Gilbert: Nat. Hist. of Selborne, Ed. Bell,1877, 381.","","Joellen mcGann","https://www.flickr.com/photos/115096994@N02/21190018553","https://farm1.staticflickr.com/586/21190018553_149384c498_m.jpg","superuser",-0.9385,51.0945,"SwordsPt1"
"46674","433","Blade of Leaf-Shaped Sword","","Private Collection,1923 8,Lord Selborne,Blackmoor, Hants.","England,Hampshire,Selborne,In the garden of a cottage on western side of road ascending from Eveley corner to Hogmoor.,Spring 1870","Selborne, Alton, Hampshire GU34, UK","51.0944591","-0.9385354999999436","","None","4","1870","295","blade 42, 38","","280","Olive green, glazed on one side.","Remains of peaty encrustations on the side that has no glazed patina.","blade 7","","","Hoard of leaf-shaped swords, spearheads, ferrules & rings (53 articles in 63 fragments).","Good condition. The fracture shows same honeycombing.","Whites, Selborne, Macmillan, 1876, Vol. II, pp. 254-258, not illus.,Whites, Selborne, Bell, 1877, Vol. II. p. 381","","Joellen mcGann","https://www.flickr.com/photos/115096994@N02/21784967216","https://farm6.staticflickr.com/5767/21784967216_b8e7d12308_m.jpg","superuser",-0.9385,51.0945,"SwordsPt1"
"46675","433","Leaf shaped sword; hilt frag.","IIIc","Earl of Selborne,Blackmoor, Petersfield, Hants.,No. 18, 1923","England,Hampshire,Selborne,In garden of a cottage on the western side of the road, ascending from Eveley corner to Hogmoor.,Spring 1870","Selborne, Alton, Hampshire GU34, UK","51.0944591","-0.9385354999999436","","None","4","1870","290","32 blade; 44, 39 hilt","","?","With remains of patina dark green.","Natural bronze colour.","blade 6","","","A hoard containing at least 53 articles in 63 fragments, mostly swords, spearheads, ferrules, & rings.","Edges damaged. The piece was bent in breaking. Central rib is defined by two deeply sunk lines.","White, Gilbert, Nat. Hist. of Selborne, 1876, 254-8,White, Gilbert, Nat. Hist. of Selborne, Ed. Bell 1877, 381,Evans, B. Imps, 464","","Joellen mcGann","https://www.flickr.com/photos/115096994@N02/21820623021","https://farm6.staticflickr.com/5811/21820623021_f7479f6e7a_m.jpg","superuser",-0.9385,51.0945,"SwordsPt1"
"46676","433","Leaf shaped sword; Hilt frag.","IIIc","Earl of Selborne,Blackmoor, Petersfield, Hants.,No. 17, 1923","England,Hampshire,Selborne,In the gargen of a cottage on the western side of the road ascending from Eveley corner to Hogmoor.,Spring 1870","Selborne, Alton, Hampshire GU34, UK","51.0944591","-0.9385354999999436","","None","4","1870","275","33, 38, 55","","355","","Mostly natural bronze colour, highly glazed","1.5, 7.5, 5. 3","","","A hoard containing at least 53 articles in 63 fragments, mostly swords, spearheads, ferrules & rings.","Very good pieces in quality - edges hacked - beat up at fracture.","White, Gilbert: Nat. Hist. of Selborne, Macmillan, 1876, 254-8.,White, Gilbert: Nat. Hist of Selborne, Ed. Bell, 1877, 381,Evans, B. Imps., 464","","Joellen mcGann","https://www.flickr.com/photos/115096994@N02/21820625371","https://farm1.staticflickr.com/673/21820625371_9cc2967822_m.jpg","superuser",-0.9385,51.0945,"SwordsPt1"
"46677","433","Leaf-shaped sword; Hilt. Frag.","IVa","Private Collection,1923,Lord Selborn, Blackmoor, Hants.,16","England,Hampshire,Selborne,In the garden of a cottage on western side of road ascending from Eveley corner to Hogmoor.,Spring 1870","Selborne, Alton, Hampshire GU34, UK","51.0944591","-0.9385354999999436","","None","4","1870","312","blade 35, 30; hilt 42, 40","","215","Dirty dark green, bronze shows through.","","5, 3.5, 1.5","","","Hoard of leaf-shaped swords, spearheads, a dagger, rings (at least 53 articles in 63 fragments).","Blow holes at fracture. Edges hacked One rivet loose in slot & two others in broader part of hilt.","White, Selborne, Macmillan, 1876, Vol. II, pp. 254-258,White, Selborne, Bell, 1877, Vol. II, 381,Evan's, A. B. Imps., p. 44","","Joellen mcGann","https://www.flickr.com/photos/115096994@N02/21799320002","https://farm6.staticflickr.com/5709/21799320002_c1bdb4000f_m.jpg","superuser",-0.9385,51.0945,"SwordsPt1"
"46678","433","Leaf Shaped Sword; Hilt Frag.","IVa","Private Collection, 1923,Lord Selborne,Blackmoor, Hants,15","England,Hampshire,Selborne,In the garden of a cottage on western side of road ascending from Eveley corner to Hogmoor.,Spring 1870","Selborne, Alton, Hampshire GU34, UK","51.0944591","-0.9385354999999436","","None","4","1870","320","hilt 55, 35; blade 44","","430","Polished light grey","Caked carbonate on hilt. ? Pitted along blade (described in original as ""a mass of points for ornament"" ""extending the full length withour any definite arrangement in lines"")","where blade joins hilt 1.5, 9.5, 5","","","Hoard of leaf shaped swords, spearheads, 1 dagger & some rings, also ferrules (53 articles in 63 fragments).","2 rivets near end of hilt & 1 loose in hole near c. This is bent, probably in breaking. A strong mid-rib.","White's Selborne, Macmillan, 1876, Vol. II, pp. 254-258.,White's Selborn Bell, 1877, Vol. II, p. 381,Evans' A. B. Imps., p. 464","","Joellen mcGann","https://www.flickr.com/photos/115096994@N02/21820629471","https://farm1.staticflickr.com/642/21820629471_88e9b42f6a_m.jpg","superuser",-0.9385,51.0945,"SwordsPt1"
"46679","433","Blade of Leaf-Shaped Sword","","Private Collection,1923,9,Earl of Selborne,Blackmoor, Petersfield, Hants.","England,Hampshire,Selborne,In garden of cottage on western side of road ascengin from Everley corner to Hogmoor.,Spring 1870","Selborne, Alton, Hampshire GU34, UK","51.0944591","-0.9385354999999436","","None","4","1870","165","blade 37","","170","Remains of dark green - otherwise light bronze colour.","","6.5, 6","","","A hoard containing at least 53 articles in 63 fragments, mostly swords, spearheads, ferrules, & rings.","Edges damaged. Blow holes show at fracture.","White, G., Nat. Hist. of Selborne, Macmillan, 1876, 254-8,White, G., Nat. Hist. or Selborne, Bell, 1877, 281","","Joellen mcGann","https://www.flickr.com/photos/115096994@N02/21623085050","https://farm1.staticflickr.com/633/21623085050_206a34e55a_m.jpg","superuser",-0.9385,51.0945,"SwordsPt1"
"46680","433","Fragment of Leaf Shaped Sword","","Earl of Selborne,Blackmoor, Petersfield, Hants.,No. 21, 1923","England,Hampshire,Selborne,In garden of a cottage on western side of the road ascending from Eveley corner to Hogmoor.,Spring 1870","Selborne, Alton, Hampshire GU34, UK","51.0944591","-0.9385354999999436","","None","4","1870","65","25, 36","","31","dark green","","","","","A hoard containing at least 53 articles in 63 fragments, mostly swords, spearheads, ferrules, & rings.","","White, Gilberts: Nat. Hist. of Selborne, Macmillan, 1876, 254-8,White, Gilbert: Nat. HIst. of Selborne, Ed. Bell, 1877, 281","","Joellen mcGann","https://www.flickr.com/photos/115096994@N02/21811136005","https://farm1.staticflickr.com/724/21811136005_a983c7ac8d_m.jpg","superuser",-0.9385,51.0945,"SwordsPt1"
"46681","433","Fragment of Leaf shaped sword","","Earl of Selborne,Blackmoor, Petersfield, Hants.,No. 20, 1923","England,Hampshire,Selborne,In the garden of a cottage on the western side of the road ascending Eveley corner to Hogmoor.,Spring 1870","Selborne, Alton, Hampshire GU34, UK","51.0944591","-0.9385354999999436","","None","4","1870","110","25, 30","","75","","bronze colour","4, 5","","","A hoard containing at least 53 articles in 63 fragments, mostly swords, spearheads, ferrules, & rings.","","White, Gilbert: Nat. Hist of Selborne, Macmillan, 1876, 254-8,White, Gilbert: Nat. Hist. of Selborne, Ed. Bell, 1877, 381","","Joellen mcGann","https://www.flickr.com/photos/115096994@N02/21784979696","https://farm1.staticflickr.com/777/21784979696_9ed9f2b727_m.jpg","superuser",-0.9385,51.0945,"SwordsPt1"
"46682","433","Part of Leaf-Shaped Sword","","Earl of Selborne,Blackmoor, Petersfield, Hants,No. 19, 1923","England,Hampshire,Selborne,In garden of a cottage on western side of road ascending from Eveley corner to Hogmoor.,Spring 1870","Selborne, Alton, Hampshire GU34, UK","51.0944591","-0.9385354999999436","","None","4","1870","160","blade 40","","95","dark green and bronze colour","","","","","A hoard containing at least 53 articles in 63 fragments, mostly swords, spearheads, ferrules & rings.","","White, Gilbert: Nat. Hist. of Selborne, Macmillan, 1876, 254-8,White, Gilbert: Nat. Hist of Selborne, Ed. Bell. 1877, 381","","Joellen mcGann","https://www.flickr.com/photos/115096994@N02/21190035263","https://farm1.staticflickr.com/568/21190035263_ff8ed96057_m.jpg","superuser",-0.9385,51.0945,"SwordsPt1"
"46683","433","Blade fragment of Leaf Shaped Sword","","Earl of Selborne,Blackmoor, Petersfield, Hants.,No. 12, 1923","England,Hampshire,Selborne,In garden of a cottage on western side of road ascending from Eveley corner to Hogmoor.,Spring 1870","Selborne, Alton, Hampshire GU34, UK","51.0944591","-0.9385354999999436","","None","4","1870","195","34, 43","","200","Dirty dark green","","5, 7","","","A hoard containing at least 53 articles in 63 fragments, mostly swords, spearheads, ferrules and rings.","Edges hacked.","White, Gilbert: Nat. Hist. of Selborne, Macmillan, 1876, 254-8,White, Gilbert: Nat. Hist. of Selborne, Ed. Bell, 1877, 381","","Joellen mcGann","https://www.flickr.com/photos/115096994@N02/21623248618","https://farm6.staticflickr.com/5692/21623248618_4cdc3080be_m.jpg","superuser",-0.9385,51.0945,"SwordsPt1"
"46684","433","Hilt of Leaf-Shaped Sword; Hilt Frag","IIIC","Earl of Selborne,Blackmoor, Petersfield, Hants.,No. 14, 1923","England,Hampshire,Selborne,In garden of a cottage on western side of road ascending from Eveley corner to Hogmoor.,Spring 1870","Selborne, Alton, Hampshire GU34, UK","51.0944591","-0.9385354999999436","","None","4","1870","150","31, 45, 25","","125","A hoard containing at least 53 articles in 63 fragments, mostly swords, spearheads, ferrules & rings.","HArd dark green patina with a sheen of lighter green over it, bronze shows through.","8","","","","","White, Gilbert: Nat. Hist. of Selborne, Macmillan, 1876, 254-8.,White, Gilbert: Nat. Hist. of Selborne, Ed. Bell, 1877, 381,Evans, B. Imps. 464","","Joellen mcGann","https://www.flickr.com/photos/115096994@N02/21799330882","https://farm6.staticflickr.com/5832/21799330882_0c361feba4_m.jpg","superuser",-0.9385,51.0945,"SwordsPt1"
"46685","433","Hilt of Leaf-shaped Sword/Hilt. Frag","IIIC","Earl of Selborne,Blackmoor, Petersfield, Hants.,No. 13,1923","England,Hampshire,Selborne,In garden of a cottage on western side of road ascending from Eveley corner to Hogmoor,Spring 1870","Selborne, Alton, Hampshire GU34, UK","51.0944591","-0.9385354999999436","","None","4","1870","150","35, 55, 33","","192","Remains of dark green patina, but mostly bronze colour, a high glase on part of both colours.","","9, 6.5, 2","","","A hoard containing at least 53 articles in 63 fragments mostly swords, spearheads, ferrules & rings.","Ornament of carefully made points, finishing with lines, on both sides.","White, Gilbert: Nat. Hist. of Selborne, Macmillan, 1876, 254-8,White, Gilbert: Nat. Hist. of Selborne, Ed. Bell, 1877, 381,Evans, B. Imps., 464","","Joellen mcGann","https://www.flickr.com/photos/115096994@N02/21190038843","https://farm1.staticflickr.com/652/21190038843_29e073082f_m.jpg","superuser",-0.9385,51.0945,"SwordsPt1"
"46686","433","Hilt of Leaf-Shaped Sword/Hilt Frag.","IIIc","Earl of Selborne,Blackmoor, Petersfield, Hants.,No. 10, 1923","England,Hampshire,Selborne,In garden of a cottage on western side of road ascending from Eveley corner to Hogmoor,Spring 1870","Selborne, Alton, Hampshire GU34, UK","51.0944591","-0.9385354999999436","","None","4","1870","175","30, 50, 30","","190","Green patina, dirty","","1.5, 6.5, 8","","","A hoard containing at least 53 articles in 63 fragments, mostly swords, spearheads, ferrules & rings.","Edges hacked. Fracture coarse, but blow holes.","White, Gilberts: Nat. Hist. of Selborne, Macmillan, 1876, 254-8.,White, Gilberts: Nat. Hist. of Selborne, Ed. Bell, 1877, 381,Evans, B. Imps., 464","","Joellen mcGann","https://www.flickr.com/photos/115096994@N02/21624244369","https://farm6.staticflickr.com/5810/21624244369_1f638956c9_m.jpg","superuser",-0.9385,51.0945,"SwordsPt1"
"46687","433","Leaf-Shaped Sword/Shoulder Frag.","IIIc","Private Collection,1923,Earl Selborne,Blackmoor, Petersfield, Hants.,7","England,Hampshire,Selborne,In garden of a cottage on western side of road ascending from Eveley corner to Hogmoor,Spring 1870","Selborne, Alton, Hampshire GU34, UK","51.0944591","-0.9385354999999436","","None","4","1870","229","blade 38, 35; hilt 56","","325","Dark green","","blade 8, 6, 1.5 (edge of blade)","","","A hoard of at least 53 articles in 63 fragments, mostly swords, spearheads, ferrules, & rings.","Bent near fracture. 3 Rivets.","G. White's, Nat. Hist. of Selborne, Macmillan, 1876, 254-8.,G. White's, Nat. Hist. of Selborne, E. Bell, 1877, 381,Evans, 464","","Joellen mcGann","https://www.flickr.com/photos/115096994@N02/21820641371","https://farm6.staticflickr.com/5641/21820641371_e043083878_m.jpg","superuser",-0.9385,51.0945,"SwordsPt1"
"46688","433","2 pieces Leaf Shaped Sword/2 ? Joining Frags.","IVa","Private Collection,1923,Earl of Selborne,Blackmoor, Petersfield, Hants.,6","England,Hampshire,Selborne,In garden of a cottage on western side of road ascending from Eveley corner to Hogmoor,Spring 1870","Selborne, Alton, Hampshire GU34, UK","51.0944591","-0.9385354999999436","","None","4","1870","505","blade 38, 29; hilt 47; hilt 32","","355","Remains of dark green - bronze shows through","","5.5, 4","","","A hoard of at least 53 articles in 63 fragments, mostly swords, spearheads, ferrules & rings.","Edges damaged. Defective butt.","White, G.: Nat. Hist. of Selborne, Macmillan, 1876, 254-8.,White, G.: Nat. Hist of Selborne, Ed. Bell, 1877, 381,Evans, 464","","Joellen mcGann","https://www.flickr.com/photos/115096994@N02/21623099270","https://farm6.staticflickr.com/5707/21623099270_be637fcf92_m.jpg","superuser",-0.9385,51.0945,"SwordsPt1"
"46689","433","Two Pieces Leaf-shaped sword/Hilt Half & 1 Blade Frag.","IIIa","Private Collection,1923,Lord Selborne,Blackmoor, Hants,5","England,Hampshire,Selborne,In garden of a cottage on western side of road ascending from Eveley corner to Hogmoor,Spring 1870","Selborne, Alton, Hampshire GU34, UK","51.0944591","-0.9385354999999436","","None","4","1870","274, 381","blade 50, 42, 38; hilt 59, 24","","1085","Dark green, bronze shows through.","","10, 7","","","Hoard of leaf shaped swords, spearheads, 1 dagger, & some rings, also ferrules (53 articles in 63 fragments).","This is bent up. Edges hacked - hacked gaps are patinated.","White's, 'Selborne', Macmillan, 1876, Vol. II, pp. 254-8, illus.,White's 'Selborne"", Bell, 1877, Vol. II, p. 381,Evans, A. B. Imps., p. 464","","Joellen mcGann","https://www.flickr.com/photos/115096994@N02/21811151565","https://farm6.staticflickr.com/5761/21811151565_84690a7d72_m.jpg","superuser",-0.9385,51.0945,"SwordsPt1"
"46690","433","Two pieces Leaf-shaped Sword/Hilt. Half & 1 Blade Frag.","IIIc","Private Collection,Earl Selborne,Blackmoor, Petersfield, Hants, 1923,No. 4","England,Hampshire,Selborne,In garden of a cottage on western side of road ascending from Eveley corner to Hogmoor,Spring 1870","Selborne, Alton, Hampshire GU34, UK","51.0944591","-0.9385354999999436","","None","4","1870","244, 386","blade 48, 27, 32; hilt 57, 37","","630 & 868","Polished dark green, bronze shows through.","","blade 8","","","A hoard of at least 53 articles in 63 fragments, mostly swords, spearheads & ferrules & rings.","Bent up in half moon shape. Edges damaged.","White, G.: Nat. Hits. Selborne, Macmillan, 1876, 254-8.,White, G.: Nat. Hist. Selborne, E. Bell, 1877, 381,Evans, A. B. Imps, 464","","Joellen mcGann","https://www.flickr.com/photos/115096994@N02/21623103880","https://farm6.staticflickr.com/5830/21623103880_3ddabc0422_m.jpg","superuser",-0.9385,51.0945,"SwordsPt1"
"46691","433","(2 pieces) Leaf-shaped Sword/2 joining (?) halves","IIIa","Private Collection,1923,Lord Selborne,Blackmoor, Hants.,3","England,Hampshire,Selborne,In garden of a cottage on western side of road ascending from Eveley corner to Hogmoor,Spring 1870","Selborne, Alton, Hampshire GU34, UK","51.0944591","-0.9385354999999436","","None","4","1870","252, 364","blade 50, 42, 36; hilt 52, 24","","666","Greenish black - bronze shows through.","","blade 8, 4, 2","","","A hoard of at least 53 articles in 63 fragments, mostly swords, spearheads, ferrules, & rings.","On one side of hilt is a deep hollow (& flanges on edges as usual). Edges damaged.","White's Selborne, Macmillan, 1876, Vol. II, pp. 254-258, illusd.,White's Selborne, Bell, 1877, Vol. II, p. 381,Evans, p. 464","","Joellen mcGann","https://www.flickr.com/photos/115096994@N02/21784997756","https://farm6.staticflickr.com/5773/21784997756_1e2d5d21e5_m.jpg","superuser",-0.9385,51.0945,"SwordsPt1"
"46692","433","Two Pieces Leaf-Shaped Sword/Two Joining (?) Halves","III","Private Collection,1923,Lord Selborne,Blackmoor, Hants,2","England,Hampshire,Selborne,In garden of a cottage on western side of road ascending from Eveley corner to Hogmoor,Spring 1870","Selborne, Alton, Hampshire GU34, UK","51.0944591","-0.9385354999999436","","None","4","1870","525","blade 40, 28; hilt 45, 21, 28","","370","No patina.","More bronze colours where clean - part is dirty.","blade 6; hilt 3, flange 7","","","Hoard of leaf shaped swords, spearheads, ferrules & rings (53 articles in 63 fragments).","Midrib continues to slot in hilt. 3 Rivets.","White's Selborne, Macmillan, 1876, Vol. II. pp. 254-258,White's Selborne, Bell, 1877, Vol. II, p. 381,Evan, p. 464","","Joellen mcGann","https://www.flickr.com/photos/115096994@N02/21190053723","https://farm1.staticflickr.com/760/21190053723_bbdc325635_m.jpg","superuser",-0.9385,51.0945,"SwordsPt1"
"46693","433","Sword, leaf-shaped","IVa","Curtis Museum, Alton: Acc. No. 1952.149,Donor: A. M. Munday, Esq., Alton","Hampshire,Kingsley,Kingsley Common,Found 1926: dug up by donor","Kingsley Common, Bordon, Hampshire GU35, UK","51.138825","-0.8685755999999856","Hampshire 36 SW","None","None","1926","256.54","","","","","","","Length: 10.1 ins = 256.54mm","","","Lower half of blade broken off presumably, re-shaped to a point at a later date.","The Frields of the Curtis Museum, Annual Report 1952, p. 4 and 18.","","Joellen mcGann","https://www.flickr.com/photos/115096994@N02/21623267258","https://farm1.staticflickr.com/620/21623267258_9fa6e91331_m.jpg","superuser",-0.8686,51.1388,"SwordsPt1"
"46694","433","Leaf Shaped Sword","IIIc","Winchester Museum, 121,Donor W. H. Deverell,July 1894","England,Hampshire,Houghton,Between Horsebridge Station & Bossington House near Roman road from Winchester to Old Sarum. Dug out of the peat in a meadow.","Houghton, Stockbridge, Hampshire SO20, UK","51.088924","-1.510432000000037","","None","None","None","594","hilt 27, 50; blade 37","","","Dirty brown - waterworn.","Removed in places showing dull light green beneath.","blade 6","","","Found with the end of scalbard.","","","Display, See new index.","Joellen mcGann","https://www.flickr.com/photos/115096994@N02/21188416134","https://farm6.staticflickr.com/5769/21188416134_ab907a3edf_m.jpg","superuser",-1.5104,51.0889,"SwordsPt1"
"46695","433","Sword","","Winchester, City Museum, 121","Hants,Houghton","Houghton, Stockbridge, Hampshire SO20, UK","51.088924","-1.510432000000037","","None","None","None","595","","","","","","","","","See also chape 121","Broken in two","","ND 74","Joellen mcGann","https://www.flickr.com/photos/115096994@N02/21623269898","https://farm1.staticflickr.com/728/21623269898_a253f6fe21_m.jpg","superuser",-1.5104,51.0889,"SwordsPt1"
"46696","433","Leaf Shaped Sword","IVb","Winchester Museum, 195,Dale Collection, 2","England,Hampshire,Eastleigh,Bishopstoke,Checkenhale,While digging the Bishopstoke Sewage Works at a depth of 12 feet in gravel,Nov. 1894","Bishopstoke, Hampshire SO50, UK","50.9683429","-1.3237987999999632","","None","11","1894","","","","751.27","Brown umber, slightly stained.","","","","","Found with an interment, the bones of which fell to powder on exposure.","Perfect condition, all rivets were in when found. They are preserved separately.","Proc. Hant. F. C., 1896, III, 865,Proc. Soc. Ant. (2nd ser.) XVX, 131.","Evans px. variance (S.W., in XXXgreen),Display. See new index.","Joellen mcGann","https://www.flickr.com/photos/115096994@N02/21811165795","https://farm6.staticflickr.com/5801/21811165795_7aa0192644_m.jpg","superuser",-1.3238,50.9683,"SwordsPt1"
"46697","433","Sword","","Winchester, City Museum, 195,Dale Collection 2","Hants,Eastleigh,Checkenhall,by Bishopstoke Sewage Works,""At depth of 12' in gravel, Nov. 1894.""","Eastleigh, Hampshire, UK","50.967182","-1.374687999999992","","None","11","1894","602","","","","","","","","","Report as found ""with inhumation"" in 1894","","","ND 74","Joellen mcGann","https://www.flickr.com/photos/115096994@N02/21799354052","https://farm1.staticflickr.com/770/21799354052_403bd0ea53_m.jpg","superuser",-1.3747,50.9672,"SwordsPt1"
"46698","433","3 Fragments of Leaf Shaped Sword/Shoulder frag. & 2 blade frags.","IIIb","Winchester Museum, 104.1-37,Dale Collection, No. 63,104.29, 104.30, 104.31","England,Hampshire,Andover,1 mile N.E. of Rly. Stn.","Andover, Andover, Hampshire, UK","51.2111975","-1.4919233000000531","","None","None","None","152, 120, 153","hilt 59, 19; blade 30, 35, 31, 34","","437","Brown","","blade 6","","","Part of a hoard of broken spearheads, scabbards, and a sword.","The hilt portion is bent at the blade end. Two of the rivet holes are partly filled.","Proc. S. A. L., 25, XXVI, 32, Dec. 1913","Inacc.,See new index","Joellen mcGann","https://www.flickr.com/photos/115096994@N02/21624268339","https://farm1.staticflickr.com/577/21624268339_1621cf684b_m.jpg","superuser",-1.4919,51.2112,"SwordsPt1"
"46699","433","Sword Frag.","","Winchester, City Museum, 19.11,(loan)","Hants.,Ashley,Ashley Wood","Ashley Wood, Stockbridge, Hampshire SO20, UK","51.0758983","-1.439559499999973","","None","None","None","","","","","","Green/brown","","","","1-20","","","Seen by Burgess 22/9/67,See new index","Joellen mcGann","https://www.flickr.com/photos/115096994@N02/21623275538","https://farm1.staticflickr.com/584/21623275538_84013b815b_m.jpg","superuser",-1.4396,51.0759,"SwordsPt1"
"46700","433","Sword, hilt frag.","","Winchester, City Museum, 19.11,On loan from Mrs. Browning,On loan from Mrs. Browning, Ashley Glebe Farm, King's Somborne","Hants.,Ashley,Ashley Wood","Ashley Wood, Stockbridge, Hampshire SO20, UK","51.0758983","-1.439559499999973","SU 33","None","None","None","194","37","","","","","","","","Founder's hoard, 19.1-26","","","Hoard mainly of buckled metal in poor condition.,ND75","Joellen mcGann","https://www.flickr.com/photos/115096994@N02/21623116730","https://farm6.staticflickr.com/5821/21623116730_2abbc4ae38_m.jpg","superuser",-1.4396,51.0759,"SwordsPt1"
"46701","433","Sword Hilt Frag.","","Winchester, City Museum, 19.5,On loan from Mrs. Browning, Ashley Glebe Farm, King's Somborne","Hants,Ashley,Ashley Wood","Ashley Wood, Stockbridge, Hampshire SO20, UK","51.0758983","-1.439559499999973","SU 33","None","None","None","69","38","","","","","","","","Founder's hoard, 19.1-20","","","Hoard is mainly buckled metal in poor condition.,ND75","Joellen mcGann","https://www.flickr.com/photos/115096994@N02/21811168565","https://farm1.staticflickr.com/753/21811168565_2086402894_m.jpg","superuser",-1.4396,51.0759,"SwordsPt1"
"46702","433","Sword Frag.","","Winchester, City Museum, 19.4,On loan from Mrs. Browning, Ashley Glebe Farm, King's Somborne","Hants.,Ashley,Ashley Wood","Ashley Wood, Stockbridge, Hampshire SO20, UK","51.0758983","-1.439559499999973","SU 33","None","None","None","164","23 (end of hilt)","","","","","","","","Founder's hoard 19.1-26","","","Hoard mainly of buckled metal in poor condition.,ND 75","Joellen mcGann","https://www.flickr.com/photos/115096994@N02/21799356522","https://farm1.staticflickr.com/683/21799356522_5114979b7a_m.jpg","superuser",-1.4396,51.0759,"SwordsPt1"
"46703","433","2 Sword Frags./1 shoulder piece/1 hilt frag.","","Winchester, City Museum, 19.5 (loan)","Hants.,Ashley,Ashley Wood","Ashley Wood, Stockbridge, Hampshire SO20, UK","51.0758983","-1.439559499999973","","None","None","None","","","","","","Green/brown. Same light green corrosion.","","","","1-20","","","Seen by Burgess 22/9/67.,See new index.","Joellen mcGann","https://www.flickr.com/photos/115096994@N02/21799357022","https://farm6.staticflickr.com/5724/21799357022_800365e07a_m.jpg","superuser",-1.4396,51.0759,"SwordsPt1"
"46704","433","Sword Hilt Frag.","","Winchester, City Museum, 19/4,On loan from Mrs. Browning, Ashley Glebe Farm, King's Somborne","Hants.,Ashley,Ashley Wood","Ashley Wood, Stockbridge, Hampshire SO20, UK","51.0758983","-1.439559499999973","SU 33","None","None","None","186","36 (end of hilt)","","","","","","","","Founder's hoard 19.1-20","","","Hoard mainly of buckled metal in poor condition.,ND 75","Joellen mcGann","https://www.flickr.com/photos/115096994@N02/21624270369","https://farm1.staticflickr.com/648/21624270369_0b4e6dc8d3_m.jpg","superuser",-1.4396,51.0759,"SwordsPt1"
"46705","433","Sword Frag.","","Winchester, City Museum, 19.4 (loan)","Hants.,Ashley,Ashley Wood","Ashley Wood, Stockbridge, Hampshire SO20, UK","51.0758983","-1.439559499999973","","None","None","None","","","","","","Green. 1 side mottled.","","","","1-20","","","See by Burgess 22/9/67,See new index.","Joellen mcGann","https://www.flickr.com/photos/115096994@N02/21623277518","https://farm6.staticflickr.com/5763/21623277518_f33582f184_m.jpg","superuser",-1.4396,51.0759,"SwordsPt1"
"46706","433","Fragment of Leaf Shaped Sword (Two Cards)","","Winchester Museum,Dale Collection, No. 67","England,Hampshire,Andover,1 mile N.E. Rly. Stn.","Andover, Andover, Hampshire, UK","51.2111975","-1.4919233000000531","","None","None","None","198","blade 30; hilt 63, 25, 26","","208","","","","","","Part of a hoard of broken spearheads & sccards & this sword.","","Proc. Soc. Antiq. XXVI, 32, Dec. 1913","","Joellen mcGann","https://www.flickr.com/photos/115096994@N02/21623278878","https://farm6.staticflickr.com/5769/21623278878_ac6db72081_m.jpg","superuser",-1.4919,51.2112,"SwordsPt1"
"46707","433","Fragment of Leaf-Shaped Sword/Two Cards","IIIb","Winchester Museum, 104.1-37,Dale Collection 67,104.36","England,Hampshire,Andover Junction Rly. Stn. (about 1 mile N.E. of) side of R. Anton","Andover, Andover, Hampshire, UK","51.2111975","-1.4919233000000531","","None","None","None","197","blade 28; hilt 66, 29, 26","","197","","","5, 8","","","A hoard of broken implements - L.S. Swords, spearheads, ferrules, & portions of scabbards.","3 Rivets (A, B, & C). Loose in holes.","Proc. Soc. Antiq.: XXVI, 32, Dec. 1913","Inacc. See new index.","Joellen mcGann","https://www.flickr.com/photos/115096994@N02/21190067673","https://farm6.staticflickr.com/5629/21190067673_e3bfde240e_m.jpg","superuser",-1.4919,51.2112,"SwordsPt1"
"46708","433","Sword Hilt End","","Winchester, City Museum, 104.36,dale Collection","Hants.,Andover","Andover, Andover, Hampshire, UK","51.2111975","-1.4919233000000531","","None","None","None","198","29","","","","Brownish","","","","Scrap metal hoard, 104.1-37","","P.S.A.L., XXVI","Metal in poor condition,ND 74","Joellen mcGann","https://www.flickr.com/photos/115096994@N02/21623120590","https://farm6.staticflickr.com/5742/21623120590_78e0961fea_m.jpg","superuser",-1.4919,51.2112,"SwordsPt1"
"46709","433","Sword Hilt Frag.","","Winchester, City Museum, 104.31,Dale Collection","Hants.,Andover","Andover, Andover, Hampshire, UK","51.2111975","-1.4919233000000531","","None","None","None","149","","","","","Brownish","","","","Scrap metal hoard 104.1-37","","P.S.A.L., XXVI","Metal in poor condition, ND74","Joellen mcGann","https://www.flickr.com/photos/115096994@N02/21188427494","https://farm6.staticflickr.com/5816/21188427494_fb813f1c7f_m.jpg","superuser",-1.4919,51.2112,"SwordsPt1"
"46710","433","Leaf-Shaped Sword","","National Museum of Wales, cardiff,18/89","Wales,Merionethshire,Penrhyndeudraeth","Penrhyndeudraeth, Penrhyndeudraeth, Gwynedd LL48, UK","52.92924","-4.06713400000001","","None","None","None","591","hilt 43; blade 37","","","","","7 blade","","","","","","","Joellen mcGann","https://www.flickr.com/photos/115096994@N02/21188430104","https://farm1.staticflickr.com/742/21188430104_8d3c50d522_m.jpg","superuser",-4.0671,52.9292,"SwordsPt1"
"46711","433","Leaf Shaped Sword","IVa","National Museum of Wales, cardiff,18/89","Wales,Merioneth,Penrhyndeuraeth,1914 or 1915 - in the garden of a cottage","Penrhyndeudraeth, Penrhyndeudraeth, Gwynedd LL48, UK","52.92924","-4.06713400000001","","None","None","1914","590","blade 39; hilt plate 48, 21","","170.59","","","6","","","","","Proc. Soc. Ant., 2nd ar. XXX, 173","","Joellen mcGann","https://www.flickr.com/photos/115096994@N02/21799367762","https://farm1.staticflickr.com/747/21799367762_713b8120b7_m.jpg","superuser",-4.0671,52.9292,"SwordsPt1"
"46712","433","Leaf Shaped Sword","IVa","British Museum, 51.12-30.1,given by Lord Willoughby d'Eresby,1851","Wales,Carnarvanshire,Dolwyddelan,Found in peat on estates of the donor.","Dolwyddelan, Dolwyddelan, Conwy LL25, UK","53.05394099999999","-3.8865769999999884","","None","None","None","486","hilt 24, 46; blade 35","","411.55","","Fairly pitted, upper part rough & broken & appears to have been broken across neck bronze with dark brown stains.","blade 6","","","","Broad central rib showing faintly & prominently at top. 4 Rivet holes, one is not pierced. On reverse, indication of a 5th in the centre.","Proc. Soc. Antiq., XXX, p. 172, Fig. 2, No. 9","Drawing inaccurate.","Joellen mcGann","https://www.flickr.com/photos/115096994@N02/21623290998","https://farm1.staticflickr.com/766/21623290998_bf1e85ee41_m.jpg","superuser",-3.8866,53.0539,"SwordsPt1"
"46713","433","Sword","IV","Bablake Museum, Coventry (1923),On loan from Miss A. Brazil,The Quadrant, Coventry","Wales,Carnarvon,Bethesda (near),On the side of Carnedd Llewlyn found by a boy named Davies about 1895,A boy named Davies was rounding up sheep with his father when he tripped over something he thought to be a stick which projected from the ground. He subsequently dug up the object which was this sword. This was about 30 years ago - about 10 years ago it was sold to Miss. A. Brazil - B.M. authorities say 600 B.C.","Bethesda, Bangor, Gwynedd LL57, UK","53.17892699999999","-4.05883300000005","","None","None","1895","570","hilt 40; blade 33","","480","No patina; No green patina, just clean bronze","Smooth, unpitted, bronze colour","7","","Bronze","Said to have been found with a few inches of the scabbard adhering; this is now missing.","A fine blade free from imperfection or blemish. Said to have had a few inches of the point of a scabbard when found - now missing. Possible if now cleaned when found it has a smooth surface of ordinary bronze colour - dark.","","","Joellen mcGann","https://www.flickr.com/photos/115096994@N02/21820683401","https://farm1.staticflickr.com/781/21820683401_c6159e7f22_m.jpg","superuser",-4.0588,53.1789,"SwordsPt1"
"46714","433","Sword","IId","Truro Museum,Given by Dr. Potts.","England,London,Westminster,Millbank Penitentiary,Found in digging the foundations.","City of Westminster, Greater London, UK","51.5001754","-0.1332326000000421","","None","None","None","636","hilt 28; blade 30, 42","","582","Golden bronze patina, except where protected by hilt","","8","","","","","","","Joellen mcGann","https://www.flickr.com/photos/115096994@N02/21190087653","https://farm6.staticflickr.com/5621/21190087653_0d9518bfb5_m.jpg","superuser",-0.1332,51.5002,"SwordsPt1"
"46715","433","Sword","IIa","London Museum, A8050","England,London,Wandsworth","London Borough of Wandsworth, Greater London, UK","51.4570716","-0.1817823999999746","","None","None","None","712","48","","782","Bronze patina, green stains","Rough","8","","","","Six rivets","","Inacc.,Drilled 3/2/65","Joellen mcGann","https://www.flickr.com/photos/115096994@N02/21623301568","https://farm1.staticflickr.com/772/21623301568_294e042222_m.jpg","superuser",-0.1818,51.4571,"SwordsPt1"
"46716","433","Leaf Shaped Sword/Large shoulder fragment & ? adjoining blade frag.","IIIC","Herts. County Museum, St. Albans,Lent by Capt. J. H. Ball, RAF","England,London,Putney","Putney, London SW15, UK","51.4605741","-0.21718009999995047","","None","None","None","hilt piece 313; point 194","hilt plate 51.5; blade 38; 40","","368.2; 155.4","Thin patina of dark olive green","Smooth","blade 5","","","","2 rivet holes are filled & one nearly filled. Blade appears to have been burnt where broken and probably shortened. One piece still has a brass rivet & holes. The end of the hilt piece is a good deal filed at the fracture. The 2 pieces of blade have probably been mended with plates secured by rivets.","","","Joellen mcGann","https://www.flickr.com/photos/115096994@N02/21623304678","https://farm6.staticflickr.com/5679/21623304678_57d341bba3_m.jpg","superuser",-0.2172,51.4606,"SwordsPt1"
"46717","433","Sword","IIa","London Museum C.876,(From Corner Collection)","England,London,Poplar,Millwall","Millwall, London E14, UK","51.49767","-0.020533999999997832","","None","None","None","804","50","","850","Bronze patina","Smooth","10","","","","Sides of blade ornamented with cable pattern at top. Slotted hilt. 6 rivet holes. Grip of hilt has a thick flange on each side.","J.D. Cowen, P.P.S., 1951, No. 9, (note on p. 210)","Inacc,Drilled 3/2/65","Joellen mcGann","https://www.flickr.com/photos/115096994@N02/21799385962","https://farm6.staticflickr.com/5719/21799385962_52cec29847_m.jpg","superuser",-0.0205,51.4977,"SwordsPt1"
"46718","433","Sword (3 joining pieces)","IIa","Brentford Public Library,Layton collection 01332,Now in The London Museum","England,Greater London,Chiswick,Strand on Green,18 February 1862","Chiswick, London, UK","51.4876272","-0.267173200000002","","18","2","1862","687","blade 46; blade 35; hilt plate 67, 30","","","Thin blackish patina & dark bronze shows.","","blade 8.5, 8.25","","","","4 rivet holes, 3 are solid from casting. In three pieces, point end is bent.","","Inacc,Old label: Strand on Hill 18th Feby. 1862, T. Layton","Joellen mcGann","https://www.flickr.com/photos/115096994@N02/21820697751","https://farm1.staticflickr.com/670/21820697751_980ef7cce6_m.jpg","superuser",-0.2672,51.4876,"SwordsPt1"
"46719","433","Sword","B","London Museum, A.6366","England,London,Chelsea","Chelsea, London SW3, UK","51.485093","-0.17493600000000242","","None","None","None","438","37","","396.2","Greenish brown patina","Smooth","6","","","","Flat, thin hilt plate. 4 rivet holes (larger).","","Inacc.,Drilled 3/2/65","Joellen mcGann","https://www.flickr.com/photos/115096994@N02/21623153630","https://farm1.staticflickr.com/727/21623153630_ec27c27c4f_m.jpg","superuser",-0.1749,51.4851,"SwordsPt1"
"46720","433","Sword","IIIb","London Museum, A.3895","England,London,Row,Row Creek","S Row, London SE3 0RY, UK","51.4698931","0.013272799999981544","","None","None","None","583","","47","661.2","Light brown patina, darker marks.","Smooth","7","","","","Broken near hilt. Blade slightly bent. Slotted hilt. 4 rivet holes (a little larger than shown).","","","Joellen mcGann","https://www.flickr.com/photos/115096994@N02/21624313399","https://farm6.staticflickr.com/5691/21624313399_481b7a78bf_m.jpg","superuser",0.0133,51.4699,"SwordsPt1"
"46721","433","Leaf-Shaped Sword (4 joining pieces)","IIIb","Guildhall Museum,Catalogue, p. 3, No. 9","England,?London","London, UK","51.5073509","-0.12775829999998223","","None","None","None","about 620","blade 40; hilt 58","","581.175","Dark greenish patina","Matte","about 7","","","","","","","Joellen mcGann","https://www.flickr.com/photos/115096994@N02/21799401492","https://farm1.staticflickr.com/695/21799401492_f8693169f0_m.jpg","superuser",-0.1278,51.5074,"SwordsPt1"
"46722","433","Sword","IVa","Anthropological Museum, Aberdeen University,252,Given by Mr. Silver, Netherley","Scotland,Kincardineshire,Netherley,1809","Netherley, Stonehaven, Aberdeenshire AB39, UK","57.0335","-2.2429939999999533","","None","None","1809","580","blade 41","","645","","","6","","","","Hilt and point broken.","","","Joellen mcGann","https://www.flickr.com/photos/115096994@N02/21624316259","https://farm6.staticflickr.com/5694/21624316259_560964c2c6_m.jpg","superuser",-2.243,57.0335,"SwordsPt1"
"46723","433","Sword","","?","Scotland,Moray,Fochabers,Grumpian,?","Fochabers, Fochabers, Moray IV32, UK","57.6142474","-3.0975138000000015","","None","None","None","530","shoulders 55; blade 59","","","","","","","","","","[Ewart] Park Sword","","Joellen mcGann","https://www.flickr.com/photos/115096994@N02/21188470514","https://farm6.staticflickr.com/5737/21188470514_4c4842b7b6_m.jpg","superuser",-3.0975,57.6142,"SwordsPt1"
"46724","433","Sword","IVa","Banff Museum","Scotland,Banffshire,Probably near Banff","Banff, Aberdeenshire, UK","57.666505","-2.5240380000000187","","None","None","None","","","","715.83","","","","Weight: 25 1/4 oz = 715.83","","","","","","Joellen mcGann","https://www.flickr.com/photos/115096994@N02/21624317819","https://farm6.staticflickr.com/5645/21624317819_5aaa08b5ab_m.jpg","superuser",-2.524,57.6665,"SwordsPt1"
"46725","433","Sword","IVa","Banff Museum","Scotland,Banffshire,Probably near Banff","Banff, Aberdeenshire, UK","57.666505","-2.5240380000000187","","None","None","None","","","","687.48","","","","Weight: 24 1/4 oz = 687.48 gms","","","","","","Joellen mcGann","https://www.flickr.com/photos/115096994@N02/21624318619","https://farm6.staticflickr.com/5655/21624318619_213c7f804f_m.jpg","superuser",-2.524,57.6665,"SwordsPt1"
"46726","433","Sword","IVa","Banff Museum","Scotland,Banffshire,Banff,Blairshinnock Farm","Banff, Aberdeenshire, UK","57.666505","-2.5240380000000187","","None","None","None","","","","503.2","","","","Weight: 17 3/4 = 503.2 gms","","","","","","Joellen mcGann","https://www.flickr.com/photos/115096994@N02/21799406602","https://farm6.staticflickr.com/5735/21799406602_8f4fc17b80_m.jpg","superuser",-2.524,57.6665,"SwordsPt1"
"46727","433","Sword","","Vale, Mr. E - private,26 Thorley Park Road, Bishop's Startford, Herts.,Landowner: Mr. Tinney, Matching Halls Farm,Site Rel. NBI/Or. 1","Essex,Matching,Matching Hall Farm,Found July 1987 in ploughing; the field previous pasture, had been ploughed for the first time in 'years'; sword found caught up in cultivation, but finder was satisfied that it was turned up in a particular part of field which showed a blackened rectangular surface discoloration - c. 25 x 25 yds.","Matching, Harlow, Essex CM17, UK","51.788452","0.2080230000000256","c. TL 5315 1190","None","None","1978","613","W. ht. 24.2, Wsh. 58.5","","","","Mostly pale yellow - green dry surface; odd few pits to light green - probably damage rather than pocking, etc.; small areas dark brown smoother out - poss. relif patina.","Max T bl. 8.8","","","","Dimensions: EL (straightened) 613; W ht. 24.2; Wsh. 58.5; Max B fg. 9.0; max T bl. 8.8; W ws. 31.7; max W. bl. 50.2,Typology: v. slight bowed fg. cross-section; 'slot' depressions around rivet holes; ricasso more-or-less flattened; hint of e. bev. below ricasso rapidly disappears; rounded loz. bl. section tending to lenticular towards tip; rivet holes markedly hour-glass,Manufacture: remains of thin cg. fl. within hilt slot; some likely porosity apparent on surface.,Condition: hilt terminal broken off in antiquity; remainder broken in two - fracture gold, [..[ recent, prob. due to find circumstances; whole length very twisted & contorted - prob. ancient, as are most of edge dents and 'tear' low on bl. c.; small gouging just below shoulders gold - recent; also odd gold flecks along edges & small even in one ricasso; very tip blunted - anc. (+ modern).,Attached Material: scattered orange staining - apparently on surface - possibly adhering dust.","","PIF (O); DF (S); SI; CI; SN 9 Oct. 78; Sb. A.; Mr. Vale, 8 Aug. 78","Joellen mcGann","https://www.flickr.com/photos/115096994@N02/21799408132","https://farm6.staticflickr.com/5770/21799408132_c76c176f5d_m.jpg","superuser",0.208,51.7885,"SwordsPt1"
"46728","433","Sword (4 Fragments0","IIIb","Balfour Stet (Dec. 1924)","England,Essex,Ugley (near Bishop's Stortford),July 1955,About 1/2 S. of Ugley Hall,Found in filling a pothole","Ugley, Bishop's Stortford, Essex CM22, UK","51.934157","0.21028599999999642","","None","7","1955","530","39","","460","Grey-green, giving a ""tinny"" look.","","6","","","2 razors","Broken into 4 fragments: points missing, edges. Blunt and chipped, lower part of blade scratched. Smooth generally; a patch has flaked off in [..erately] below the hilt on one sides, bases of encrustment locally.","","Tinkers Hoard","Joellen mcGann","https://www.flickr.com/photos/115096994@N02/21190122233","https://farm1.staticflickr.com/579/21190122233_283ec4e4fe_m.jpg","superuser",0.2103,51.9342,"SwordsPt1"
"46729","433","Leaf Sword","B","Southend-on-Sea Museum, 1929","England,Essex,Southend-on-sea,Southchurch,Thorpe Hall Brickfield (about 1000 yds. E. of Thorpe Bay, L.M.S. Rly. Station),3 ft. 6 in. deep in brick earth containing fragments of bone & charcoal.,23rd February 1929","Southchurch, Southend-on-Sea, Southend-on-Sea, Southend-on-Sea SS1, UK","51.538996","0.7440239999999676","","23","2","1929","without point Length 403, point 54; 457","Hilt 40; blade 41.5","","365; weight without point 343.74, point 21.26","","","hilt 6; blade 5","","","Found with 1 palstave & 1 fragment of sword blade","Hilt transitional between dirk & sword. 4 rivet holes, 1 rivet.","","The brickfield is worked to depth of 7 ft: beneath the earth is ballast & sand. Excavations around the site of discovery produced no additional objects.","Joellen mcGann","https://www.flickr.com/photos/115096994@N02/21624334099","https://farm1.staticflickr.com/620/21624334099_9ee629e539_m.jpg","superuser",0.744,51.539,"SwordsPt1"
"46730","433","Sword, Ballintober","B","Southend Museum, Prittlewell Priory, 375/2","Essex,Southchurch,Thorpe Hall Brickfield,1929,Found while digging brickearth. Other Bronze Age remains, including implement, from same field.","Southchurch, Southend-on-Sea, Southend-on-Sea, Southend-on-Sea SS1, UK","51.538996","0.7440239999999676","","None","None","1829","398.78","40.64","","","","Heavily corroded with bronze disease.","","Length: 15.7"" = 398.78mm,Width: 1.6"" = 40.64mm, Blade 2"" = 50.8mm, Rivets .5"" long = 12.7mm, breadth at end 1.2"" = 30.48","Bronze","No definite association, but possibly associated with 375/5, a looped flanged palstave.","Blade 2"", rivets .5"" long. Leaf shaped sword with midrib. Two rivets survive on both sides of the hilt, one broken off on one side of the hilt, one totally absent. Rivets are cylindrical, bronze. Circa 6.4"" not drawn of sword, broken off above the point. Breadth at end 1.2"".","Transactions of the Essex Archaeological Society, Vol. 19 (N.5), pp. 311-13, Illus.","Prepared by: D.G. Macleod, Assistant-in[Chrge, Prittlewell Priory Museum, June 1958","Joellen mcGann","https://www.flickr.com/photos/115096994@N02/21188487364","https://farm6.staticflickr.com/5789/21188487364_75085e7e62_m.jpg","superuser",0.744,51.539,"SwordsPt1"
"46731","433","Fragment of Sword","IVa","British Museum,92.6-13.1,Presented by A. W. Franks, Esq.,13/6/1892","England,Essex,Shoebury,Hoard I","Shoeburyness Police, 71 High St, Great Wakering, Southend-on-Sea, Essex SS3 9AR, UK","51.55295470000001","0.8055894000000308","","None","None","None","110","34","","156","Green patina","Very corroded.","10","","","1-27: 2 Fragments swords; 1 Palstave; 3 Winged Celts; 15 Socketed Celts; 1 Bracelet; 6 Cakes Copper; 3 Fragments Pottery","Upper part, two rivet holes.","Described by C.H. Read in Proc. Soc. Ant., 1892, XIV","Inacc.,New Card Done","Joellen mcGann","https://www.flickr.com/photos/115096994@N02/21188489724","https://farm6.staticflickr.com/5629/21188489724_132ec816ea_m.jpg","superuser",0.8056,51.553,"SwordsPt1"
"46732","433","Sword Hilt","Frag","The Priory, Prittlewell (Southend on Sea),276/104","England,Essex,Leigh,Fleming Avenue,Prittle Brook,29.1.26,(found by workmen)","Flemming Ave, Southend-on-Sea, Leigh-on-Sea, Southend-on-Sea SS9 3AU, UK","51.551524","0.6491817999999512","","29","1","1926","32","37.5","","21.26","Green","Smooth","6","","","A founder's hoard.","Cast marks at end of hilt.","","","Joellen mcGann","https://www.flickr.com/photos/115096994@N02/21811236255","https://farm1.staticflickr.com/777/21811236255_d13ffd1249_m.jpg","superuser",0.6492,51.5515,"SwordsPt1"
"46733","433","Sword","V","The Priory, Prittlewell (Southend on Sea),276/65","England,Essex,Leigh,Fleming Avenue,Prittle Brook,29.1.26,(Found by workmen)","Flemming Ave, Southend-on-Sea, Leigh-on-Sea, Southend-on-Sea SS9 3AU, UK","51.551524","0.6491817999999512","","29","1","1926","39.5","35","","35.43","Green patina","Smooth, very slightly encrusted (flat)","8","","","A bronze founders hoard.","","","","Joellen mcGann","https://www.flickr.com/photos/115096994@N02/21811238435","https://farm1.staticflickr.com/728/21811238435_abc218d393_m.jpg","superuser",0.6492,51.5515,"SwordsPt1"
"46734","433","Leaf Shaped Sword","V","The Priory Prittlewell (Southend on Sea),276/64","England,Essex,Leigh,Fleming Avenue,Prittle Brook,29.1.26,(Found by workmen)","Flemming Ave, Southend-on-Sea, Leigh-on-Sea, Southend-on-Sea SS9 3AU, UK","51.551524","0.6491817999999512","","29","1","1926","84","blade 35; hilt plate 52","","131.1","","This side is clean golden bronze, slightly encrusted. Other side is encrusted nearly all over & golden bronze.","blade 9, 11","","","A bronze founder's hoard.","Marked with heavily indented lines down middle of blade & hilt","","","Joellen mcGann","https://www.flickr.com/photos/115096994@N02/21623348748","https://farm1.staticflickr.com/712/21623348748_98d1a3d272_m.jpg","superuser",0.6492,51.5515,"SwordsPt1"
"46735","433","Sword","Other","The Priory Prittlewell (Southend on Sea),276/63","England,Essex,Leigh-on-Sea,Fleming Avenue,Prittle Brook,29.1.26,(found by workmen)","Flemming Ave, Southend-on-Sea, Leigh-on-Sea, Southend-on-Sea SS9 3AU, UK","51.551524","0.6491817999999512","","29","1","1926","67","41.5; 33","","70.88","Green","Smooth. Slight encrustment on other side.","13, 11, 4.5","","","A bronze founder's hoard.","","","","Joellen mcGann","https://www.flickr.com/photos/115096994@N02/21820740241","https://farm6.staticflickr.com/5739/21820740241_039303d062_m.jpg","superuser",0.6492,51.5515,"SwordsPt1"
"46736","433","Leaf Shaped Sword","IVa","The Priory Prittlewell (Southend on Sea),276/60","England,Essex,Leigh-on-sea,Fleming Avenue,Prittle Brook,29.1.26,(found by workmen)","Flemming Ave, Southend-on-Sea, Leigh-on-Sea, Southend-on-Sea SS9 3AU, UK","51.551524","0.6491817999999512","","29","1","1926","105","blade 27; hilt plate 45","","124.02","Medium green","Smooth. Very slight encrustment, and a thick piece on other side.","blade 8.5; hilt 9","","","A bronze founder's hoard.","","","","Joellen mcGann","https://www.flickr.com/photos/115096994@N02/21623194870","https://farm1.staticflickr.com/740/21623194870_85e82cc604_m.jpg","superuser",0.6492,51.5515,"SwordsPt1"
"46737","433","","","","","","51.551524","0.6491817999999512","","None","None","None","","","","","","","","","","","","","","Joellen mcGann","https://www.flickr.com/photos/115096994@N02/21785090176","https://farm1.staticflickr.com/615/21785090176_3efb942987_m.jpg","superuser",0.6492,51.5515,"SwordsPt1"
"46738","433","Sword (portion)","Frag.","Tenby Local Museum,Pembrokeshire","Wales,Pembrokeshire,Stackpole (near),Stackpole Warren,(Roche Point)","Stackpole, Pembroke, Pembrokeshire SA71, UK","51.629875","-4.914125000000013","","None","None","None","133","33, 22","","140","Lustrous lacquer patina","Corroded","12","","","Discovered by 1st Earl of Cawdor at Roche Point. Bones of human foot found near by. Probably buried with its owner. Bones of ox & sheep unearthed by the present Earl of Cawdor together with the ?","Fairly good condition","Laws ""Little England Beyond Wales"" (Bronze Age Chapter)","","Joellen mcGann","https://www.flickr.com/photos/115096994@N02/21785093306","https://farm1.staticflickr.com/614/21785093306_30e0b08eac_m.jpg","superuser",-4.9141,51.6299,"SwordsPt1"
"46739","433","Leaf Shaped Sword","IVa","St. David's College, Lampeter,Glancych Collection,Formerly in the Collection of Dr. Walter D. Jones of Glancych","Wales,Cardiganshire,Lampeter,Pant-y-Maen,near Henfeddan Farm. Found by a farmer white draining a bog.,1859","Lampeter, Ceredigion, UK","52.112903","-4.07850899999994","","None","None","1859","115","hilt 50, 23, 35","","99.4","","","","","","Part of a hoard of swords, scabbards, spearheads, ferrules, rings & sundry fragments.","Repaired by welding. 1 Rivet & 5 holes.","Arch. Camb. 35, vii, 313, X/221-231 pl.,Evans, J., A.B. Imps. 285, 304, 315, 340, 389, 460, 464,BBCS, 1957 (Griffiths)","Redrawn, W.E. Griffiths.","Joellen mcGann","https://www.flickr.com/photos/115096994@N02/21188511384","https://farm6.staticflickr.com/5757/21188511384_858d90b3ff_m.jpg","superuser",-4.0785,52.1129,"SwordsPt1"
"46740","433","Sword","IVa","","Wales,Cardiganshire = Pembrokeshire,Lampeter,Pant-y-Maen","Lampeter, Ceredigion, UK","52.112903","-4.07850899999994","","None","None","None","","","","","","","","","","","","","Reassembled and drawn W.E. Griffiths","Joellen mcGann","https://www.flickr.com/photos/115096994@N02/21820755981","https://farm6.staticflickr.com/5693/21820755981_1dc54c9e7d_m.jpg","superuser",-4.0785,52.1129,"SwordsPt1"
"46741","433","Leaf Shaped Sword/Shoulder Frag. + 3 adjoining blade frags.","IVa","St. David's College, Lampeter,Glancych Collection,Formerly in the collection of Dr. Walter D. Jones of Glancych","Wales,Cardiganshire,Lampeter,Pant-y-Maen,near Herrfeddan Farm,Found by a farmer, while draining a bog.,1859","Lampeter, Ceredigion, UK","52.112903","-4.07850899999994","","None","None","1859","243","blade 30; hilt 42, 18","","425.5","","","","","","Part of a hoard of swords, scabbards, spearheads, ferrules, rings & sundry fragments.","See re-drawing (separate card)","Arch. Camb. 35, vii, 313; x.221-231, pl.,Evans, J.; Ancient Bronze Implements, 285, 304, 315, 340, 389, 460464","Reconstituted and drawn. W. E. Griffiths","Joellen mcGann","https://www.flickr.com/photos/115096994@N02/21785109366","https://farm6.staticflickr.com/5626/21785109366_05ff425d98_m.jpg","superuser",-4.0785,52.1129,"SwordsPt1"
"46742","433","Leaf Shaped Sword","Frag.","St. David's College, Lampeter,Glancych Collection,Formerly in the Collection of Dr. Walter D. Jones of Glancych.","Wales,Cardiganshire,Lampeter,Pant-y-Maen, near Henfeddan Farm.,Found by a farmer while draining a bog.,1859","Lampeter, Ceredigion, UK","52.112903","-4.07850899999994","","None","None","1859","219","blade 30, 23","","337.6","","","","","","Part of a hoard of swords, scabbards, spearheads, ferrules, rings + sundry fragments.","","Arch. Camp. 3rd S. vii., 313, x.221-231, pl.,Evans, J.; A. B. Imps, 285-304, 315-340, 389, 460-464.,BBCS, c. 1957","Reconstituted and drawn. W. E. Griffiths.","Joellen mcGann","https://www.flickr.com/photos/115096994@N02/21623214330","https://farm1.staticflickr.com/601/21623214330_7863f7bcfa_m.jpg","superuser",-4.0785,52.1129,"SwordsPt1"
"46743","433","Sword","Frag.","St. David's College, Lampeter,Glancych Collection,Formerly in the collection of Dr. Walter D. Jones of Glancych","Wales,Cardiganshire,Lampeter,Pant-y-Maen, near Henfeddan Farm.,Found by a farmer, while draining a bog,1859","Lampeter, Ceredigion, UK","52.112903","-4.07850899999994","","None","None","1859","111","blade 34, 25","","84.3","","","","","","Part of a hoard of swords, scabbards, spearheads, ferrules, rings & sundry fragments.","","Arch. Camb. 3 5, vii, 313; x.221-231 pl.,Evans, J. A.B. Imps., 285, 304, 315, 340, 389, 460, 464","Redrawn, W. E. Griffiths.","Joellen mcGann","https://www.flickr.com/photos/115096994@N02/21785109956","https://farm6.staticflickr.com/5631/21785109956_f84a41272a_m.jpg","superuser",-4.0785,52.1129,"SwordsPt1"
"46744","433","Leaf Shaped Sword","IVb","National Museum of Wales, Cardiff (on loan) 23.414,In possession of Howell Lloyd Jones, Penyrallt Llangelen, Carmarthenshire (copy)","Wales,Carmarthenshire,Cynwyl Elved","Cynwyl Elfed, Carmarthen, Carmarthenshire SA33, UK","51.921856","-4.367480999999998","","None","None","None","530","blade 29; hilt 35","","","","","blade 5.5","","","","","Mentioned in Roy. Com. Anc. Mass., Carmarthenshire Inventory. 104","","Joellen mcGann","https://www.flickr.com/photos/115096994@N02/21188533414","https://farm6.staticflickr.com/5810/21188533414_16bcd30544_m.jpg","superuser",-4.3675,51.9219,"SwordsPt1"
"46745","433","Leaf Shaped Sword","IVb","Private Collection,R. Blair Esq., FSA,Harton Lodge, South Shields","England,Durham,River Tyne (dredged from)","Durham, County Durham, UK","54.77525","-1.5848519999999553","","None","None","None","545","blade 31, hilt plate 38","","454","","","blade 6","","Bronze","","","","","Joellen mcGann","https://www.flickr.com/photos/115096994@N02/21623381808","https://farm6.staticflickr.com/5684/21623381808_357057fbe5_m.jpg","superuser",-1.5849,54.7752,"SwordsPt1"
"46746","433","Sword","IVa","Public Libraries Museum + Art Gallery,Sunderland,Co. Durham","England,Co. Durham,from bed of R. Wear at Hylton,near Sunderland","Hylton Bank, Sunderland, Tyne and Wear SR4 0LL, UK","54.9026511","-1.446777300000008","","None","None","None","","","","","Green brown","Slightly corroded","","","","Dredged up with another sword.","A modern flat hilt with grooves has been braised on. Point also has been tampered with. Grown hollows appear to have been filled in.","","Submitted by J. Crowley, Esq. Director (letter 11th May 1952) with letter from Professor J. A. Richmond re: having modern accretions removed. B.M. Lat. advised against this.","Joellen mcGann","https://www.flickr.com/photos/115096994@N02/21188533054","https://farm6.staticflickr.com/5791/21188533054_9d9d3e8ab2_m.jpg","superuser",-1.4468,54.9027,"SwordsPt1"
"46747","433","Sword (2 joining pieces)","IVa","Black Gate Museum, Newcastle-on-Tyne,1932.22,On loan from Mr. G. H. Allgood of Nunwick, Northumberland","England,Durham,Ebbchester,Law Farm 1855","Ebchester, Consett, County Durham DH8, UK","54.893863","-1.8414850000000342","","None","None","1855","536.575","","","489.03","","","","Length: 21 1/8"" - 536.575mm,Weight: 1lb 1 1/4 oz = 489.03 gms","","Plain bronze ring.","Rough bronze-green","Proc. Soc. Ant. N/C 2. V.99,Proc. Soc. Ant. N/C. 4.v.254,Evans, 285, 389","Broken in two, and hilt plate damaged.","Joellen mcGann","https://www.flickr.com/photos/115096994@N02/21188535604","https://farm1.staticflickr.com/648/21188535604_a19713daba_m.jpg","superuser",-1.8415,54.8939,"SwordsPt1"
"46748","433","Leaf-Shaped Sword","IVa","Mann Collection,B104,The University, Glasgow","Scotland,Wigtownshire (?Wigton),Whitehorn,Fethaar","Wigtown, Newton Stewart, Dumfries and Galloway DG8, UK","54.867159","-4.444234000000051","","None","None","None","462","blade 40; hilt plate 51","","520","","","","","","","Good condition","","","Joellen mcGann","https://www.flickr.com/photos/115096994@N02/21623388738","https://farm1.staticflickr.com/731/21623388738_ce6cba6eec_m.jpg","superuser",-4.4442,54.8672,"SwordsPt1"
"46749","433","Sword","IIIb","Ashmolean Museum, Oxford,Evans Collection, 1947-2535","England,Dorset,Weymouth, near,1878","Weymouth, Dorset, UK","50.6144279","-2.4576210000000174","","None","None","1878","625","60?","","442.47","","Rough, dirty leaden grey & green.","8","","","Found with a leaf-shaped spear-head (not recorded in 1934).","Blade repaired. 4 large rivet-holes in wide shoulders. Hilt flanged, with central slit, imperfect.","Evans, Anc. Br. Imps, pp. 279, 313, 464; Woods List No. 19","","Joellen mcGann","https://www.flickr.com/photos/115096994@N02/21811282755","https://farm6.staticflickr.com/5642/21811282755_ef492059bc_m.jpg","superuser",-2.4576,50.6144,"SwordsPt1"
"46750","433","Sword","IIIb","c/o Tom Clark, Weymouth","England,Dorset,Weymouth,Dredged up from the Backwater","Weymouth, Dorset, UK","50.6144279","-2.4576210000000174","","None","None","None","","","","489","Dull gold colour.","Smooth & good condition.","","","","","Convex shoulders, one with the lower part broken. Long slot in each shoulder, another in the hilt. Two holes at base of hilt. The edge at the top of blade slightly broken. Top of blade missing. Otherwise very good condition. With a well-formed and very slender blade.","","","Joellen mcGann","https://www.flickr.com/photos/115096994@N02/21820783071","https://farm6.staticflickr.com/5805/21820783071_050e98fc33_m.jpg","superuser",-2.4576,50.6144,"SwordsPt1"
"46751","433","Leaf Shaped Sword","IIIb","Dorchester Museum,316,lent by Weymouth Borough Council,Jany. 1931,Gone to Ashmolean - presumably in exchange for Dorchester 1934.35.1 formerly in Evans Collection 1927-2534 - another sword from the Backwater, Weymouth","England,Dorset,Weymouth,From the Radipole or Backwater during the construction of the new bridge, found 4 feet below bed of backwater.","Weymouth, Dorset, UK","50.6144279","-2.4576210000000174","SY 677 792","None","None","None","517","hilt 53; blade 35","","382.72","","Mud colour","blade 7","","","","Hilt broken, point broken, 1 rivet rusted in.","Dorchester Mus. MC Catalogue of bronzes, No. 314","CI SI","Joellen mcGann","https://www.flickr.com/photos/115096994@N02/21624389739","https://farm1.staticflickr.com/731/21624389739_6854888449_m.jpg","superuser",-2.4576,50.6144,"SwordsPt1"
"46752","433","Sword","IVb","Ashmolean Museum, Oxford,Evans Collection, 1927.2534","England,Dorset,Weymouth,""Dredged from the backwater"",1900,","Weymouth, Dorset, UK","50.6144279","-2.4576210000000174","","None","None","1900","501","47","","406.45","Dirty green patina & blackish.","","8","","","","Hilt broken off above 4 small rivet holes, one with remains of a very slender rivet. Tip missing.","","","Joellen mcGann","https://www.flickr.com/photos/115096994@N02/21799477272","https://farm1.staticflickr.com/695/21799477272_5059097921_m.jpg","superuser",-2.4576,50.6144,"SwordsPt1"
"46753","433","Sword","","Dorchester Museum, 1939.35.1,Evidently formerly in Ashmolean Museum - Evans Collection 1927-2534,Presumably exchanged for another sword from The Backwater, Weymouth, which was Dorchester Museum, no. 314.","Dorset,Weymouth,The Backwater,(close to the mouth of the river Wey)","Weymouth, Dorset, UK","50.6144279","-2.4576210000000174","c. SY 67 79","None","None","None","500","","","","","","","","","","","","PI (O); SI; CI","Joellen mcGann","https://www.flickr.com/photos/115096994@N02/21188546324","https://farm6.staticflickr.com/5809/21188546324_0a389f85af_m.jpg","superuser",-2.4576,50.6144,"SwordsPt1"
"46754","433","Sword","","Hughes, Mr. Paul V. - private (1983),6 Fernwood Close, St. Ives, Ringwood, Hants, BH24 2NQ","Dorset,River Stour,below Crawford Bridge,(Parishes: Shopwick/Stuminster Marshall),Mr Hughes purchased it in May 83 from an old gentleman whose house he was working on; the gentleman (whose name was apparently not known) was not particularly forthcoming with information, but eventually disclosed that it was found about eight years earlier (ie, 1975) c. 1/2 mile below Crawford Bridge - he did not pinpoint the spot, but mentioned an island possible that of ST926019; the chap was working for the waterboard and dredging across the river with bucket. Probably cutting only a few feet into riverbed.","Crawford Bridge Crossroads (SE-bound), Blandford Forum, Dorset DT11, UK","50.816166","-2.1164099999999735","c. ST 926 019","None","None","1975","","","","","","","","","","","Mr. Hughes would not leave it in Dec. 1983.","","PRBAF: Zerox + illus + photo in DF; DF(S); SI; RSO 28/12/83; CI; SN Fwb 84; Source Sb. I,Sub. Inf.: Hughes","Joellen mcGann","https://www.flickr.com/photos/115096994@N02/21623399158","https://farm6.staticflickr.com/5822/21623399158_1318fa3c4a_m.jpg","superuser",-2.1164,50.8162,"SwordsPt1"
"46755","433","Sword (in two joining parts)","","Dorchester Museum, 1945.3.1","Dorset,Abbotsbury","Abbotsbury, Weymouth, Dorset DT3, UK","50.6655598","-2.5995788000000175","c. SY 57 85","None","None","None","","","","","","","","","","","","","PI (O); CI; SI","Joellen mcGann","https://www.flickr.com/photos/115096994@N02/21623399818","https://farm1.staticflickr.com/677/21623399818_4dfeb917b5_m.jpg","superuser",-2.5996,50.6656,"SwordsPt1"
"46756","433","Sword","C","Exeter Museum (No. 4190),Presented by Mr. J. F. Worth","England,Devonshire,Washfield, Tiverton,(Found in a field called ""Yonder Cleeve"" on Beauchamp Farm),1841","Tiverton, Tiverton, Devon EX16, UK","50.902049","-3.4912070000000313","SS 939151","None","None","1841","358","blade 35","","260.89","Little green patina","Original surface with a","","","","Palstave 2 pieces, Made of bronze? Ane Hoard?","","Arch. Journ.: Vol. XXIV, p. 120,Evans, p. 254","","Joellen mcGann","https://www.flickr.com/photos/115096994@N02/21785135726","https://farm6.staticflickr.com/5835/21785135726_063f1f10cd_m.jpg","superuser",-3.4912,50.902,"SwordsPt1"
"46757","433","Sword","IVa","Exeter Museum, No. 574/1911,purchased","England,Devonshire,Exmouth,Between Exmouth Beach and the Pole sands,Found while dredging.","Exmouth, Devon, UK","50.619957","-3.4137020000000575","SY 7901","None","None","None","512","blade 34; hilt 45, 22","","481.5","Brown and green patina, blue stained in places.","A little rubbed here and there showing the surface of the metal.","8","","","","","","Found whilst dredging many years ago.","Joellen mcGann","https://www.flickr.com/photos/115096994@N02/21623404858","https://farm1.staticflickr.com/570/21623404858_7343cf9d8b_m.jpg","superuser",-3.4137,50.62,"SwordsPt1"
"46758","433","Sword","IVa","Ashmolean Museum, Oxford,1887, No. 2181,Given by Rev. John Rigand, 1887","England,Devonshire","Devon, UK","50.7155591","-3.5308750000000373","","None","None","None","573","37","","585.12","","","9","","","Speckled green patina on one face, brown on the other.","Handle imperfect. Good condition.","","","Joellen mcGann","https://www.flickr.com/photos/115096994@N02/21820795051","https://farm1.staticflickr.com/690/21820795051_5a51fc27f7_m.jpg","superuser",-3.5309,50.7156,"SwordsPt1"
"46759","433","Sword","","London, British Museum,on loan from Her Majesty the Queen's collection in Windsor Castle Armoury","Cumbria,Ambleside, near","Ambleside, Cumbria, UK","54.428736","-2.961332999999968","c. NY 30 04","None","None","None","EL 494","Wsh 32.7; max W (top of bl) 35.1; max W (centre) 36.0","","531.0 g","","","Max T 9.0","","","","","","1a. Hoard; Labels/Markings: metal tag, attached with wire: '48',PIF, AFI; DF(S), SI; CI; Rec.: SN March 79; Source:BM","Joellen mcGann","https://www.flickr.com/photos/115096994@N02/21820795161","https://farm1.staticflickr.com/750/21820795161_98ae5bbbf8_m.jpg","superuser",-2.9613,54.4287,"SwordsPt1"
"46760","433","Leaf Shaped Sword","Broken IIIc","County Museum and Gallery, Truro","England,Cornwall,St. Keverne,Carnpessade (about 500 ft SE of Carnpessach Farm),near Cattle drinking-trough,July 1923","St Keverne, Helston, Cornwall TR12, UK","50.0500538","-5.087932300000034","","None","7","1923","581","hilt 48; blade 48","","786.71","Traces of patina brown, worn off in most places. Metal showing faintly in places.","Badly pitted.","blade 9","","","","Edge badly notched, point turned. Hilt somewhat damaged.","","The sword was found by the tenant, Mr. W. J. Carlyon, in boggy ground near the drinking trough, fully buried with the exception of the point, which attracted the finder's attention: it was lying diagonally in the bog.","Joellen mcGann","https://www.flickr.com/photos/115096994@N02/21623408928","https://farm6.staticflickr.com/5641/21623408928_a04b065378_m.jpg","superuser",-5.0879,50.0501,"SwordsPt1"
"46761","433","Sword","","Fleming, Mrs. Ian - private (1976) no. 1,Sevenhampton Place, Sevenhamption, Wilts.","Cornwall,""West Cornwall""","Cornwall, UK","50.26604709999999","-5.052712499999984","","None","None","None","549","","","","","","","","","","","","Context: 9. Undocumented,PIF; DF(C); SI; CI; Rec. SN Jan 82; Source: Sb. A, 1976","Joellen mcGann","https://www.flickr.com/photos/115096994@N02/21820797791","https://farm6.staticflickr.com/5767/21820797791_46b12bd3e6_m.jpg","superuser",-5.0527,50.266,"SwordsPt1"
"46762","433","Sword (Hilt Frag.)","Cast Bronze Hilt","The Museum of the Societe Jersiaise,St. Heliers, Jersey","Channel Islands,Jersey,St. Martin,Rozel,La Petite Cesaree (Le Catel)","Le CÃ¢tel, Jersey","49.237089","-2.054599199999984","","None","None","None","207","hilt 33; blade 37","","280","","Corroded","blade 11","","","Gaulish & Roman coins, some pottery & stone implements. The site is within a coast earthenworks of unknown date.","","J.J. Hawks, Jersey, 439, 193, pl. IX, 1, 109","ib.ii ""Probably in 1 BC + of [L....] Time","Joellen mcGann","https://www.flickr.com/photos/115096994@N02/21820798741","https://farm6.staticflickr.com/5700/21820798741_892a99ab30_m.jpg","superuser",-2.0546,49.2371,"SwordsPt1"
"46763","433","Leaf Shaped Sword/[Camp's Toungue?]/1 Hilt frag. + 1 Blade Frag","V","Guille Alles Museum, Guernsey,Gaudion Collection","Channel Islands,Alderney,Longy Common,1832","Longis Common, Guernsey","49.7206604","-2.1700596000000587","","None","None","1832","57, 112","32, 49, 40","","194","","(I) Green & grey green coloured - prominent parts are brighter green. A little mud adheres.,(II) This piece is very bent. Colour, green brown & green. One side deeply pitted and shows rust coloured spots. A little mud adheres on the other side.","12, 9","","","Hoard of about 200 pieces.","(II) The drawing shows the piece flattened out. Broken edge is very rough (hilt piece)","T.D. Kendrick, The Arch of the Channel Islands, Vol. I, p. 64, pl. VIII (1928 ed.)","","Joellen mcGann","https://www.flickr.com/photos/115096994@N02/21623412138","https://farm1.staticflickr.com/748/21623412138_baa2b3b47a_m.jpg","superuser",-2.1701,49.7207,"SwordsPt1"
"46764","433","Leaf Shaped Sword/[Camps Tongues?]/1 shoulder frag. + 1 blade frag.","V","T.D. Kendrick: The Arch of the Channel Islands, Vol. I. p. 62, pl. VII, (1928 ed)","Channel Islands,Alderney,Longy Common 1832","Longis Common, Guernsey","49.7206604","-2.1700596000000587","","None","None","1832","56, 89","blade 33; hilt 30, 51, 26","","202","","Hilt piece: Green, slightly pitted, a little mud adhering at the end. Shiny.; Blade: green, slightly pitted, has a thin covering of mud which makes it look dull. This piece is bent.","9, 9.5","","","Hoard of about 200 pieces.","","","","Joellen mcGann","https://www.flickr.com/photos/115096994@N02/21623413538","https://farm1.staticflickr.com/768/21623413538_b0b1ced8e3_m.jpg","superuser",-2.1701,49.7207,"SwordsPt1"
"46765","433","Sword Hilt/Hilt Frag.","III","Guille Alle's Museum, Guernsey,Gaudion Collection","Channel Islands,Alderney,Longy Common,1832","Longis Common, Guernsey","49.7206604","-2.1700596000000587","","None","None","1832","56","25, 37","","","","","2 (at top)","","","Hoard of about 200 pieces.","","T.D. Kendrick, The Arch. of the Channel Islands, Vol. I, p. 64, pl. VIII (1928 ed)","","Joellen mcGann","https://www.flickr.com/photos/115096994@N02/21623254480","https://farm1.staticflickr.com/709/21623254480_214a1a41d2_m.jpg","superuser",-2.1701,49.7207,"SwordsPt1"
"46766","433","Sword","IVa","Anthropological Museum, Aberdeen University,253,Given by George Kerr, 1878","Scotland,Kincardineshire,Balnagubs,in line between Roman camps of Rae-dykes and Drumoak.,1809","Drumoak, Banchory, Aberdeenshire AB31, UK","57.08149","-2.3458779999999706","","None","None","1809","609","blade 41","","664","","","6","","","","Point broken.","","","Joellen mcGann","https://www.flickr.com/photos/115096994@N02/21799497642","https://farm1.staticflickr.com/590/21799497642_f5608f734e_m.jpg","superuser",-2.3459,57.0815,"SwordsPt1"
"46767","433","Sword","","Haslam, Mr. - private,(one time site engineer at Funtham's Lane pit)","Cambridgeshire,Whittlesey,Funtham's Lane Pit","Funtham's Ln, Peterborough, Cambridgeshire PE7 2PG, UK","52.5601578","-0.17538860000001932","TL 2375 9688","None","None","None","","","","","","","","","","","","a) Pryor, 1978, no. 2","7a. Area Find,AFI; SI; CI; Rec: SN April 79; Source: R","Joellen mcGann","https://www.flickr.com/photos/115096994@N02/21623259140","https://farm1.staticflickr.com/671/21623259140_f32c5c4e10_m.jpg","superuser",-0.1754,52.5602,"SwordsPt1"
"46768","433","Sword (portion)","IIIa","Museum of Archaeology & Ethnology, Cambridge,Purchased by the Cambridge Antiquarian Society, April 1919,1919.6","England,Cambridgeshire,Wilburton,In fen land belonging to Mr. Oliver Claude Pell,1882","Wilburton, Cambridgeshire, UK","52.352064","0.1766450000000077","","None","None","1882","204","60; 28","","167","Dull black patina all over except for one or two patches where the metal shows through","A little rough","","","","The Wilburton Hoard","","Archaeologia, XLVIII, 106,New Cambridge, 17 May 1919","","Joellen mcGann","https://www.flickr.com/photos/115096994@N02/21624415069","https://farm6.staticflickr.com/5617/21624415069_5c746496dd_m.jpg","superuser",0.1766,52.3521,"SwordsPt1"
"46769","433","Leaf Shaped Sword (portion)","IIIb","Museum of Archaeology & Ethnology, Cambridge,Purchased by the Cambridge Antiquarian Society, April 1919,1919.6","England,Cambridgeshire,Wilburton,In fen land belonging to Mr. Oliver Claude Pell,1882","Wilburton, Cambridgeshire, UK","52.352064","0.1766450000000077","","None","None","1882","175","29, 44","","155","Black, yellow, & brown patina, Bronze & Tin shining through","Rough fused & bent","","","","The Wilburton Hoard","","Archaeologia, XLVIII, 106,New Cambridge, 17 May 1919","","Joellen mcGann","https://www.flickr.com/photos/115096994@N02/21811316395","https://farm6.staticflickr.com/5622/21811316395_bdc55a7b27_m.jpg","superuser",0.1766,52.3521,"SwordsPt1"
"46770","433","Sword (portion)","IIIb","Museum of Archaeology & Ethnology, Cambridge,Purchased by the Cambridge Antiquarian Society, April 1919,1919.6","England,Cambridgeshire,Wilburton,In fen land belonging to Mr. Oliver Claude Pell,1882","Wilburton, Cambridgeshire, UK","52.352064","0.1766450000000077","","None","None","1882","199","31","","192","Black brown & dust coloured patina.","Rough & corroded. 2 Rivets fused into holes, the other two broken away.","","","","The Wilburton Hoard","","Archaeologia, XLVIII, 106,New Cambridge, 17 May 1919","","Joellen mcGann","https://www.flickr.com/photos/115096994@N02/21623427438","https://farm6.staticflickr.com/5630/21623427438_945d5b8011_m.jpg","superuser",0.1766,52.3521,"SwordsPt1"
"46771","433","Sword Hilt","III","Museum of Archaeology & Ethnology, Cambridge,Purchased by the Cambridge Antiquarian Society, April 1919,1919.6","England,Cambridgeshire,Wilburton,In fen land belonging to Mr. Oliver Claude Pell,1882","Wilburton, Cambridgeshire, UK","52.352064","0.1766450000000077","","None","None","1882","89","34, 28.5","","54","Dull black patina","Rough","","","","The Wilburton Hoard","","Archaeologia, XLVIII, 106,New Cambridge, 17 May 1919","","Joellen mcGann","https://www.flickr.com/photos/115096994@N02/21190213953","https://farm1.staticflickr.com/718/21190213953_42d1dba34f_m.jpg","superuser",0.1766,52.3521,"SwordsPt1"
"46772","433","Leaf Shaped Sword/1 hilt + 1 shoulder frag. adjoining + 2 blade frags. adjoining?","IIIb","Museum of Archaeology & Ethnology, Cambridge,Purchased by the Cambridge Antiquarian Society, April 1919,1919.6","England,Cambridgeshire,Wilburton,In fen land belonging to Mr. Oliver Claude Pell,1882","Wilburton, Cambridgeshire, UK","52.352064","0.1766450000000077","","None","None","1882","Total 573.5","blade 39; widest part of hilt 57.5","","Total 556.5","","Slightly fused & bent","","","","Found with the Wilburton Hoard.","","Archaeologia XLVIII, 106,New Cambridge, 17 May 1919","","Joellen mcGann","https://www.flickr.com/photos/115096994@N02/21623431888","https://farm6.staticflickr.com/5807/21623431888_a967ab7717_m.jpg","superuser",0.1766,52.3521,"SwordsPt1"
"46773","433","Leaf Shaped Sword/Shoulder Frag & 2 joining blade frags & 1 other blade frag.","IIIb","Museum of Archaeology & Ethnology, Cambridge,Purchased by the Cambridge Antiquarian Society, April 1919,1919.6","England,Cambridgeshire,Wilburton,In fen land belonging to Mr. Oliver Claude Pell,1882","Wilburton, Cambridgeshire, UK","52.352064","0.1766450000000077","","None","None","1882","531","widest part of hilt 52; blade 43","","647","","","","","","Found with the Wilburton Hoard","One edge wavy & bent & slightly fused on one part.","Archaeologia, XLVIII, 106,New Cambridge, 17 May 1919","","Joellen mcGann","https://www.flickr.com/photos/115096994@N02/21785168376","https://farm1.staticflickr.com/711/21785168376_bed2d948ec_m.jpg","superuser",0.1766,52.3521,"SwordsPt1"
"46774","433","Leaf Shaped Sword,Shoulder Frag. & 1 blade frag.","IIIb","Museum of Archaeology & Ethnology, Cambridge,Purchased by the Cambridge Antiquarian Society, April 1919,1919.6","England,Cambridgeshire,Wilburton,In fen land belonging to Mr. Oliver Claude Pell,1882","Wilburton, Cambridgeshire, UK","52.352064","0.1766450000000077","","None","None","1882","Total 560","Blade 36; widest part of hilt 52","","579","","","","","","Found with the Wilburton Hoard.","Point is fused & bent.","Archaeologia, XLVIII, 106,New Cambridge, 17 May 1919","","Joellen mcGann","https://www.flickr.com/photos/115096994@N02/21188584114","https://farm6.staticflickr.com/5825/21188584114_38fdf95e65_m.jpg","superuser",0.1766,52.3521,"SwordsPt1"
"46775","433","Leaf shaped Sword/Hilt half + 1 blade frag.","IIIb","Museum of Archaeology + Ethnology, Cambridge,Purchased by the Cambridge Antiquarian Society, April 1919,1919.6","England,Cambridgeshire,Wilburton,In fen land belonging to Mr. Oliver Claude Pell,1882","Wilburton, Cambridgeshire, UK","52.352064","0.1766450000000077","","None","None","1882","280, 237","57.5, 37 (hilt)","","324, 237","","","","","","The Wilburton Hoard","","Archaeologia, XLVIII, 106,New Cambridge, 17 May 1919","","Joellen mcGann","https://www.flickr.com/photos/115096994@N02/21190226113","https://farm1.staticflickr.com/648/21190226113_e5f027deee_m.jpg","superuser",0.1766,52.3521,"SwordsPt1"
"46776","433","Leaf Shaped Sword/Shoulder frag. & 3 blade frags.","IIIb","Museum of Archaeology & Ethnology, Cambridge,Purchased by the Cambridge Antiquarian Society, April 1919,1919.6","England,Cambridgeshire,Wilburton,In fen land belonging to Mr. Oliver Claude Pell,1882","Wilburton, Cambridgeshire, UK","52.352064","0.1766450000000077","","None","None","1882","A: 148; B: 87.5; C: 128; D: 198; Total: 1349","58 & up to 41","","A: 160; B: 90; C:160; D: 162","","","","","","The Wilburton Hoard","Rivets fused in.","Archaeologia, XLVIII, 106,New Cambridge, 17 May 1919","","Joellen mcGann","https://www.flickr.com/photos/115096994@N02/21624438059","https://farm6.staticflickr.com/5784/21624438059_0704189343_m.jpg","superuser",0.1766,52.3521,"SwordsPt1"
"46777","433","Leaf shaped sword/Shoulder frag. + 2 blade frags.","IIIb","Museum of Archaeology & Ethnology, Cambridge,Purchased by the Cambrdige Antiquarian Society, April 1919,1919.6","England,Cambridgeshire,Wilburton,In fen land belonging to Mr. Oliver Claude Pell,1882","Wilburton, Cambridgeshire, UK","52.352064","0.1766450000000077","","None","None","1882","Total: 547","blade 44; widest part of hilt 58.5","","596","","","","","","Found with the Wilburton Hoard.","","Archaeologia, XLVIII, 106,New Cambridge, 17 May 1919","","Joellen mcGann","https://www.flickr.com/photos/115096994@N02/21190232163","https://farm1.staticflickr.com/607/21190232163_3706d2c18a_m.jpg","superuser",0.1766,52.3521,"SwordsPt1"
"46778","433","Leaf Shaped Sword/Hilt frag. + 5 blade frags. (some adjoining)","IIIa","Museum of Archaeology & Ethnology, Cambridge,Purchased by the Cambridge Antiquarian Society, April 1919,1919.6","England,Cambridgeshire,Wilburton,In fen land belonging to Mr. Oliver Claude Pell,1882","Wilburton, Cambridgeshire, UK","52.352064","0.1766450000000077","","None","None","1882","Total 621.5","blade 45; widest part of hilt 55","","Total 654","","Slightly fused & bent","","","","Found with the Wilburton Hoard.","","Archaeologia, XLVIII, 106,New Cambridge, 17 May 1919","","Joellen mcGann","https://www.flickr.com/photos/115096994@N02/21623450228","https://farm1.staticflickr.com/695/21623450228_6cdea1bc87_m.jpg","superuser",0.1766,52.3521,"SwordsPt1"
"46779","433","Leaf Shaped Sword Fragment","IIIc","Wisbech Museum","England,Cambridgeshire,Stretham (near),Grunty Fen","Stretham, Cambridgeshire, UK","52.3494602","0.22030289999997876","","None","None","None","107","hilt 53, 22","","127.56","No patina","Smooth, dull green","4, 8, 6, 5.5","","","","","","","Joellen mcGann","https://www.flickr.com/photos/115096994@N02/21820840361","https://farm6.staticflickr.com/5715/21820840361_f075a6d72d_m.jpg","superuser",0.2203,52.3495,"SwordsPt1"
"46780","433","Leaf Shaped Sword","IIc","Museum of Archaeology, Cambridge,Presented by J. T. Martin, Esq., Dec. 1848","England,Cambridgeshire,Quy Fen","Quy, Stow cum Quy, Cambridge, Cambridgeshire CB25, UK","52.22293","0.22704399999997804","","None","None","None","562","blade 42.5; hilt plate 52.5","","57","Green & brown patina","Rough & dull","blade 6","","","","Broken at handle and point, no rivets.","Prehistoric Bronzes, 143, No catalogue.,Bronzes 2. The number can be found in a catalogue called ""Museum of Archaeology"",Cambridge Antiquarian Society Catalogue, 161 May 1884","","Joellen mcGann","https://www.flickr.com/photos/115096994@N02/21190237833","https://farm1.staticflickr.com/679/21190237833_62a0f8290d_m.jpg","superuser",0.227,52.2229,"SwordsPt1"
"46781","433","Leaf Shaped Sword","IVb","On loan to Peterborough Museum,From finder Mr. Tony Hancock, Frengate, Peterborough","England,Cambridgeshire,(Isle of Ely),Worth Stanground,Horsey Toll Farm,Jan. 1964","Stanground, Peterborough, Peterborough, Peterborough PE2, UK","52.55066799999999","-0.21841199999994387","6"" OS TL 222 964: 1"" OS 52/222 964","None","1","1964","545","38","","","","","","","Bronze","","Dimensions: Length: 20"" or 54.5 cm; Width: 1 1/2"" or 3.8 cms,Bent. Broken near point where finder tried to straighten. Pommel end of hilt broken off. Small cast holes below rivet holes.","","*Measured along bend, appears shorter in drawing.,Dug up by rotary cultivator working at depth of 4"" to 6"".","Joellen mcGann","https://www.flickr.com/photos/115096994@N02/21190239493","https://farm1.staticflickr.com/738/21190239493_e541e2448a_m.jpg","superuser",-0.2184,52.5507,"SwordsPt1"
"46782","433","Leaf Shaped Sword","IIIa","Museum of Archaeology, Cambridge","England,Cambridgeshire,Haddenham,Aldreth,Highbridge,August 1854","High St, Haddenham, Aylesbury, Buckinghamshire HP17 8ES, UK","51.7710861","-0.929434600000036","","None","8","1854","592","blade 42.5; hilt 58, 31","","652","Brown patina, some green & dust colour about the hilt, metal showing through all over slightly.","Rough & corroded, deep pits in places.","blade 8","","","","One rivet in slot, below are four rivet holes, containing 3 rivets.","Prehistoric Bronzes 144. No catalogue.,Bronzes 1, Numbers to be found in catalogue named ""Museum of Archaeology."",Cambridge Antiquarian Society catalogue, 160, 1883.","","Joellen mcGann","https://www.flickr.com/photos/115096994@N02/21820846291","https://farm1.staticflickr.com/593/21820846291_a8c64317a0_m.jpg","superuser",-0.9294,51.7711,"SwordsPt1"
"46783","433","Leaf Shaped Sword Frag.","","Museum of Archaeology & Ethnology, Cambridge,Presented by Mr. Massey, Mr. W. Grace of March.,Cambridge Antiquarian Society, 1884.,Bronzes No. 6 (Numbers to be found in a volume entitled ""Museum of Archaeology"")","England,Cambridgeshire,Haddenham,14 July 1857","Haddenham, Buckinghamshire, UK","51.77334","-0.9259650000000192","","14","7","1857","385","blade 33, 37 (hilt plate)","","301","Brown and green & a good deal of chalky dust colour.","Exceedingly corroded.","blade 7.5","","","","Hilt broken off.","","","Joellen mcGann","https://www.flickr.com/photos/115096994@N02/21188605934","https://farm6.staticflickr.com/5789/21188605934_9b1f06e85c_m.jpg","superuser",-0.926,51.7733,"SwordsPt1"
"46784","433","Sword","","Museum of Archaeology & Ethnology, Cambridge, 48.300","England,Cambridgeshire,Great Wilbraham,Vicarage Common","Great Wilbraham, Cambridge, Cambridgeshire CB21, UK","52.1920718","0.26473190000001523","","None","None","None","622.3","","","","","","","Length: 24 1/2"" = 622.3 mm","","","","","","Joellen mcGann","https://www.flickr.com/photos/115096994@N02/21799537352","https://farm1.staticflickr.com/681/21799537352_46be5c7fcd_m.jpg","superuser",0.2647,52.1921,"SwordsPt1"
"46785","433","Sword","Vc","Museum of Archaeology & Ethnology, Cambridge,22.567","England,Cambridgeshire,Fens, near Ely","Ely, Ely, Cambridgeshire, UK","52.399539","0.2623630000000503","","None","None","None","","","","","","","","","","","","","","Joellen mcGann","https://www.flickr.com/photos/115096994@N02/21624454079","https://farm6.staticflickr.com/5714/21624454079_fe3cea0178_m.jpg","superuser",0.2624,52.3995,"SwordsPt1"
"46786","433","Leaf Shaped Sword/Prossibly Camp's Tongues","Vc","Cambridge Ethnological Museum, 567","England,Cambridgeshire,Ely (near),in Fens","Ely, Ely, Cambridgeshire, UK","52.399539","0.2623630000000503","","None","None","None","629","blade 16, 31; hilt 45.5, 28, 29","","581.16","Light grey green","Rough, encrusted","blade 5.5, 8.5; hilt 6.5, 9","","","","","","","Joellen mcGann","https://www.flickr.com/photos/115096994@N02/21624456949","https://farm1.staticflickr.com/620/21624456949_c2d5a23362_m.jpg","superuser",0.2624,52.3995,"SwordsPt1"
"46787","433","Sword","","London, Tower Armoury, Tr. 47","Cambridgeshire,River Ouse,Ely","Ely, Ely, Cambridgeshire, UK","52.399539","0.2623630000000503","c. TL 53 80","None","None","None","452","Wsh. 40.7, min. W.bl. 30.2; max W bl. 34","","433.6","","Fine shiny greeny-brown, speckled with dull gold colour on one face","Maz T hilt rib 7.4","","","","Dimensions: L 452mm; Wsh. 40.7mm; min W. bl. 30.2; max W. bl. 34.0; max T hilt rib 7.4; L rivets 13.2 - 15.4; wt. 433.6g,Typology: milled acrosses - on slight diagonals; rivets mainly fixed by corr. and suggest elliptical handle section; rivets w. flat heads, faceted round sections.,Manufacture: cg. flash remains on hilt sides - poorly finished; many small cavities (?porosity) on hilt plate only,Condition: v. sharp edges; one significant edge dent","","Labels/Markings: adhesive large rect. sepia label: '47',PIF; Rec. SN July 88; Source: BM loan","Joellen mcGann","https://www.flickr.com/photos/115096994@N02/21799542702","https://farm1.staticflickr.com/770/21799542702_cf42ec6630_m.jpg","superuser",0.2624,52.3995,"SwordsPt1"
"46788","433","Leaf Shaped Sword","IVa","Museum of Archaeology & Ethnology, Cambridge,Bronzes 91 (Numbers to be found in a volume entitled ""Museum of Archaeology""),Prehistoric Bronzes No. 2 (Catalogue is lost.)","England,Cambridgeshire,Ely","Ely, Ely, Cambridgeshire, UK","52.399539","0.2623630000000503","","None","None","None","598","hilt plate 37.5, 50; blade 42","","565","Black & whitish green & metal showing through on one face.","Rough, uneven, & flaky.","blade 6.5","","Bronze","","Bevelling around blade edges has almost disappeared. The edge round hilt plate from shoulder to shoulder has been filed, thus altering the outline. (Pommel end filed flat). The four large rivet holes have been redrilled. Two smaller ones (one broken into) have not. 4th central rivet hole modern (JDC).","","Labelled: R.86.14, Bronze Sword, Ely, W.K. Foster, Esq.","Joellen mcGann","https://www.flickr.com/photos/115096994@N02/21799545612","https://farm6.staticflickr.com/5676/21799545612_04d87665d9_m.jpg","superuser",0.2624,52.3995,"SwordsPt1"
"46789","433","Leaf Shaped Sword","IVa","Cambridge Archaeological and Ethnological Museum,Cole Ambrose Collection (566)","England,Cambridgeshire,Coveney","Coveney, Ely, Cambridgeshire CB6, UK","52.416416","0.18800599999997303","","None","None","None","475.5","blade 41; hilt 46, 35.5, 36","","581.16","","Smooth, dull bronze","blade 7; hilt 9, 4","","","","","","","Joellen mcGann","https://www.flickr.com/photos/115096994@N02/21811361725","https://farm1.staticflickr.com/758/21811361725_f5cca36b13_m.jpg","superuser",0.188,52.4164,"SwordsPt1"
"46790","433","Sword","Other","Museum of Archaeology & Ethnology, Cambridge,22.565","England,Cambridgeshire,Coveney","Coveney, Ely, Cambridgeshire CB6, UK","52.416416","0.18800599999997303","","None","None","None","","","","","","","","","","","","","","Joellen mcGann","https://www.flickr.com/photos/115096994@N02/21785206586","https://farm1.staticflickr.com/757/21785206586_9a3e57fbe4_m.jpg","superuser",0.188,52.4164,"SwordsPt1"
"46791","433","Sword (Other)","","Cambridge Ethnological Museum,Cole Ambrose Collection, 22.565","England,Cambridgeshire,Coveney","Coveney, Ely, Cambridgeshire CB6, UK","52.416416","0.18800599999997303","","None","None","None","486","blade 36; hilt 41.5, 36, 22","","581.16","black","Rough & encrusted","blade 8; hilt 8.5, 4, 9, 23","","","","","","","Joellen mcGann","https://www.flickr.com/photos/115096994@N02/21190260663","https://farm1.staticflickr.com/769/21190260663_870b65614c_m.jpg","superuser",0.188,52.4164,"SwordsPt1"
"46792","433","Sword","","Cambridge, Fitzwilliam Museum, M20-1947,Given 1947 by Miss Philippa Tharp in memory of her brother, Flying Officer John D A Tharp (1922-43) in possession of W. M. Tharp in 1888.","England,Cambridgeshire,Chippenham,Badlingham Road 1,""The site...was upon the open field to the right of the road leading from the village street to Badlingham, and at about 85 yards from it and the fence separating the field from the strip of meadowland which intervenes between it and the brook. At this point which is just below the brow of the rising ground, some men digging for gravel in the middle of last December (c. 1883-6), unearthed the relic at a depth of about two and a half feet from the surface. It lay with its point directed to the North West and its hilt at a lower level, upon, and partly within, a stratum of picked flint stones of larger size than the average of these found in the surrounding soil, which is of sandy nature and unprofitable for sifting...""(full extract in documents file) (a)","Badlingham Rd, Chippenham, Ely CB7 5QQ, UK","52.30792570000001","0.45510030000002644","c. TL 6675 7020","None","12","1883","","","","","","","","","","","","a) Prigg 1888, 185-6, 187 fig 1.","8a. Single Find (O)/7a. Area Find,AFI; DF(S); SI; CI; Rec: SN Aug 80; Source: R/Sb. T.; Sub. Inf. I.E. Moore (DF)","Joellen mcGann","https://www.flickr.com/photos/115096994@N02/21190261113","https://farm1.staticflickr.com/610/21190261113_e88339cd15_m.jpg","superuser",0.4551,52.3079,"SwordsPt1"
"46793","433","Leaf Shaped Sword","VI","Museum of Archaeology & Ethnology, Cambridge,From Collection of W. M. Prior of Stevenage, Herts.","England,Cambridgeshire,Cambridge near (said to be found there)","Cambridge, Cambridge, UK","52.205337","0.12181699999996454","","None","None","None","595","hilt plate 59, 34; blade 48","","832","Dark brown and drab.","Fairly smooth.","blade 8","","","","Grooved behind bevel of edge. 6 rivet holes, one broken.","","cf. DC Mills forgery 1/VII/57","Joellen mcGann","https://www.flickr.com/photos/115096994@N02/21820869051","https://farm6.staticflickr.com/5690/21820869051_ed3910321c_m.jpg","superuser",0.1218,52.2053,"SwordsPt1"
"46794","433","Leaf Shaped Sword","IIc","Museum of Archaeology, Cambridge,Litchfield Collection (from Evans' collection)","England,Cambridgeshire,Cambridge","Cambridge, Cambridge, UK","52.205337","0.12181699999996454","","None","None","None","480","43 blade; 54.5 hilt (widest)","","330","","On one side smooth & dull & bright green, some brown & black about the rivet holes also rougher. On the other side rougher, bright green & light brown.","7 blade","","","","Broken in 2 places. High sharp midrib, ornamented round the cutting edge with 2 parallel incised lines. No notches. Rivet holes roughly punched (8). The metal must be fairly soft, because the broken edges are bent as though broken with a to and fro movement.","","","Joellen mcGann","https://www.flickr.com/photos/115096994@N02/21623481488","https://farm1.staticflickr.com/724/21623481488_aef59f5cb5_m.jpg","superuser",0.1218,52.2053,"SwordsPt1"
"46795","433","Leaf Shaped Sword/1 shoulder fragment + 2 blade fragments","IVa","Northampton Central Museum,U.M.R., Case No. 6A, 173,purchased","England,Bucks.,Bradwell,New Bradwell","New Bradwell, Milton Keynes, Milton Keynes, UK","52.06731","-0.7834920000000238","","None","None","None","110, 109, 92, 147","hilt 45; blade 25, 28, 34, 32, 33","","82.36","Light green","Smooth","blade 7","","","","In 4 pieces.","","One of a hoard of 9 Celts (Nos 172A to 173I), 1 palstave (173 X), pieces of 2 spearheads (173M + 173N) + this.","Joellen mcGann","https://www.flickr.com/photos/115096994@N02/21623483068","https://farm6.staticflickr.com/5721/21623483068_2a0d9faefd_m.jpg","superuser",-0.7835,52.0673,"SwordsPt1"
"46796","433","Sword Type E","IId","Eton College Museum, No. 199,Presented by Rev. G. E. Hale","England,Bucks.,Thames,Eton,from R. Thames","Eton, Windsor, Windsor and Maidenhead SL4, UK","51.487402","-0.60794199999998","","None","None","None","333","blade (where broken) 50; hilt plate 60, 30","","398","","","blade 9","","Bronze","","","","","Joellen mcGann","https://www.flickr.com/photos/115096994@N02/21799561712","https://farm6.staticflickr.com/5699/21799561712_ebc4a681f7_m.jpg","superuser",-0.6079,51.4874,"SwordsPt1"
"46797","433","Sword Hilt Frag.","","Luton Museum,Bought of Hughes, Mr. F,Private (probably to be sold),Info. from Bucks. Co. Museum, ref. CAS 2477,Mr. Frank W. Hughes,8 Chequers Cottage,Whipsnade,Beds.","England,Bucks.,Ivinghoe,The Coombe (a steep wooded slope),1976","Ivinghoe, Leighton Buzzard, Buckinghamshire LU7, UK","51.837421","-0.6283590000000459","SP 9668 1536","None","None","1976","192","54","","","Smooth grey-green patina on blade.","Hilt rough + abraded.","","","","","2 rivets remaining (separate),edges badly chipped.","","Drilled Aug. 1976,Found with metal detector.,ND76,CI, SI, PIF","Joellen mcGann","https://www.flickr.com/photos/115096994@N02/21785219926","https://farm1.staticflickr.com/584/21785219926_7283647d0f_m.jpg","superuser",-0.6284,51.8374,"SwordsPt1"
"46798","433","Bronze Sword (Hallstatt type)","VI","Viscountess Gage,Submitted by Mr. Anthony H. Packe,Tile House,Dropmore Road,Burnham, Bucks.,August 1953","England,Buckinghamshire,Taplow (Thames at),See also preceding card - apparently same sword.","Taplow, Buckinghamshire, UK","51.532169","-0.6879599999999755","","None","None","1936","719","","","711","Dull bronze with large areas of black particularly on and near hilt. Some recent scraping on both faces.","Matt","","","Bronze","","Bronze sword of Hallstatt type in good condition. Nine rivets with ""cap & pimple"" heads. Two rivet holes at extreme broken end of hilt. Slight bend about 7 ins. from end of blade.","","Presented to Lord Desborough (Lady Gage's father) by the Conservators of the River Thames.,Dredged up in 1936","Joellen mcGann","https://www.flickr.com/photos/115096994@N02/21799564372","https://farm1.staticflickr.com/781/21799564372_f02ae85dcd_m.jpg","superuser",-0.688,51.5322,"SwordsPt1"
"46799","433","Sword","","Thames Conservancy Collection,Presented 12 July 1937 to the retiring Chairman of the Thames Conservancy Board, the Rt. Hon. Lord Desborough, K.G., G.C.V.O., of Taplow Court, Bucks.,see also next card - apparently same sword","England,Bucks.,R. Thames at Taplow, Bucks, opposite Bray,""This was recovered 19 Nov. 1936, from material dredged by No. 4 Dredger working by Hatch R., about 50 ft. out from the towpath bank (i.e. Bucks side) opposite Messum's Boathouse at Bray. Depth of Water 5'9""; dredging depth 7'6"""" (Memo of Thames Conservancy, copied 1937).","Taplow, Buckinghamshire, UK","51.532169","-0.6879599999999755","6"" O.S. Bucks LV NE","19","11","1936","719","61 at shoulders","","712","Dark, peaty [orcassing?] in patches; considerable areas golden bronze. Traces of blue & violet colour on grip and pommel.","Smooth surface","9","","","","Three rivets in hilt; 3 in each shoulder; elongated tongue extending from blade to lower of rivets in hilt. Pommel broken; the rivet holes and slot between them, but not quite in the middle. Shoulders have a slight overhanging projection. Slight flange on each side of grip. Casting-flaw by one edge near point. Blade slightly bent. Sharp edges. Traces of ?bone substance on grip, probably vestiges of bone? hilt plates (T.D.K., has Leica negative of photo showing this).","","","Joellen mcGann","https://www.flickr.com/photos/115096994@N02/21624479599","https://farm6.staticflickr.com/5723/21624479599_7670dddb25_m.jpg","superuser",-0.688,51.5322,"SwordsPt1"
"46800","433","Sword","","?","Scotland,Angus,Drumyellow","Drumyellow Farm Cottage, Arbroath, Angus DD11 2QP, UK","56.583975","-2.6738829999999325","","None","None","None","531","shoulders 44; blade 43","","","","","","","","","Typology: Ewort Park Sword,Condition: Tip missing ""T"" shape at hilt missing, broken into 4 parts","","","Joellen mcGann","https://www.flickr.com/photos/115096994@N02/21623327970","https://farm6.staticflickr.com/5763/21623327970_b275dba209_m.jpg","superuser",-2.6739,56.584,"SwordsPt1"
"46801","433","Leaf Shaped Sword","IVa","Private Collection,G. Smith, Esq.,1923,Reading Mus. S 259:45","England,Berks,Burghfield,From Kennett,2 pieces found separately (dredged) 10 days apart,25/2/1892","Burghfield, Reading, West Berkshire RG30, UK","51.4116863","-1.0452600999999504","","25","2","1892","580","hilt 46, 34; blade 41","","496.12","","ronze metal colour, black stained nearly all over.","blade 5","","","","4 rivets still remain - held in position by mud in long rivet holes. Broken in two pieces & clumsily mended","","","Joellen mcGann","https://www.flickr.com/photos/115096994@N02/21623330520","https://farm6.staticflickr.com/5660/21623330520_b097e918b7_m.jpg","superuser",-1.0453,51.4117,"SwordsPt1"
"46802","433","Leaf-Shaped Sword","IVa","Reading Museum, S259:45,Smith Collection","England,Berks.,Burghfield,Found in the River Kennet in February 1892, just below the ""Arrowhead"" at Burghfield. The hilt and the blade were found separately and have been brazed together.","Burghfield, Reading, West Berkshire RG30, UK","51.4116863","-1.0452600999999504","","None","2","1892","","","","","Fine dark green","Very good","","","Bronze","","This sword was presumably broken in dredging, for very tip of the blade is missing and the break is recent. Otherwise the condition of the sword is excellent. Three bronze rivets remain in the slots.","","J. Wymer","Joellen mcGann","https://www.flickr.com/photos/115096994@N02/21820882641","https://farm6.staticflickr.com/5696/21820882641_ed8812ce3d_m.jpg","superuser",-1.0453,51.4117,"SwordsPt1"
"46803","433","Leaf Shaped Sword","IVa","Private Collection,P Waterhouse,1923,Yattendon Court","England,Berks,Yattendon,Yattendon Court,In digging foundations of house,1878","Yattendon Ct, Yattendon, Thatcham, West Berkshire RG18 0UT, UK","51.47201039999999","-1.1910648000000492","","None","None","1878","209","blade 32; hilt 50","","318.93","Rich green patina heavily mud stained.","","blade 11","","","Part of a hoard of 60 pieces.","Hilt broken. Blade broken across. Edge chipped. 4 Rivet holes. 1 rivet remains.","Proc. Soc. Ant. (2nd Ser), VII, 480,Evans, Anc. B. Imps.,V.C.H. Berks, i","","Joellen mcGann","https://www.flickr.com/photos/115096994@N02/21785228246","https://farm1.staticflickr.com/577/21785228246_baf962d279_m.jpg","superuser",-1.1911,51.472,"SwordsPt1"
"46804","433","Leaf Shaped Sword","IV","Private Collection,1923,P. Waterhouse,Yattendon Court","England,Berks,Yattendon,Yattendon Court,In digging foundations of house,1878","Yattendon Ct, Yattendon, Thatcham, West Berkshire RG18 0UT, UK","51.47201039999999","-1.1910648000000492","","None","None","1878","76","hilt 16, 32","","53.15","grey green","badly mudstained.","","","","Part of a hoard of 60 pieces.","","Proc. Soc. Ant. (2nd ser), VII, 480,Avans, A. B. Imps.,V.C.H. Berks, i","","Joellen mcGann","https://www.flickr.com/photos/115096994@N02/21811386945","https://farm1.staticflickr.com/709/21811386945_1d20f15714_m.jpg","superuser",-1.1911,51.472,"SwordsPt1"
"46805","433","Leaf Shaped Sword","IVa","Norwich Castle Museum,Cat. of Antiqs. No. 316,Donor Mr. J. French 141.27","England,Berks,Runnymede (near Windsor)","Runnymede, Windsor Rd, Old Windsor, Windsor and Maidenhead SL4 2JL, UK","51.4388382","-0.5544522999999799","","None","None","None","547","blade 40, 28, 37; hilt 34, 50, 22, 17, 39","","567","","","4, 10, 7","","","","Seven rivet holes.","Evans' Bronze Impls. (1881), p. 281","","Joellen mcGann","https://www.flickr.com/photos/115096994@N02/21785233326","https://farm6.staticflickr.com/5774/21785233326_659288bc1d_m.jpg","superuser",-0.5545,51.4388,"SwordsPt1"
"46806","433","Leaf Shaped Sword/Hybrid Bexley Heath/Hallstatt","IVb","Reading Museum, AL2","England,Berks.,Reading,Katesgrove,from the Kennet,Nov. 1883","Katesgrove Ln, Reading, Reading RG1 2ND, UK","51.4496","-0.9734203000000434","","None","11","1883","542","blade 40; hilt 49","","609.52","Brown, worn off most of the blade, leaving surface a rusty colour.","","blade 7","","","","Perfect but for a few dents in blade. 6 rivets.","","Classification, J.D. Cowen, July 1957","Joellen mcGann","https://www.flickr.com/photos/115096994@N02/21190285703","https://farm1.staticflickr.com/640/21190285703_b2a2be295b_m.jpg","superuser",-0.9734,51.4496,"SwordsPt1"
"46807","433","Sword","","Private (1999) Jones, S. Mr.,5 Middleton Road, Epsom, Surrey","England,Berkshire,Bourne End,Found by Mr. S. Jones whilst at a metal-detector rally on 10 Jan. 1999. Pegged spearhead found nearby by another (50 ft).","Bourne End, Wooburn Green, Bourne End, Buckinghamshire SL8, UK","51.5765108","-0.7100694000000658","SA 897 865","10","1","1999","390","of shoulders 50","","413; rivet 2","","","","","","Possible Hoard","Typology: Corp's Tongue sword. Tong has 3 rivet holes, centre on is incomplete, rivet found in bottom hole. Short fat ribs join shoulder rivet holes with bottom hole on tong.,Condition: incomplete. Broken into at least 3 parts in antiquity by bending into V shape, tip missing. Signs of edge-on-edge damage on blade.","","","Joellen mcGann","https://www.flickr.com/photos/115096994@N02/21812940065","https://farm1.staticflickr.com/665/21812940065_5aab73c1a4_m.jpg","superuser",-0.7101,51.5765,"SwordsPt1"
